[
  {
    "schoolID": "1",
    "name": "Academy of Mary Immaculate Fitzroy",
    "principal": "Sr Mary Moloney",
    "address1": "88 Nicholson Street",
    "suburb": "FITZROY",
    "postcode": "3065",
    "state": "VIC",
    "schoolPhone": "03 9412 7100",
    "schoolEmail": ""
  },
  {
    "schoolID": "3",
    "name": "All Saints Parish School Portland",
    "principal": "Jamie Walsh",
    "address1": "PO Box 800",
    "suburb": "PORTLAND",
    "postcode": "3305",
    "state": "VIC",
    "schoolPhone": "5523 3654",
    "schoolEmail": "principal@asportland.catholic.edu.au"
  },
  {
    "schoolID": "4",
    "name": "Annunciation School Brooklyn",
    "principal": "Barry Ennis",
    "address1": "PO Box 431",
    "suburb": "ALTONA NORTH",
    "postcode": "3025",
    "state": "VIC",
    "schoolPhone": "9314 6271",
    "schoolEmail": "principal@asbrooklyn.catholic.edu.au"
  },
  {
    "schoolID": "705",
    "name": "Antonine College Pascoe Vale South",
    "principal": "Sr Daad El-Azzi AS",
    "address1": "PO Box 197",
    "suburb": "MORELAND",
    "postcode": "3058",
    "state": "VIC",
    "schoolPhone": "9354 1377",
    "schoolEmail": "principal@antonine.catholic.edu.au"
  },
  {
    "schoolID": "6",
    "name": "Aquinas College Ringwood",
    "principal": "Darren Atkinson",
    "address1": "PO Box 190",
    "suburb": "RINGWOOD",
    "postcode": "3134",
    "state": "VIC",
    "schoolPhone": "9259 3000",
    "schoolEmail": "principal@aquinas.vic.edu.au"
  },
  {
    "schoolID": "660",
    "name": "Assumption College Kilmore",
    "principal": "Ms Kate Fogarty",
    "address1": "PO Box 111",
    "suburb": "KILMORE",
    "postcode": "3764",
    "state": "VIC",
    "schoolPhone": "03 5782 1422",
    "schoolEmail": "principal@assumption.vic.edu.au"
  },
  {
    "schoolID": "759",
    "name": "Australian Christian College Hume Benalla",
    "principal": "Terry Harding",
    "address1": "21 Sydney Rd",
    "suburb": "BENALLA",
    "postcode": "3672",
    "state": "VIC",
    "schoolPhone": "(03) 5764 7800",
    "schoolEmail": "principal@acc.edu.au"
  },
  {
    "schoolID": "8",
    "name": "Ave Maria College Aberfeldie",
    "principal": "Elizabeth Hanney",
    "address1": "14 - 22 Vida St",
    "suburb": "ABERFELDIE",
    "postcode": "3040",
    "state": "VIC",
    "schoolPhone": "9337 1666",
    "schoolEmail": "principal@avemaria.vic.edu.au"
  },
  {
    "schoolID": "641",
    "name": "Avila College Mount Waverley",
    "principal": "Dr Michelle Cotter",
    "address1": "35 Charles Street",
    "suburb": "MOUNT WAVERLEY",
    "postcode": "3149",
    "state": "VIC",
    "schoolPhone": "03 9831 9600",
    "schoolEmail": "avila@avilacollege.vic.edu.au"
  },
  {
    "schoolID": "680",
    "name": "Bacchus Marsh Grammar",
    "principal": "Andrew Neal",
    "address1": "PO Box 214",
    "suburb": "BACCHUS MARSH",
    "postcode": "3340",
    "state": "VIC",
    "schoolPhone": "5366 4800",
    "schoolEmail": "school@bmg.vic.edu.au"
  },
  {
    "schoolID": "676",
    "name": "Ballarat Christian College Sebastopol",
    "principal": "Mr Michael Stewart",
    "address1": "PO Box 183",
    "suburb": "SEBASTOPOL",
    "postcode": "3356",
    "state": "VIC",
    "schoolPhone": "5337 5900",
    "schoolEmail": "bcc@balcc.vic.edu.au"
  },
  {
    "schoolID": "650",
    "name": "Ballarat Clarendon College",
    "principal": "David Shepherd",
    "address1": "1425 Sturt Street",
    "suburb": "BALLARAT",
    "postcode": "3350",
    "state": "VIC",
    "schoolPhone": "5330 8200",
    "schoolEmail": "principal@clarendon.vic.edu.au"
  },
  {
    "schoolID": "73",
    "name": "Ballarat Grammar Wendouree",
    "principal": "Mark Warwick",
    "address1": "201 Forest Street",
    "suburb": "WENDOUREE",
    "postcode": "3355",
    "state": "VIC",
    "schoolPhone": "5338 0700",
    "schoolEmail": "bgs@bgs.vic.edu.au"
  },
  {
    "schoolID": "811",
    "name": "Ballarat Steiner School Mount Helen",
    "principal": "Eric Hopf",
    "address1": "244 Moss Avenue",
    "suburb": "MT HELEN",
    "postcode": "3350",
    "state": "VIC",
    "schoolPhone": "0353418188",
    "schoolEmail": "welcome@ballaratsteinershool.com.au"
  },
  {
    "schoolID": "623",
    "name": "Bayview College Portland",
    "principal": "Dr Michelle Kearney",
    "address1": "119 Bentinck Street",
    "suburb": "PORTLAND",
    "postcode": "3305",
    "state": "VIC",
    "schoolPhone": "5523 1042",
    "schoolEmail": ""
  },
  {
    "schoolID": "608",
    "name": "Beaconhills Christian College Pakenham",
    "principal": "Sarah Rudiger",
    "address1": "30-34 Toomuc Valley Road",
    "suburb": "PAKENHAM",
    "postcode": "3805",
    "state": "VIC",
    "schoolPhone": "1300 002 225",
    "schoolEmail": "principal@beaconhills.vic.edu.au"
  },
  {
    "schoolID": "629",
    "name": "Berengarra School Box Hill Nth",
    "principal": "Peter Heffernan",
    "address1": "43 Harrison Street",
    "suburb": "BOX HILL NTH",
    "postcode": "3129",
    "state": "VIC",
    "schoolPhone": "9898 9167",
    "schoolEmail": "berengarra@bigpond.com"
  },
  {
    "schoolID": "10",
    "name": "Bethany Catholic Primary School Werribee North ",
    "principal": "Gemma Gowland",
    "address1": "80 Thames Boulevard",
    "suburb": "WERRIBEE NORTH",
    "postcode": "3030",
    "state": "VIC",
    "schoolPhone": "03 9742 9800",
    "schoolEmail": "principal@bswerribeenth.catholic.edu.au"
  },
  {
    "name": "Borinya Wangaratta Community Partnership",
    "principal": "Mrs Genevieve O'Reilly",
    "address1": "30 College Street",
    "suburb": "WANGARATTA",
    "postcode": "3676",
    "state": "VIC",
    "schoolPhone": "5721 2174"
  },
  {
    "schoolID": "596",
    "name": "Braemar College Ltd Woodend",
    "principal": "Russell Deer",
    "address1": "Mt Macedon Road",
    "suburb": "WOODEND",
    "postcode": "3442",
    "state": "VIC",
    "schoolPhone": "5427 2500",
    "schoolEmail": "r.deer@braemar.vic.edu.au"
  },
  {
    "schoolID": "714",
    "name": "Brighton Grammar School",
    "principal": "Ross Featherston",
    "address1": "90 Outer Crescent",
    "suburb": "BRIGHTON",
    "postcode": "3186",
    "state": "VIC",
    "schoolPhone": "(03) 8591 2200",
    "schoolEmail": ""
  },
  {
    "schoolID": "697",
    "name": "Camberwell Girls Grammar Canterbury",
    "principal": "Anne Feehan",
    "address1": "2 Torrington Street",
    "suburb": "CANTERBURY",
    "postcode": "3126",
    "state": "VIC",
    "schoolPhone": "9813 1166",
    "schoolEmail": ""
  },
  {
    "schoolID": "11",
    "name": "Cana Catholic Primary School Hillside ",
    "principal": "Mrs Lina Vermeulen",
    "address1": "46-60 Banchory Avenue",
    "suburb": "HILLSIDE",
    "postcode": "3037",
    "state": "VIC",
    "schoolPhone": "8390 9200",
    "schoolEmail": "principal@canahillside.catholic.edu.au"
  },
  {
    "schoolID": "657",
    "name": "Carey Baptist Grammar School Kew",
    "principal": "Philip Grutzner",
    "address1": "349 Barkers Road",
    "suburb": "KEW",
    "postcode": "3101",
    "state": "VIC",
    "schoolPhone": "9816 1222",
    "schoolEmail": "reception@carey.com.au"
  },
  {
    "schoolID": "729",
    "name": "Caroline Chisholm Catholic College Braybrook",
    "principal": "Mr Marco Di Cesare",
    "address1": "204 Churchill Avenue",
    "suburb": "BRAYBROOK",
    "postcode": "3019",
    "state": "VIC",
    "schoolPhone": "03 9296 5311",
    "schoolEmail": "accounts@cccc.vic.edu.au"
  },
  {
    "schoolID": "700",
    "name": "Cathedral College Wangaratta",
    "principal": "Mr Nick Jones",
    "address1": "PO Box 1086",
    "suburb": "WANGARATTA",
    "postcode": "3676",
    "state": "VIC",
    "schoolPhone": "5722 2144",
    "schoolEmail": "principal@cathedralcollege.vic.edu.au"
  },
  {
    "schoolID": "749",
    "name": "Catherine McAuley College Bendigo",
    "principal": "Mr Brian Turner",
    "address1": "164 Barkly Street",
    "suburb": "BENDIGO",
    "postcode": "3550",
    "state": "VIC",
    "schoolPhone": "5449 3466",
    "schoolEmail": "principal@cmc.vic.edu.au"
  },
  {
    "schoolID": "886",
    "name": "Catherine Mcauley College Coolock Campus",
    "principal": "Brian Turner",
    "address1": "Mcivor Highway",
    "suburb": "JUNORTOUN",
    "postcode": "3551",
    "state": "VIC",
    "schoolPhone": "0354459100",
    "schoolEmail": "info@cmc.vic.edu.au"
  },
  {
    "schoolID": "15",
    "name": "Catholic College Sale",
    "principal": "Christopher Randell",
    "address1": "PO Box 594",
    "suburb": "SALE",
    "postcode": "3850",
    "state": "VIC",
    "schoolPhone": "5143 9700",
    "schoolEmail": "principal@ccsale.catholic.edu.au"
  },
  {
    "schoolID": "13",
    "name": "Catholic College Wodonga",
    "principal": "Darren Hovey",
    "address1": "PO Box 591",
    "suburb": "WODONGA",
    "postcode": "3690",
    "state": "VIC",
    "schoolPhone": "(02) 6043 5500",
    "schoolEmail": "principal@ccw.vic.edu.au"
  },
  {
    "schoolID": "665",
    "name": "Catholic Ladies' College Ltd Eltham",
    "principal": "Stephanie Evans",
    "address1": "19 Diamond Street",
    "suburb": "ELTHAM",
    "postcode": "3095",
    "state": "VIC",
    "schoolPhone": "9439 4077",
    "schoolEmail": "principal@clc.vic.edu.au"
  },
  {
    "schoolID": "947",
    "name": "Catholic Regional College Caroline Springs",
    "principal": "Jamie Madigan",
    "address1": "10 College Street",
    "suburb": "CAROLINE SPRINGS",
    "postcode": "3023",
    "state": "VIC",
    "schoolPhone": "9217 8000",
    "schoolEmail": "principal@crccs.catholic.edu.au"
  },
  {
    "schoolID": "18",
    "name": "Catholic Regional College Melton",
    "principal": "Marlene Jorgensen",
    "address1": "109-141 Bullmans Rd",
    "suburb": "MELTON WEST",
    "postcode": "3337",
    "state": "VIC",
    "schoolPhone": "8099 6000",
    "schoolEmail": "info@crcmelton.com.au"
  },
  {
    "schoolID": "21",
    "name": "Catholic Regional College North Keilor ",
    "principal": "",
    "address1": "1C Santa Monica Drive",
    "suburb": "Keilor North ",
    "postcode": "3038",
    "state": "VIC",
    "schoolPhone": "",
    "schoolEmail": ""
  },
  {
    "schoolID": "19",
    "name": "Catholic Regional College St Albans",
    "principal": "Christina Utri",
    "address1": "24 Theodore Street",
    "suburb": "ST ALBANS",
    "postcode": "3021",
    "state": "VIC",
    "schoolPhone": "9366 2566",
    "schoolEmail": "principal@crcstalbans.catholic.edu.au"
  },
  {
    "schoolID": "20",
    "name": "Catholic Regional College Sydenham",
    "principal": "Brendan Watson OAM",
    "address1": "38 Sydenham Road",
    "suburb": "SYDENHAM",
    "postcode": "3037",
    "state": "VIC",
    "schoolPhone": "9361 0000",
    "schoolEmail": ""
  },
  {
    "schoolID": "730",
    "name": "Caulfield Grammar School Wheelers Hill Campus Wheelers Hill",
    "principal": "Andrew Strooper",
    "address1": "74-82 Jells Road",
    "suburb": "WHEELER HILL",
    "postcode": "3150",
    "state": "VIC",
    "schoolPhone": "8562 5275",
    "schoolEmail": "AndrewStrooper@caulfieldgs.vic.edu.au"
  },
  {
    "schoolID": "788",
    "name": "Caulfield Grammar School Malvern Campus Glen Iris",
    "principal": "Simone Reilly",
    "address1": "5 Willoughby Ave",
    "suburb": "Glen Iris",
    "postcode": "3146",
    "state": "VIC",
    "schoolPhone": "0398855995",
    "schoolEmail": "simone.reilly@caulfieldgs.vic.edu.au"
  },
  {
    "schoolID": "728",
    "name": "Caulfield Grammar School Caulfield Campus St Kilda East",
    "principal": "Ashleigh Martin",
    "address1": "217 Glen Eira Road",
    "suburb": "ST KILDA EAST",
    "postcode": "3183",
    "state": "VIC",
    "schoolPhone": "9524 6300",
    "schoolEmail": "principal@caulfieldgs.vic.edu.au"
  },
  {
    "schoolID": "726",
    "name": "Chairo Christian School Drouin",
    "principal": "Judy Linossier",
    "address1": "PO Box 93",
    "suburb": "DROUIN",
    "postcode": "3818",
    "state": "VIC",
    "schoolPhone": "5625 4600",
    "schoolEmail": "drouin@chairo.vic.edu.au"
  },
  {
    "schoolID": "22",
    "name": "Christ Our Holy Redeemer Primary School Oakleigh East",
    "principal": "Mr Thomas Coghlan",
    "address1": "43 Ferntree Gully Road",
    "suburb": "OAKLEIGH EAST",
    "postcode": "3166",
    "state": "VIC",
    "schoolPhone": "9569 8966",
    "schoolEmail": "principal@cohroakeast.catholic.edu.au"
  },
  {
    "schoolID": "23",
    "name": "Christ the King Primary School Braybrook ",
    "principal": "Brendan Gill",
    "address1": "23 Riley Court",
    "suburb": "BRAYBROOK",
    "postcode": "3019",
    "state": "VIC",
    "schoolPhone": "9311 7387",
    "schoolEmail": "principal@ctkbraybrook.catholic.edu.au"
  },
  {
    "schoolID": "948",
    "name": "Christ the King School Newcomb",
    "principal": "Mrs Jose Blackley",
    "address1": "79 Wilsons Road",
    "suburb": "NEWCOMB",
    "postcode": "3219",
    "state": "VIC",
    "schoolPhone": "5248 1093",
    "schoolEmail": "principal@ctknewcomb.catholic.edu.au"
  },
  {
    "schoolID": "25",
    "name": "Christ the Priest Catholic Primary School Caroline Springs",
    "principal": "Mrs Adele Vesty",
    "address1": "54 Caroline Springs Boulevard",
    "suburb": "CAROLINE SPRINGS",
    "postcode": "3023",
    "state": "VIC",
    "schoolPhone": "9361 8600",
    "schoolEmail": "principal@ctpcs.catholic.edu.au"
  },
  {
    "schoolID": "27",
    "name": "Clairvaux Catholic School Belmont",
    "principal": "Basil Flynn",
    "address1": "45 - 75 Reynolds Rd",
    "suburb": "BELMONT",
    "postcode": "3216",
    "state": "VIC",
    "schoolPhone": "5243 7102",
    "schoolEmail": "principal@ccsbelmont.com.au"
  },
  {
    "schoolID": "28",
    "name": "Clonard College Geelong",
    "principal": "Luci Quinn",
    "address1": "225 Church Street",
    "suburb": "HERNE HILL",
    "postcode": "3218",
    "state": "VIC",
    "schoolPhone": "5278 2155",
    "schoolEmail": "principal@clonard.catholic.edu.au"
  },
  {
    "schoolID": "639",
    "name": "Cobram Anglican Grammar",
    "principal": "Steve Gayle",
    "address1": "Campbell's Road",
    "suburb": "COBRAM",
    "postcode": "3644",
    "state": "VIC",
    "schoolPhone": "5871 1816",
    "schoolEmail": "admin@ckc.vic.edu.au"
  },
  {
    "schoolID": "29",
    "name": "Columba Catholic School Bunyip",
    "principal": "Jan Gubbins",
    "address1": "28-38 Hope Street",
    "suburb": "BUNYIP ",
    "postcode": "3815",
    "state": "VIC",
    "schoolPhone": "5629 5933",
    "schoolEmail": "principal@bunyip.catholic.edu.au"
  },
  {
    "schoolID": "30",
    "name": "Corpus Christi School Werribee",
    "principal": "Ms Linda Roynic",
    "address1": "29 Russell Street",
    "suburb": "WERRIBEE  ",
    "postcode": "3030",
    "state": "VIC",
    "schoolPhone": "9741 8440",
    "schoolEmail": "principal@ccwerribee.catholic.edu.au"
  },
  {
    "schoolID": "31",
    "name": "Corpus Christi School Glenroy",
    "principal": "Mr Stephen Lucardie",
    "address1": "13-21 Widford Street",
    "suburb": "GLENROY",
    "postcode": "3046",
    "state": "VIC",
    "schoolPhone": "9306 3062",
    "schoolEmail": "principal@ccglenroy.catholic.edu.au"
  },
  {
    "schoolID": "32",
    "name": "Corpus Christi School Kingsville",
    "principal": "Mr Anthony Hyde",
    "address1": "380 Geelong Road",
    "suburb": "KINGSVILLE",
    "postcode": "3012",
    "state": "VIC",
    "schoolPhone": "9314 7303",
    "schoolEmail": ""
  },
  {
    "schoolID": "702",
    "name": "Covenant College Bell Post Hill",
    "principal": "Mrs Susan Cox",
    "address1": "105 Creamery Road",
    "suburb": "BELL POST HILL",
    "postcode": "3215",
    "state": "VIC",
    "schoolPhone": "5278 5122",
    "schoolEmail": "administration@covenant.vic.edu.au"
  },
  {
    "schoolID": "782",
    "name": "Creek Street Christian College Bendigo",
    "principal": "Mrs Coral Maxwell",
    "address1": "91 Creek Street",
    "suburb": "Bendigo",
    "postcode": "3550",
    "state": "VIC",
    "schoolPhone": "0354421722",
    "schoolEmail": "studentfees@creekstreet.vic.edu.au"
  },
  {
    "schoolID": "965",
    "name": "Damascus College Mt Clear",
    "principal": "Matthew Byrne",
    "address1": "1412 Geelong Road",
    "suburb": "MT CLEAR",
    "postcode": "3350",
    "state": "VIC",
    "schoolPhone": "5337 2222",
    "schoolEmail": "principal@damascus.vic.edu.au"
  },
  {
    "schoolID": "35",
    "name": "De La Salle College Malvern",
    "principal": "Mr Peter Houlihan",
    "address1": "1318 High Street",
    "suburb": "MALVERN",
    "postcode": "3144",
    "state": "VIC",
    "schoolPhone": "9508 2100",
    "schoolEmail": ""
  },
  {
    "schoolID": "36",
    "name": "Don Bosco School Narre Warren",
    "principal": "Mr Mark Linden",
    "address1": "496 Princes Highway",
    "suburb": "NARRE WARREN",
    "postcode": "3805",
    "state": "VIC",
    "schoolPhone": "9704 7255",
    "schoolEmail": ""
  },
  {
    "schoolID": "681",
    "name": "Doxa School  Bendigo",
    "principal": "John Russell",
    "address1": "118 Hargreaves Street",
    "suburb": "BENDIGO",
    "postcode": "3550",
    "state": "VIC",
    "schoolPhone": "",
    "schoolEmail": ""
  },
  {
    "schoolID": "701",
    "name": "Eltham College",
    "principal": "Simon Le Plastrier",
    "address1": "1660 Main Road",
    "suburb": "RESEARCH",
    "postcode": "3095",
    "state": "VIC",
    "schoolPhone": "9437 1421",
    "schoolEmail": "principal@elthamcollege.vic.edu.au"
  },
  {
    "schoolID": "609",
    "name": "Emmanuel College Notre Dame Campus Point Cook",
    "principal": "Christopher Stock",
    "address1": "2-40 Foxwood Drive",
    "suburb": "P0INT COOK",
    "postcode": "3030",
    "state": "VIC",
    "schoolPhone": "83255100",
    "schoolEmail": "principal@ec.melb.catholic.edu.au"
  },
  {
    "schoolID": "653",
    "name": "Emmanuel College St Paul's Campus Altona North",
    "principal": "Mr Christopher Stock",
    "address1": "423 Blackshaws Road",
    "suburb": "ALTONA NORTH",
    "postcode": "3025",
    "state": "VIC",
    "schoolPhone": "",
    "schoolEmail": ""
  },
  {
    "schoolID": "277",
    "name": "Emmanuel College Warrnambool",
    "principal": "Peter Morgan",
    "address1": "PO Box 486",
    "suburb": "WARRNAMBOOL",
    "postcode": "3280",
    "state": "VIC",
    "schoolPhone": "5560 0888",
    "schoolEmail": "principal@emmanuel.vic.edu.au "
  },
  {
    "schoolID": "316",
    "name": "Emmaus Catholic Primary School Mount Clear",
    "principal": "Jo-Anne Bond",
    "address1": "1503 Geelong Road",
    "suburb": "MOUNT CLEAR",
    "postcode": "3350",
    "state": "VIC",
    "schoolPhone": "5330 2266",
    "schoolEmail": "principal@emtclear.catholic.edu.au"
  },
  {
    "schoolID": "39",
    "name": "Emmaus Catholic Primary School Sydenham",
    "principal": "Mrs Jackie Byrne",
    "address1": "370 Sydenham Road",
    "suburb": "SYDENHAM",
    "postcode": "3037",
    "state": "VIC",
    "schoolPhone": "9390 4500",
    "schoolEmail": "principal@emsydenham.catholic.edu.au"
  },
  {
    "schoolID": "642",
    "name": "Emmaus College Vermont South",
    "principal": "Mr Antony Hirst",
    "address1": "503 Springvale Road",
    "suburb": "VERMONT SOUTH",
    "postcode": "3133",
    "state": "VIC",
    "schoolPhone": "9845 3211",
    "schoolEmail": "principal@ecvermontsth.catholic.edu.au"
  },
  {
    "schoolID": "41",
    "name": "FCJ College Benalla",
    "principal": "Joanne Rock",
    "address1": "2 Arundel Street",
    "suburb": "BENALLA",
    "postcode": "3672",
    "state": "VIC",
    "schoolPhone": "5762 1222",
    "schoolEmail": "principal@fcjbenalla.catholic.edu.au"
  },
  {
    "schoolID": "784",
    "name": "Firbank Grammar School Junior Campus Sandringham",
    "address1": "45 Royal Avenue",
    "suburb": "Sandringham",
    "postcode": "3191",
    "state": "VIC",
    "schoolPhone": "0395915188",
    "schoolEmail": "jwilliams@firbank.vic.edu.au"
  },
  {
    "schoolID": "622",
    "name": "Frank Dando Sports Academy Ashwood",
    "principal": "Frank Dando",
    "address1": "33 Raymond Street",
    "suburb": "ASHWOOD",
    "postcode": "3147",
    "state": "VIC",
    "schoolPhone": "9807 2111",
    "schoolEmail": "principal@frankdando.com.au"
  },
  {
    "schoolID": "716",
    "name": "Freshwater Creek Steiner School Fresh Water Creek",
    "principal": "James Weishardt",
    "address1": "52 McIntyres Road",
    "suburb": "FRESHWATER CREEK",
    "postcode": "3217",
    "state": "VIC",
    "schoolPhone": "5264 5077",
    "schoolEmail": ""
  },
  {
    "schoolID": "43",
    "name": "Galen Catholic College Wangaratta ",
    "principal": "Bernard Neal",
    "address1": "PO Box 630",
    "suburb": "WANGARATTA",
    "postcode": "3676",
    "state": "VIC",
    "schoolPhone": "5721 6322",
    "schoolEmail": "principal@galen.vic.edu.au"
  },
  {
    "schoolID": "44",
    "name": "Galilee Regional Catholic Primary School Melbourne South ",
    "principal": "Mr Simon Millar",
    "address1": "301-319 Bank Street",
    "suburb": "SOUTH MELBOURNE",
    "postcode": "3205",
    "state": "VIC",
    "schoolPhone": "9699 2928",
    "schoolEmail": "smillar@gsm.vic.edu.au"
  },
  {
    "schoolID": "648",
    "name": "Geelong College",
    "principal": "Mr Andrew Barr",
    "address1": "PO Box 5",
    "suburb": "GEELONG",
    "postcode": "3220",
    "state": "VIC",
    "schoolPhone": "5226 3111",
    "schoolEmail": ""
  },
  {
    "schoolID": "649",
    "name": "Geelong Grammar School",
    "principal": "Ms Rebecca Cody",
    "address1": "50 Biddlecombe Avenue",
    "suburb": "CORIO",
    "postcode": "3214",
    "state": "VIC",
    "schoolPhone": "5273 9200",
    "schoolEmail": "seniorschool@ggs.vic.edu.au"
  },
  {
    "schoolID": "757",
    "name": "Geelong Lutheran College",
    "principal": "Jill Lang-Mahs",
    "address1": "2-38 Burvilled Rd",
    "suburb": "ARMSTRONG CREEK",
    "postcode": "3217",
    "state": "VIC",
    "schoolPhone": "5264 1038",
    "schoolEmail": ""
  },
  {
    "schoolID": "45",
    "name": "Genazzano FCJ College Kew",
    "principal": "Karen Jebb",
    "address1": "301 Cotham Road",
    "suburb": "KEW",
    "postcode": "3101",
    "state": "VIC",
    "schoolPhone": "8862 1000",
    "schoolEmail": "principal@genazzano.vic.edu.au"
  },
  {
    "schoolID": "715",
    "name": "Gippsland Grammar Sale",
    "principal": "David Baker",
    "address1": "PO BOX 465 Sale ",
    "suburb": "SALE",
    "postcode": "3853",
    "state": "VIC",
    "schoolPhone": "5143 6388",
    "schoolEmail": "principal@gippslandgs.vic.edu.au"
  },
  {
    "schoolID": "710",
    "name": "Girton Grammar Bendigo",
    "principal": "Mr Matthew Maruff",
    "address1": "105 Mackenzie Street",
    "suburb": "BENDIGO",
    "postcode": "3550",
    "state": "VIC",
    "schoolPhone": "5441 3114",
    "schoolEmail": "principal@girton.vic.edu.au"
  },
  {
    "schoolID": "787",
    "name": "Glowrey Catholic Primary School Wollert",
    "principal": "Tim Kelly",
    "address1": "10 Baltrum Dr",
    "suburb": "WOLLERT",
    "postcode": "3750",
    "state": "VIC",
    "schoolPhone": "8579 6505",
    "schoolEmail": ""
  },
  {
    "schoolID": "46",
    "name": "Good Samaritan Catholic Primary School Roxburgh Park",
    "principal": "Mr Paul Sedunary",
    "address1": "1-29 Southern Cross Drive",
    "suburb": "ROXBURGH PARK",
    "postcode": "3064",
    "state": "VIC",
    "schoolPhone": "9308 6177",
    "schoolEmail": "principal@gsroxburghpark.catholic.edu.au"
  },
  {
    "schoolID": "630",
    "name": "Good Shepherd College Hamilton",
    "principal": "Shane Jurecky",
    "address1": "PO Box 390",
    "suburb": "HAMILTON",
    "postcode": "3300",
    "state": "VIC",
    "schoolPhone": "5571 2236",
    "schoolEmail": "principal@gsc.vic.edu.au"
  },
  {
    "schoolID": "632",
    "name": "Good Shepherd Primary School Wheelers Hill",
    "principal": "Mrs Ruth Jones",
    "address1": "30 Academy Avenue",
    "suburb": "WHEELERS HILL",
    "postcode": "3150",
    "state": "VIC",
    "schoolPhone": "9562 0229",
    "schoolEmail": "gsoffice@gswheelershill.catholic.edu.au"
  },
  {
    "schoolID": "713",
    "name": "Goulburn Valley Grammar School Shepparton",
    "principal": "Mark Torriero",
    "address1": "455 Verney Road",
    "suburb": "SHEPPARTON",
    "postcode": "3630",
    "state": "VIC",
    "schoolPhone": "5821 8155",
    "schoolEmail": "gvgs@gvgs.vic.edu.au"
  },
  {
    "schoolID": "686",
    "name": "Haileybury College Berwick",
    "principal": "Derek Scott",
    "address1": "138 High Street",
    "suburb": "BERWICK",
    "postcode": "3806",
    "state": "VIC",
    "schoolPhone": "9904 9000",
    "schoolEmail": "principal@haileybury.vic.edu.au"
  },
  {
    "schoolID": "895",
    "name": "Haileybury College Brighton East",
    "principal": "Derek Scott",
    "address1": "120 South Road",
    "suburb": "BRIGHTON EAST",
    "postcode": "3187",
    "state": "VIC",
    "schoolPhone": "0392132222",
    "schoolEmail": ""
  },
  {
    "schoolID": "698",
    "name": "Haileybury Girls College Edrington",
    "principal": "Derek Scott",
    "address1": "138 High Street",
    "suburb": "BERWICK",
    "postcode": "3806",
    "state": "VIC",
    "schoolPhone": "8768 2300",
    "schoolEmail": ""
  },
  {
    "schoolID": "717",
    "name": "Haileybury Girls College Keysborough",
    "principal": "Derek Scott",
    "address1": "855 Springvale Road",
    "suburb": "Keysborough",
    "postcode": "3987",
    "state": "VIC",
    "schoolPhone": "0392132222",
    "schoolEmail": "reception@haileybury.vic.edu.au"
  },
  {
    "schoolID": "765",
    "name": "Henderson College Irymple",
    "principal": "Sandra Ferry",
    "address1": "807 Cowra Avenue",
    "suburb": "IRYMPLE",
    "postcode": "3498",
    "state": "VIC",
    "schoolPhone": "03 5024 5192",
    "schoolEmail": "principal@hendersoncollege.com.au"
  },
  {
    "schoolID": "163",
    "name": "Highview Christian Community College Maryborough",
    "principal": "Ms Melinda Scash",
    "address1": "21 Kars Street",
    "suburb": "MARYBOROUGH",
    "postcode": "3465",
    "state": "VIC",
    "schoolPhone": "5459 1000",
    "schoolEmail": "highview@highview.vic.edu.au"
  },
  {
    "schoolID": "48",
    "name": "Holy Child School Dallas",
    "principal": "John Kremers",
    "address1": "Blair Street",
    "suburb": "Dallas",
    "postcode": "3047",
    "state": "VIC",
    "schoolPhone": "9309 1620",
    "schoolEmail": ""
  },
  {
    "schoolID": "949",
    "name": "Holy Cross Catholic Primary School Mickleham",
    "principal": "Mr Mark Miatello",
    "address1": "2-14 Carlingford Road",
    "suburb": "MICKLEHAM",
    "postcode": "3064",
    "state": "VIC",
    "schoolPhone": "7379 5532",
    "schoolEmail": "principal@hcmickleham.catholic.edu.au"
  },
  {
    "schoolID": "49",
    "name": "Holy Cross Primary School New Gisborne ",
    "principal": "Mrs Amanda Thomas",
    "address1": "158 Hamilton Road",
    "suburb": "NEW GISBOURNE",
    "postcode": "3438",
    "state": "VIC",
    "schoolPhone": "5420 8100",
    "schoolEmail": "principal@hcnewgisborne.catholic.edu.au"
  },
  {
    "schoolID": "51",
    "name": "Holy Eucharist School St Albans South",
    "principal": "Mr Michael Bonnici",
    "address1": "1A Oleander Drive",
    "suburb": "ST ALBANS SOUTH",
    "postcode": "3021",
    "state": "VIC",
    "schoolPhone": "8312 0900",
    "schoolEmail": "michael.bonnici@hestalbanssth.catholic.edu.au"
  },
  {
    "schoolID": "52",
    "name": "Holy Family School Bell Park",
    "principal": "Peter Brunt",
    "address1": "PO Box 5482",
    "suburb": "NORTH GEELONG",
    "postcode": "3215",
    "state": "VIC",
    "schoolPhone": "5278 4634",
    "schoolEmail": "principal@hfbellpark.catholic.edu.au"
  },
  {
    "schoolID": "53",
    "name": "Holy Family School Doveton",
    "principal": "Mr Steve Twomey",
    "address1": "100 Power Road",
    "suburb": "DOVETON",
    "postcode": "3177",
    "state": "VIC",
    "schoolPhone": "9791 1853",
    "schoolEmail": ""
  },
  {
    "schoolID": "54",
    "name": "Holy Family School Mount Waverley",
    "principal": "Paul Wakeling",
    "address1": "250 Stephensons Road",
    "suburb": "MOUNT WAVERLEY",
    "postcode": "3149",
    "state": "VIC",
    "schoolPhone": "9807 3300",
    "schoolEmail": "principal@hfmw.catholic.edu.au"
  },
  {
    "schoolID": "55",
    "name": "Holy Name School Reservoir",
    "principal": "Mrs Caroline Galea",
    "address1": "12 Robb Street",
    "suburb": "RESERVOIR",
    "postcode": "3073",
    "state": "VIC",
    "schoolPhone": "9471 0883",
    "schoolEmail": "principal@hnpe.catholic.edu.au"
  },
  {
    "schoolID": "719",
    "name": "Holy Rosary Primary School Heathcote",
    "principal": "Noel Dillon",
    "address1": "Pohlman Street",
    "suburb": "HEATHCOTE",
    "postcode": "3523",
    "state": "VIC",
    "schoolPhone": "5433 2057",
    "schoolEmail": "principal@hrheathcote.catholic.edu.au"
  },
  {
    "schoolID": "720",
    "name": "Holy Rosary Primary School White Hills",
    "principal": "Paul Wilkinson",
    "address1": "556 Napier Street",
    "suburb": "WHITE HILLS",
    "postcode": "3550",
    "state": "VIC",
    "schoolPhone": "5448 4280",
    "schoolEmail": "principal@hrwhitehills.catholic.edu.au"
  },
  {
    "schoolID": "57",
    "name": "Holy Rosary School Kensington",
    "principal": "Ms Christine Shaw",
    "address1": "37 Gower Street",
    "suburb": "KENSINGTON",
    "postcode": "3031",
    "state": "VIC",
    "schoolPhone": "9376 9455",
    "schoolEmail": "principal@hrkensington.catholic.edu.au"
  },
  {
    "schoolID": "59",
    "name": "Holy Saviour Parish School Vermont South ",
    "principal": "Mr Steve Evans",
    "address1": "765 Highbury Road",
    "suburb": "VERMONT SOUTH",
    "postcode": "3133",
    "state": "VIC",
    "schoolPhone": "9803 6828",
    "schoolEmail": "principal@hsvs.catholic.edu.au"
  },
  {
    "schoolID": "60",
    "name": "Holy Spirit Parish School Manifold Heights ",
    "principal": "Rachel Holdsworth",
    "address1": "83 Minerva Road",
    "suburb": "MANIFOLD HEIGHTS",
    "postcode": "3218",
    "state": "VIC",
    "schoolPhone": "5229 8298",
    "schoolEmail": "principal@hsmanifoldheights.catholic.edu.au"
  },
  {
    "schoolID": "61",
    "name": "Holy Spirit School Ringwood North",
    "principal": "Mr Duncan Arendse",
    "address1": "120 Oban Road",
    "suburb": "RINGWOOD NORTH",
    "postcode": "3134",
    "state": "VIC",
    "schoolPhone": "9876 1103",
    "schoolEmail": "principal@hsringwoodnth.catholic.edu.au"
  },
  {
    "schoolID": "62",
    "name": "Holy Spirit School Thornbury East",
    "principal": "Mr Rob Costin",
    "address1": "197 Clarendon Street",
    "suburb": "THORNBURY EAST",
    "postcode": "3071",
    "state": "VIC",
    "schoolPhone": "9480 0391",
    "schoolEmail": "principal@hsthornburyeast.catholic.edu.au"
  },
  {
    "schoolID": "950",
    "name": "Holy Trinity Catholic Primary School Sunbury",
    "principal": "Mrs Krystine Hocking",
    "address1": "145 Mitchells Lane",
    "suburb": "SUNBURY",
    "postcode": "3429",
    "state": "VIC",
    "schoolPhone": "8746 6464",
    "schoolEmail": "principal@htsunbury.catholic.edu.au"
  },
  {
    "schoolID": "778",
    "name": "Holy Trinity Lutheran College Horsham",
    "principal": "Daniel Weller",
    "address1": "25 Trinity Drive",
    "suburb": "HORSHAM",
    "postcode": "3400",
    "state": "VIC",
    "schoolPhone": "53822529",
    "schoolEmail": "principal@htlc.vic.edu.au"
  },
  {
    "schoolID": "63",
    "name": "Holy Trinity Primary School Eltham North",
    "principal": "Mr Vince Bumpstead",
    "address1": "94 Weidlich Road",
    "suburb": "ELTHAM NORTH",
    "postcode": "3095",
    "state": "VIC",
    "schoolPhone": "9431 0888",
    "schoolEmail": "principal@htelthamnth.catholic.edu.au"
  },
  {
    "schoolID": "64",
    "name": "Holy Trinity School Wantirna South",
    "principal": "Mr John Downie",
    "address1": "10 Riddell Road",
    "suburb": "WANTIRNA SOUTH",
    "postcode": "3152",
    "state": "VIC",
    "schoolPhone": "9801 8296",
    "schoolEmail": "principal@htws.catholic.edu.au"
  },
  {
    "schoolID": "696",
    "name": "Hume Anglican GrammarCraigieburn",
    "principal": "Andrew Mackenzie",
    "address1": "PO BOX 338",
    "suburb": "CRAIGIEBURN",
    "postcode": "3064",
    "state": "VIC",
    "schoolPhone": "93057900",
    "schoolEmail": "mackenziea@humegrammar.vic.edu.au"
  },
  {
    "schoolID": "750",
    "name": "Huntingtower School Mount Waverley",
    "principal": "Andrew Houghton",
    "address1": "77 Waimarie Drive",
    "suburb": "MOUNT WAVERLEY",
    "postcode": "3149",
    "state": "VIC",
    "schoolPhone": "9807 8888",
    "schoolEmail": "admin@huntingtower.vic.edu.au"
  },
  {
    "schoolID": "951",
    "name": "Ignatius Learning Centre Richmond",
    "principal": "John Andrew",
    "address1": "326 Church Street",
    "suburb": "RICHMOND",
    "postcode": "3121",
    "state": "VIC",
    "schoolPhone": "9421 7600",
    "schoolEmail": "john.andrew@jss.org.au"
  },
  {
    "schoolID": "65",
    "name": "Immaculate Heart of Mary School Newborough ",
    "principal": "Anne Hassall",
    "address1": "PO Box 281",
    "suburb": "NEWBOROUGH ",
    "postcode": "3825",
    "state": "VIC",
    "schoolPhone": "5127 2342",
    "schoolEmail": "principal@stmnewbor.catholic.edu.au"
  },
  {
    "schoolID": "786",
    "name": "Iona College Geelong",
    "principal": "Damien McKew",
    "address1": "242 Horseshoe Bend Rd,",
    "suburb": "CHARLEMONT",
    "postcode": "3217",
    "state": "VIC",
    "schoolPhone": "03 5229 0004",
    "schoolEmail": "principal@iona.vic.edu.au"
  },
  {
    "schoolID": "711",
    "name": "Ivanhoe Girls' Grammar School Ivanhoe",
    "principal": "Dr Heather Schnagl",
    "address1": "123 Marshall Street",
    "suburb": "IVANHOE",
    "postcode": "3079",
    "state": "VIC",
    "schoolPhone": "9490 6222",
    "schoolEmail": "iggs@ivanhoegirls.vic.edu.au"
  },
  {
    "schoolID": "66",
    "name": "John Paul College Frankston",
    "principal": "Mr John Visentin",
    "address1": "PO Box 3105",
    "suburb": "FRANKSTON EAST",
    "postcode": "3199",
    "state": "VIC",
    "schoolPhone": "9784 0200",
    "schoolEmail": "principal@jpc.vic.edu.au"
  },
  {
    "schoolID": "491",
    "name": "Kardinia International College Geelong",
    "principal": "John Goodfellow",
    "address1": "PO Box 17",
    "suburb": "GEELONG",
    "postcode": "3220",
    "state": "VIC",
    "schoolPhone": "03 5278 9999",
    "schoolEmail": ""
  },
  {
    "schoolID": "67",
    "name": "Kilbreda College Mentone",
    "principal": "Ms Nicole Mangelsdorf",
    "address1": "PO Box 248",
    "suburb": "MENTONE",
    "postcode": "3194",
    "state": "VIC",
    "schoolPhone": "9584 7766",
    "schoolEmail": "principal@kilbreda.vic.edu.au"
  },
  {
    "schoolID": "68",
    "name": "Killester College Springvale",
    "principal": "Ms Sally-Marie Buick",
    "address1": "433 Springvale Road",
    "suburb": "SPRINGVALE",
    "postcode": "3171",
    "state": "VIC",
    "schoolPhone": "9547 5000",
    "schoolEmail": "principal@killester.vic.edu.au"
  },
  {
    "schoolID": "763",
    "name": "Kingswood College Box Hill",
    "principal": "Elisabeth Lenders",
    "address1": "355 Station St",
    "suburb": "Box Hill",
    "postcode": "3128",
    "state": "VIC",
    "schoolPhone": "03 9896 1700",
    "schoolEmail": "kwc@kingswoodcollege.vic.edu.au"
  },
  {
    "schoolID": "585",
    "name": "Kolbe Catholic College Greenvale Lakes",
    "principal": "Mr Nicholas Scully",
    "address1": "5 - 15 Windrock Avenue",
    "suburb": "CRAIGIEBURN",
    "postcode": "3064",
    "state": "VIC",
    "schoolPhone": "8339 3060",
    "schoolEmail": "principal@kolbecc.catholic.edu.au"
  },
  {
    "schoolID": "70",
    "name": "Lavalla Catholic College Traralgon",
    "principal": "John Freeman",
    "address1": "PO Box 1080",
    "suburb": "TRARALGON",
    "postcode": "3844",
    "state": "VIC",
    "schoolPhone": "03 5174 5272",
    "schoolEmail": "principal@lavalla.vic.edu.au"
  },
  {
    "schoolID": "760",
    "name": "Lighthouse Christian College Cranbourne",
    "principal": "Jacob Mathews",
    "address1": "PO Box 5693",
    "suburb": "CRANBOURNE",
    "postcode": "3977",
    "state": "VIC",
    "schoolPhone": "5996 1588",
    "schoolEmail": "office@lccc.vic.edu.au"
  },
  {
    "schoolID": "952",
    "name": "Lisieux Catholic Primary School Torquay North",
    "principal": "Dr Susan Ryan",
    "address1": "90 South Beach Road",
    "suburb": "TORQUAY NORTH",
    "postcode": "3228",
    "state": "VIC",
    "schoolPhone": "9089 6614",
    "schoolEmail": "principal@lisieux.catholic.edu.au"
  },
  {
    "schoolID": "71",
    "name": "Loreto College Ballarat",
    "principal": "Michelle Brodrick",
    "address1": "1600 Sturt Street",
    "suburb": "BALLARAT",
    "postcode": "3350",
    "state": "VIC",
    "schoolPhone": "03 5329 6100",
    "schoolEmail": "principal@loreto.vic.edu.au"
  },
  {
    "schoolID": "72",
    "name": "Loreto Mandeville Hall Toorak",
    "principal": "Dr Susan Stevens",
    "address1": "10 Mandeville Crescent",
    "suburb": "TOORAK",
    "postcode": "3142",
    "state": "VIC",
    "schoolPhone": "9823 8100",
    "schoolEmail": "principal@loretotoorak.vic.edu.au"
  },
  {
    "schoolID": "74",
    "name": "Loyola College Watsonia",
    "principal": "Mr Joseph Favrin",
    "address1": "325 Grimshaw Street",
    "suburb": "WATSONIA",
    "postcode": "3087",
    "state": "VIC",
    "schoolPhone": "9434 4466",
    "schoolEmail": "principal@loyola.vic.edu.au"
  },
  {
    "schoolID": "75",
    "name": "Lumen Christi Catholic Primary School Point Cook",
    "principal": "Trish Armstrong",
    "address1": "260 - 278 Point Cook Road",
    "suburb": "POINT COOK",
    "postcode": "3029",
    "state": "VIC",
    "schoolPhone": "9395 2555",
    "schoolEmail": ""
  },
  {
    "schoolID": "76",
    "name": "Lumen Christi Primary School Churchill",
    "principal": "David Cooper",
    "address1": "PO Box 78",
    "suburb": "CHURCHILL",
    "postcode": "3842",
    "state": "VIC",
    "schoolPhone": "5122 2231",
    "schoolEmail": "principal@churchill.catholic.edu.au"
  },
  {
    "schoolID": "77",
    "name": "Lumen Christi School Delacombe ",
    "principal": "Mr Murray McDonald",
    "address1": "111 Whitelaw Ave",
    "suburb": "DELACOMBE",
    "postcode": "3356",
    "state": "VIC",
    "schoolPhone": "03 5336 2015",
    "schoolEmail": "principal@lcdelacombe.catholic.edu.au"
  },
  {
    "schoolID": "647",
    "name": "Luther College Croydon Hills",
    "principal": "Michael Kleidon",
    "address1": "1-39 Plymouth Road",
    "suburb": "CROYDON HILLS",
    "postcode": "3136",
    "state": "VIC",
    "schoolPhone": "9724 2000",
    "schoolEmail": ""
  },
  {
    "schoolID": "78",
    "name": "MacKillop Catholic Regional College Werribee",
    "principal": "Rory Kennedy",
    "address1": "PO Box 522",
    "suburb": "WERRIBEE",
    "postcode": "3030",
    "state": "VIC",
    "schoolPhone": "8734 5200",
    "schoolEmail": "principal@mackillop.vic.edu.au"
  },
  {
    "schoolID": "189",
    "name": "MacKillop Specialist School Whittington",
    "principal": "Ms Anne Henderson",
    "address1": "25 - 33 Oxford Street",
    "suburb": "WHITTINGTON",
    "postcode": "3219",
    "state": "VIC",
    "schoolPhone": "5248 2557",
    "schoolEmail": ""
  },
  {
    "schoolID": "762",
    "name": "Maharishi School Reservoir",
    "principal": "Mr Steve Charisis",
    "address1": "2-6 Dundee Street",
    "suburb": "RESERVOIR",
    "postcode": "3073",
    "state": "VIC",
    "schoolPhone": "9462 2888",
    "schoolEmail": "office@maharishischool.vic.edu.au"
  },
  {
    "schoolID": "80",
    "name": "Marcellin College Bulleen",
    "principal": "Mark Murphy",
    "address1": "160 Bulleen Road",
    "suburb": "BULLEEN",
    "postcode": "3105",
    "state": "VIC",
    "schoolPhone": "9851 1589",
    "schoolEmail": "info@marcellin.vic.edu.au"
  },
  {
    "schoolID": "82",
    "name": "Marian College  Sunshine West",
    "principal": "Kerry Williams",
    "address1": "188 Glengala Road",
    "suburb": "SUNSHINE WEST",
    "postcode": "3020",
    "state": "VIC",
    "schoolPhone": "9363 1711",
    "schoolEmail": ""
  },
  {
    "schoolID": "487",
    "name": "Marian College Ararat",
    "principal": "Carmel Barker",
    "address1": "304 Barkly Street",
    "suburb": "ARARAT",
    "postcode": "3377",
    "state": "VIC",
    "schoolPhone": "5352 3861",
    "schoolEmail": "principal@mcararat.catholic.edu.au"
  },
  {
    "schoolID": "81",
    "name": "Marian College Myrtleford",
    "principal": "Mrs Catherine Watter",
    "address1": "11-49 Prince Street",
    "suburb": "MYRTLEFORD",
    "postcode": "3737",
    "state": "VIC",
    "schoolPhone": "5752 1596",
    "schoolEmail": ""
  },
  {
    "schoolID": "724",
    "name": "Marist College Bendigo",
    "principal": "Mr Darren McGregor",
    "address1": "39 Pata's Road",
    "suburb": "MAIDEN GULLY",
    "postcode": "3551",
    "state": "VIC",
    "schoolPhone": "5400 1252",
    "schoolEmail": "principal@marist.vic.edu.au"
  },
  {
    "schoolID": "83",
    "name": "Marist Sion College Warragul",
    "principal": "Peter Houlahan",
    "address1": "165 Burke Street",
    "suburb": "WARRAGUL",
    "postcode": "3820",
    "state": "VIC",
    "schoolPhone": "5623 5944",
    "schoolEmail": "marist@mscw.vic.edu.au"
  },
  {
    "schoolID": "84",
    "name": "Mary Immaculate Primary School Ivanhoe",
    "principal": "Ms Veronica Antrim",
    "address1": "PO BOX 290",
    "suburb": "IVANHOE",
    "postcode": "3079",
    "state": "VIC",
    "schoolPhone": "9497 1827",
    "schoolEmail": "info@misivan.melb.catholi.edu.au"
  },
  {
    "schoolID": "85",
    "name": "Mary MacKillop Catholic Regional College Leongatha ",
    "principal": "Michael Delaney",
    "address1": "Horn St",
    "suburb": "LEONGATHA",
    "postcode": "3953",
    "state": "VIC",
    "schoolPhone": "56624255",
    "schoolEmail": ""
  },
  {
    "schoolID": "87",
    "name": "Mary MacKillop School Narre Warren North",
    "principal": "Maree Swenson",
    "address1": "Cnr Ernst Wanke & Narre Warren North Roads",
    "suburb": "Narre Warren North",
    "postcode": "3804",
    "state": "VIC",
    "schoolPhone": "9704 9377",
    "schoolEmail": ""
  },
  {
    "schoolID": "638",
    "name": "Marymede Catholic College South Morang",
    "principal": "Mr Michael Kenny",
    "address1": "60 Williamsons Road",
    "suburb": "SOUTH MORANG",
    "postcode": "3752",
    "state": "VIC",
    "schoolPhone": "03 9407 9000",
    "schoolEmail": ""
  },
  {
    "schoolID": "89",
    "name": "Mater Christi College Belgrave",
    "principal": "Ms Maria Haggett",
    "address1": "PO Box 84",
    "suburb": "BELGRAVE",
    "postcode": "3160",
    "state": "VIC",
    "schoolPhone": "9754 6611",
    "schoolEmail": "principal@materchristi.edu.au"
  },
  {
    "schoolID": "90",
    "name": "Mazenod College Mulgrave",
    "principal": "Fr. Michael Twigg OMI",
    "address1": "Kernot Avenue",
    "suburb": "MULGRAVE",
    "postcode": "3170",
    "state": "VIC",
    "schoolPhone": "9560 0911",
    "schoolEmail": "principal@mazenodmulgrave.catholic.edu.au"
  },
  {
    "schoolID": "620",
    "name": "Melbourne Girls Grammar South Yarra",
    "principal": "Catherine Misson",
    "address1": "86 Anderson Street",
    "suburb": "SOUTH YARRA  VIC",
    "postcode": "3141",
    "state": "VIC",
    "schoolPhone": "9862 9200",
    "schoolEmail": ""
  },
  {
    "schoolID": "670",
    "name": "Melbourne Grammar School Melbourne",
    "principal": "Roy Kelley",
    "address1": "355 St Kilda Road",
    "suburb": "MELBOURNE ",
    "postcode": "3004",
    "state": "VIC",
    "schoolPhone": "",
    "schoolEmail": ""
  },
  {
    "schoolID": "745",
    "name": "Melbourne Indigenous Transition School Richmond",
    "principal": "Ryan Martin",
    "address1": "16 The Vaucluse",
    "suburb": "Richmond",
    "postcode": "3121",
    "state": "VIC",
    "schoolPhone": "9429 3220",
    "schoolEmail": ""
  },
  {
    "schoolID": "718",
    "name": "Melbourne Rudolph Steiner School Warranwood",
    "principal": "",
    "address1": "213 Wonga Road",
    "suburb": "WARRANWOOD",
    "postcode": "3134",
    "state": "VIC",
    "schoolPhone": "9876 2633",
    "schoolEmail": "office@mrss.com.au"
  },
  {
    "schoolID": "91",
    "name": "Mercy College Coburg",
    "principal": "Dr Michelle Cotter",
    "address1": "760 Sydney Road",
    "suburb": "COBURG",
    "postcode": "3058",
    "state": "VIC",
    "schoolPhone": "9319 9299",
    "schoolEmail": ""
  },
  {
    "schoolID": "92",
    "name": "Mercy Regional College Camperdown",
    "principal": "Sharron Gillett",
    "address1": "PO Box 152",
    "suburb": "CAMPERDOWN",
    "postcode": "3260",
    "state": "VIC",
    "schoolPhone": "5593 2011",
    "schoolEmail": "office@mercy.vic.edu.au"
  },
  {
    "schoolID": "645",
    "name": "Methodist Ladies' College Kew",
    "principal": "Diana Vernon",
    "address1": "207 Barkers Road",
    "suburb": "KEW",
    "postcode": "3101",
    "state": "VIC",
    "schoolPhone": "03 9274 6333",
    "schoolEmail": "college@mlc.vic.edu.au"
  },
  {
    "schoolID": "881",
    "name": "Mildura Christian College Irymple",
    "principal": "Steve Tresize",
    "address1": "1291 Karadoc Ave",
    "suburb": "IRYMPLE",
    "postcode": "3498",
    "state": "VIC",
    "schoolPhone": "0350245310",
    "schoolEmail": "principal@milduracc.vic.edu.au"
  },
  {
    "schoolID": "93",
    "name": "Monivae College Hamilton",
    "principal": "Mr Mark McGinnity",
    "address1": "133 Ballarat Road",
    "suburb": "HAMILTON",
    "postcode": "3300",
    "state": "VIC",
    "schoolPhone": "5551 1200",
    "schoolEmail": "principal@monivae.vic.edu.au"
  },
  {
    "schoolID": "94",
    "name": "Mother of God School Ardeer",
    "principal": "Mrs Assunta Iacovino",
    "address1": "67 Blanche Street",
    "suburb": "ARDEER",
    "postcode": "3122",
    "state": "VIC",
    "schoolPhone": "9363 1734",
    "schoolEmail": "principal@mogardeer.catholic.edu.au"
  },
  {
    "schoolID": "953",
    "name": "Mother Teresa Catholic Primary School Mount Ridley",
    "principal": "Christopher Reed",
    "address1": "5-15 Windrock Avenue",
    "suburb": "MOUNT RIDLEY",
    "postcode": "3064",
    "state": "VIC",
    "schoolPhone": "7303 1200",
    "schoolEmail": "principal@motherteresa.catholic.edu.au"
  },
  {
    "schoolID": "658",
    "name": "Mount Evelyn Christian School Mt Evelyn",
    "principal": "Martin Hanscamp",
    "address1": "135-141 York Road",
    "suburb": "MT EVELYN",
    "postcode": "3137",
    "state": "VIC",
    "schoolPhone": "9736 2976",
    "schoolEmail": "office@mecs.vic.edu.au"
  },
  {
    "schoolID": "96",
    "name": "Mount Lilydale Mercy College Lilydale",
    "principal": "Mr Philip Morison",
    "address1": "120 Anderson Street",
    "suburb": "LILYDALE",
    "postcode": "3140",
    "state": "VIC",
    "schoolPhone": "9735 4022",
    "schoolEmail": "finance@mlmc.vic.edu.au"
  },
  {
    "schoolID": "97",
    "name": "Mount St Joseph Girls' College Altona",
    "principal": "Kate Dishon",
    "address1": "133 Maidstone Street",
    "suburb": "ALTONA NORTH",
    "postcode": "3025",
    "state": "VIC",
    "schoolPhone": "8398 2000",
    "schoolEmail": "principal@msj.vic.edu.au"
  },
  {
    "schoolID": "98",
    "name": "Nagle College Bairnsdale",
    "principal": "Mr Neville Powles",
    "address1": "P O Box 507",
    "suburb": "BAIRNSDALE",
    "postcode": "3875",
    "state": "VIC",
    "schoolPhone": "5152 6122",
    "schoolEmail": "principal@nagle.vic.edu.au"
  },
  {
    "schoolID": "99",
    "name": "Nazareth College Noble Park North",
    "principal": "Mrs Anne McDonald",
    "address1": "Manning Drive",
    "suburb": "NOBLE PARK NORTH",
    "postcode": "3174",
    "state": "VIC",
    "schoolPhone": "9795 8100",
    "schoolEmail": "principal@nazareth.vic.edu.au"
  },
  {
    "schoolID": "100",
    "name": "Nazareth School Grovedale",
    "principal": "Paul Cahir",
    "address1": "14-16 Griffith Street",
    "suburb": "GROVEDALE",
    "postcode": "3216",
    "state": "VIC",
    "schoolPhone": "5243 0502",
    "schoolEmail": ""
  },
  {
    "schoolID": "783",
    "name": "Newhaven College Rhyll",
    "principal": "Tony Corr",
    "address1": "1770 Phillip Island Road",
    "suburb": "Rhyll",
    "postcode": "3923",
    "state": "VIC",
    "schoolPhone": "0359567505",
    "schoolEmail": "principal@newhavencol.vic.edu.au"
  },
  {
    "schoolID": "636",
    "name": "Northside Christian College Bundoora",
    "principal": "",
    "address1": "31-61 McLeans Road",
    "suburb": "BUNDOORA",
    "postcode": "3083",
    "state": "VIC",
    "schoolPhone": "",
    "schoolEmail": "ncc@ncc.vic.edu.au"
  },
  {
    "schoolID": "576",
    "name": "Notre Dame College McAuley-Champagnat Program Shepparton",
    "principal": "Mr Peter White",
    "address1": "139 Knight Street",
    "suburb": "SHEPPARTON",
    "postcode": "3630",
    "state": "VIC",
    "schoolPhone": "5821 6622",
    "schoolEmail": ""
  },
  {
    "schoolID": "101",
    "name": "Notre Dame College Shepparton",
    "principal": "John Cortese",
    "address1": "139 Knight Street",
    "suburb": "SHEPPARTON",
    "postcode": "3630",
    "state": "VIC",
    "schoolPhone": "5822 8400",
    "schoolEmail": "principal@notredame.vic.edu.au"
  },
  {
    "schoolID": "751",
    "name": "Oakleigh Grammar Oakleigh",
    "principal": "Mark Robertson ",
    "address1": "77-81 Willesden Road",
    "suburb": "OAKLEIGH",
    "postcode": "3166",
    "state": "VIC",
    "schoolPhone": "0417567167",
    "schoolEmail": "isobel@scottnorth.com.au"
  },
  {
    "schoolID": "954",
    "name": "Oscar Romero Catholic Primary School Craigieburn West",
    "principal": "Mrs Fran Drysdale",
    "address1": "1 Mackillop Street",
    "suburb": "CRAIGIEBURN WEST",
    "postcode": "3064",
    "state": "VIC",
    "schoolPhone": "7379 5500",
    "schoolEmail": "principal@oscarromero.catholic.edu.au"
  },
  {
    "schoolID": "102",
    "name": "Our Holy Redeemer School Surrey Hills",
    "principal": "Mr Jason Geraghty",
    "address1": "311 Mont Albert Road",
    "suburb": "SURREY HILLS",
    "postcode": "3127",
    "state": "VIC",
    "schoolPhone": "9898 2315",
    "schoolEmail": ""
  },
  {
    "schoolID": "103",
    "name": "Our Lady Help of Christians Primary School Wendouree",
    "principal": "Patrick Ryan",
    "address1": "480A Gillies Street",
    "suburb": "WENDOUREE",
    "postcode": "3355",
    "state": "VIC",
    "schoolPhone": "5339 4726",
    "schoolEmail": "principal@olhcwendouree.catholic.edu.au"
  },
  {
    "schoolID": "105",
    "name": "Our Lady Help of Christians School Brunswick East",
    "principal": "Ms Maree McIntosh",
    "address1": "26 Miller Street",
    "suburb": "BRUNSWICK EAST",
    "postcode": "3057",
    "state": "VIC",
    "schoolPhone": "8388 5900",
    "schoolEmail": "principal@olbrunswickeast.catholic.edu.au"
  },
  {
    "schoolID": "106",
    "name": "Our Lady Help of Christians School Eltham",
    "principal": "Mr Chris Ray",
    "address1": "1-13 Henry Street",
    "suburb": "ELTHAM",
    "postcode": "3095",
    "state": "VIC",
    "schoolPhone": "9439 7824",
    "schoolEmail": "school@olhceltham@catholic.edu.au"
  },
  {
    "schoolID": "104",
    "name": "Our Lady Help of Christians School Murtoa",
    "principal": "Veronica Slattery",
    "address1": "15 Munro Street",
    "suburb": "Murtoa",
    "postcode": "3390",
    "state": "VIC",
    "schoolPhone": "",
    "schoolEmail": ""
  },
  {
    "schoolID": "107",
    "name": "Our Lady Help of Christians School Warnambool East",
    "principal": "Eugene Dalton",
    "address1": "28 Selby Road",
    "suburb": "WARRNAMBOOL EAST ",
    "postcode": "3280",
    "state": "VIC",
    "schoolPhone": "03 5562 5559",
    "schoolEmail": ""
  },
  {
    "schoolID": "109",
    "name": "Our Lady of Fatima School Rosebud",
    "principal": "Mrs Patrika Rowley",
    "address1": "16 Hinton Street",
    "suburb": "ROSEBUD",
    "postcode": "3939",
    "state": "VIC",
    "schoolPhone": "5950 0400",
    "schoolEmail": "principal@fatimarosebud.catholic.edu.au"
  },
  {
    "schoolID": "110",
    "name": "Our Lady of Good Counsel School Deepdene",
    "principal": "Jennifer Gray",
    "address1": "12 Whitehorse Road",
    "suburb": "DEEPDENE",
    "postcode": "3103",
    "state": "VIC",
    "schoolPhone": "8808 8400",
    "schoolEmail": "office@olgcdeepdene.catholic.edu.au"
  },
  {
    "schoolID": "111",
    "name": "Our Lady of Lourdes School Bayswater",
    "principal": "Mr Ross Williams",
    "address1": "23 Orange Grove",
    "suburb": "BAYSWATER",
    "postcode": "3153",
    "state": "VIC",
    "schoolPhone": "9729 3411",
    "schoolEmail": "principal@olbayswater.catholic.edu.au"
  },
  {
    "schoolID": "112",
    "name": "Our Lady of Lourdes School Prahan East",
    "principal": "Mrs Francine Walsh",
    "address1": "7 Wynnstay Road",
    "suburb": "PRAHRAN EAST",
    "postcode": "3181",
    "state": "VIC",
    "schoolPhone": "9510 6688",
    "schoolEmail": "principal@olprahraneast.catholic.edu.au"
  },
  {
    "schoolID": "113",
    "name": "Our Lady of Mercy College Heidelberg",
    "principal": "Julie Ryan",
    "address1": "52 Cape Street",
    "suburb": "HEIDELBERG",
    "postcode": "3084",
    "state": "VIC",
    "schoolPhone": "9459 2511",
    "schoolEmail": "principal@olmcheidelberg.catholic.edu.au"
  },
  {
    "schoolID": "114",
    "name": "Our Lady of Mount Carmel School Sunbury",
    "principal": "Mrs Julie Freeman",
    "address1": "53 Macedon Street",
    "suburb": "SUNBURY",
    "postcode": "3429",
    "state": "VIC",
    "schoolPhone": "9740 7344",
    "schoolEmail": "principal@olmcsunbury.catholic.edu.au"
  },
  {
    "schoolID": "115",
    "name": "Our Lady of Perpetual Help School Ringwood",
    "principal": "Adrian Scutt",
    "address1": "2 Wilana Street",
    "suburb": "RINGWOOD",
    "postcode": "3134",
    "state": "VIC",
    "schoolPhone": "9870 7227",
    "schoolEmail": "admin@olringwood.catholic.edu.au"
  },
  {
    "schoolID": "116",
    "name": " Our Lady of Perpetual Succour School Surrey Hills",
    "principal": "Mrs Ann Engellenner",
    "address1": "31 Erasmus Street",
    "suburb": "SURREY HILLS",
    "postcode": "3127",
    "state": "VIC",
    "schoolPhone": "9898 7655",
    "schoolEmail": "principal@olsurreyhills.catholic.edu.au"
  },
  {
    "schoolID": "117",
    "name": "Our Lady of Sion College Box Hill",
    "principal": "Tina Apostolopoulos",
    "address1": "1065 Whitehorse Road",
    "suburb": "BOX HILL",
    "postcode": "3128",
    "state": "VIC",
    "schoolPhone": "9890 9097",
    "schoolEmail": "info@sion.catholic.edu.au"
  },
  {
    "schoolID": "118",
    "name": "Our Lady of the Assumption School Cheltenham",
    "principal": "Leonie Young",
    "address1": "9 Centre Dandenong Road",
    "suburb": "CHELTENHAM",
    "postcode": "3192",
    "state": "VIC",
    "schoolPhone": "9584 9488",
    "schoolEmail": "principal@olacheltenham.catholic.edu.au"
  },
  {
    "schoolID": "119",
    "name": "Our Lady of the Immaculate Conception School Sunshine",
    "principal": "Ms Patrizia Bertani",
    "address1": "32 Station Place",
    "suburb": "SUNSHINE",
    "postcode": "3020",
    "state": "VIC",
    "schoolPhone": "9312 2230",
    "schoolEmail": "principal@olsunshine.catholic.edu.au"
  },
  {
    "schoolID": "120",
    "name": "Our Lady of the Nativity School Aberfeldie",
    "principal": "Ms Anne Doherty",
    "address1": "29 Fawkner Street",
    "suburb": "ABERFELDIE",
    "postcode": "3040",
    "state": "VIC",
    "schoolPhone": "9337 4204",
    "schoolEmail": "principal@olnaberfeldie.catholic.edu.au"
  },
  {
    "schoolID": "743",
    "name": "Our Lady of the Pines Primary School Donvale",
    "principal": "Brendan Keeling",
    "address1": "77 Carbine Street",
    "suburb": "DONVALE",
    "postcode": "3111",
    "state": "VIC",
    "schoolPhone": "9842 2991",
    "schoolEmail": "office@olopdonvale.catholic.edu.au"
  },
  {
    "schoolID": "121",
    "name": "Our Lady of the Rosary School Kyneton",
    "principal": "Mrs Sandra Ritchie",
    "address1": "43-47 Edgecombe St",
    "suburb": "KYNETON",
    "postcode": "3444",
    "state": "VIC",
    "schoolPhone": "03 5422 2056",
    "schoolEmail": ""
  },
  {
    "schoolID": "652",
    "name": "Our Lady of the Sacred Heart College Bentleigh",
    "principal": "Anne O'Loughlin",
    "address1": "111 Jasper Road",
    "suburb": "BENTLEIGH",
    "postcode": "3204",
    "state": "VIC",
    "schoolPhone": "9563 9522",
    "schoolEmail": "principal@olsh.vic.edu.au"
  },
  {
    "schoolID": "123",
    "name": "Our Lady of the Sacred Heart Primary School Elmore",
    "principal": "Reuben Johnson",
    "address1": "Jeffrey Sreet",
    "suburb": "ELMORE",
    "postcode": "3558",
    "state": "VIC",
    "schoolPhone": "5432 6254",
    "schoolEmail": ""
  },
  {
    "schoolID": "124",
    "name": "Our Lady of the Sacred Heart School Merbein",
    "principal": "Mrs Narelle Gallagher",
    "address1": "P O Box 416",
    "suburb": "MERBEIN",
    "postcode": "3505",
    "state": "VIC",
    "schoolPhone": "5025 2258",
    "schoolEmail": "principal@olshmerbein.catholic.edu.au"
  },
  {
    "schoolID": "733",
    "name": "Our Lady of the Southern Cross Wyndham Vale",
    "principal": "Jennifer Poon",
    "address1": "2-20 Howqua Way",
    "suburb": "WYNDHAM VALE",
    "postcode": "3029",
    "state": "VIC",
    "schoolPhone": "99748500",
    "schoolEmail": "principal@olscwyn.catholic.edu.au"
  },
  {
    "schoolID": "125",
    "name": "Our Lady of the Way School Kingsbury",
    "principal": "Kevin Burke",
    "address1": "PO Box 159",
    "suburb": "KINGSBURY",
    "postcode": "3083",
    "state": "VIC",
    "schoolPhone": "9460 6684",
    "schoolEmail": ""
  },
  {
    "name": "Our Lady of the Way Catholic Primary School Wallan East",
    "principal": "Terry Cooney",
    "address1": "30 Alcantara Boulevard",
    "suburb": "WALLAN EAST",
    "postcode": "3756",
    "state": "VIC",
    "schoolPhone": "8609 1784"
  },
  {
    "schoolID": "1138",
    "name": "Our Lady Star of The Sea Catholic Primary School Cowes",
    "principal": "Mrs Cathy Blackford",
    "address1": "6 Cowes - Rhyll Road",
    "suburb": "COWES",
    "postcode": "3922",
    "state": "VIC",
    "schoolPhone": "5951 1700"
  },
  {
    "schoolID": "127",
    "name": "Our Lady Star of the Sea School Ocean Grove",
    "principal": "Ms Kerryn Sells",
    "address1": "13-29 John Dory Drive",
    "suburb": "OCEAN GROVE",
    "postcode": "3226",
    "state": "VIC",
    "schoolPhone": "5255 4308",
    "schoolEmail": ""
  },
  {
    "schoolID": "128",
    "name": "Our Lady's Primary School Craigieburn",
    "principal": "Paul McEntee",
    "address1": "Craigieburn Road West",
    "suburb": "CRAIGIEBURN",
    "postcode": "3064",
    "state": "VIC",
    "schoolPhone": "9308 2011",
    "schoolEmail": "principal@olps.vic.edu.au"
  },
  {
    "schoolID": "129",
    "name": "Our Lady's Primary School Wangaratta",
    "principal": "Mr Mark Walsh",
    "address1": "PO Box 486",
    "suburb": "WANGARATTA SOUTH",
    "postcode": "3676",
    "state": "VIC",
    "schoolPhone": "5721 3783",
    "schoolEmail": "principal@olwangaratta.catholic.edu.au"
  },
  {
    "schoolID": "130",
    "name": "Padua College Mornington Campus",
    "principal": "Anthony Banks",
    "address1": "PMB 4",
    "suburb": "MORNINGTON",
    "postcode": "3931",
    "state": "VIC",
    "schoolPhone": "5976 0100",
    "schoolEmail": ""
  },
  {
    "schoolID": "667",
    "name": "Padua College Rosebud Campus",
    "principal": "Anthony Banks",
    "address1": "Private Bag 1",
    "suburb": "ROSEBUD",
    "postcode": "3939",
    "state": "VIC",
    "schoolPhone": "5976 0100",
    "schoolEmail": "principal@padua.catholic.edu.au"
  },
  {
    "schoolID": "738",
    "name": "Padua College Tyabb Campus",
    "principal": "Anthony Banks",
    "address1": "1585 Frankston-Flinders Road",
    "suburb": "TYABB",
    "postcode": "3913",
    "state": "VIC",
    "schoolPhone": "5982 9500",
    "schoolEmail": "principal@padua.catholic.edu.au"
  },
  {
    "schoolID": "671",
    "name": "Parade College Preston Campus",
    "principal": "Andy Kuppe",
    "address1": "8 Clifton Grove",
    "suburb": "PRESTON",
    "postcode": "3072",
    "state": "VIC",
    "schoolPhone": "9468 3300",
    "schoolEmail": "principal@parade.vic.edu.au"
  },
  {
    "schoolID": "131",
    "name": "Parade College Bundoora",
    "principal": "Mr Andy Kuppe",
    "address1": "1436 Plenty Road",
    "suburb": "BUNDOORA",
    "postcode": "3083",
    "state": "VIC",
    "schoolPhone": "9468 3300",
    "schoolEmail": "principal@parade.vic.edu"
  },
  {
    "schoolID": "132",
    "name": "Penola Catholic College Broadmeadows",
    "principal": "Chris Caldow",
    "address1": "29 Gibson Street",
    "suburb": "BROADMEADOWS",
    "postcode": "3046",
    "state": "VIC",
    "schoolPhone": "9301 2777",
    "schoolEmail": "principal@penola.vic.edu.au"
  },
  {
    "schoolID": "752",
    "name": "Penola Catholic College Glenroy Campus",
    "principal": "Mr Chris Caldow",
    "address1": "35 William Street",
    "suburb": "GLENROY",
    "postcode": "3046",
    "state": "VIC",
    "schoolPhone": "9301 2777",
    "schoolEmail": "principal@penola.vic.edu.au"
  },
  {
    "schoolID": "679",
    "name": "Presbyterian Ladies College Burwood",
    "principal": "Cheryl Penberthy",
    "address1": "141 Burwood Highway",
    "suburb": "BURWOOD",
    "postcode": "3125",
    "state": "VIC",
    "schoolPhone": "9808 5811",
    "schoolEmail": "principal@plc.vic.edu.au"
  },
  {
    "schoolID": "134",
    "name": "Queen of Peace Primary School Altona Meadows",
    "principal": "Mr Darren Gibbons",
    "address1": "P.O. Box 1259",
    "suburb": "ALTONA MEADOWS",
    "postcode": "3028",
    "state": "VIC",
    "schoolPhone": "9364 2581",
    "schoolEmail": "office@qopaltonameadows.catholic.edu.au"
  },
  {
    "schoolID": "137",
    "name": "Resurrection Catholic Primary School Kings Park",
    "principal": "John Connors",
    "address1": "51 Gum Road",
    "suburb": "KINGS PARK",
    "postcode": "3021",
    "state": "VIC",
    "schoolPhone": "9366 7022",
    "schoolEmail": "principal@rskingspark.catholic.edu.au"
  },
  {
    "schoolID": "135",
    "name": "Resurrection House Essendon ",
    "principal": "Sr Hermina Widlarz CR",
    "address1": "6 Aberfeldie Street",
    "suburb": "ESSENDON",
    "postcode": "3040",
    "state": "VIC",
    "schoolPhone": "9337 0084",
    "schoolEmail": ""
  },
  {
    "schoolID": "136",
    "name": "Resurrection School Keysborough",
    "principal": "Mrs Jane Dunstone",
    "address1": "402 Corrigan Road",
    "suburb": "KEYSBOROUGH",
    "postcode": "3173",
    "state": "VIC",
    "schoolPhone": "9798 4126",
    "schoolEmail": ""
  },
  {
    "schoolID": "703",
    "name": "River City Christian College Echuca",
    "principal": "Peter Nelson",
    "address1": "PO Box 2220",
    "suburb": "ECHUCA",
    "postcode": "3564",
    "state": "VIC",
    "schoolPhone": "5482 4594",
    "schoolEmail": "principal@rccc.vic.edu.au"
  },
  {
    "schoolID": "695",
    "name": "Ruyton Girls School Kew",
    "principal": "Linda Douglas",
    "address1": "12 Selbourne Rd",
    "suburb": "KEW",
    "postcode": "3101",
    "state": "VIC",
    "schoolPhone": "9819 2422",
    "schoolEmail": "junior@ruyton.vic.edu.au"
  },
  {
    "schoolID": "669",
    "name": "Sacre Coeur Glen Iris",
    "principal": "Mrs Maureen Ryan",
    "address1": "172 Burke Road",
    "suburb": "GLEN IRIS",
    "postcode": "3146",
    "state": "VIC",
    "schoolPhone": "9835 2700",
    "schoolEmail": "principal@sacgleniris.catholic.edu.au"
  },
  {
    "schoolID": "139",
    "name": "Sacred Heart College Geelong",
    "principal": "Anna Negro",
    "address1": "Retreat Road",
    "suburb": "NEWTOWN",
    "postcode": "3220",
    "state": "VIC",
    "schoolPhone": "5221 4211",
    "schoolEmail": ""
  },
  {
    "schoolID": "140",
    "name": "Sacred Heart College Kyneton",
    "principal": "Mr Craig Holmes",
    "address1": "94 High Street",
    "suburb": "KYNETON",
    "postcode": "3444",
    "state": "VIC",
    "schoolPhone": "5421 1200",
    "schoolEmail": "principal@shckyneton.catholic.edu.au"
  },
  {
    "schoolID": "141",
    "name": "Sacred Heart College Yarrawonga",
    "principal": "Anthony Patton",
    "address1": "Witt Street",
    "suburb": "YARRAWONGA",
    "postcode": "3730",
    "state": "VIC",
    "schoolPhone": "5742 1300",
    "schoolEmail": ""
  },
  {
    "schoolID": "666",
    "name": "Sacred Heart Girls' College Oakleigh",
    "principal": "Christopher Dalton",
    "address1": "113 Warrigal Road",
    "suburb": "HUGHESDALE",
    "postcode": "3166",
    "state": "VIC",
    "schoolPhone": "9568 5488",
    "schoolEmail": "principal@shcoakleigh.catholic.edu.au"
  },
  {
    "schoolID": "145",
    "name": "Sacred Heart Primary School Corryong",
    "principal": "Michael O'Riley",
    "address1": "PO Box 213",
    "suburb": "CORRYONG",
    "postcode": "3707",
    "state": "VIC",
    "schoolPhone": "02 6076 1138",
    "schoolEmail": "principal@shcorryong.catholic.edu.au"
  },
  {
    "schoolID": "147",
    "name": "Sacred Heart Primary School Diamond Creek",
    "principal": "Mr Jim O'Sullivan",
    "address1": "Gipson Street",
    "suburb": "DIAMOND CREEK",
    "postcode": "3089",
    "state": "VIC",
    "schoolPhone": "9438 1590",
    "schoolEmail": "office@shdiamondcreek.catholic.edu.au"
  },
  {
    "schoolID": "149",
    "name": "Sacred Heart Primary School Kew",
    "principal": "Mrs Julie David",
    "address1": "PO Box 3221, Cotham LPO",
    "suburb": "KEW",
    "postcode": "3101",
    "state": "VIC",
    "schoolPhone": "9853 5859",
    "schoolEmail": ""
  },
  {
    "schoolID": "157",
    "name": "Sacred Heart Primary School Tatura",
    "principal": "Ms Pauline Hindson",
    "address1": "69 Hogan Street",
    "suburb": "TATURA",
    "postcode": "3616",
    "state": "VIC",
    "schoolPhone": "03 5824 1841",
    "schoolEmail": "info@shtatura.catholic.edu.au"
  },
  {
    "schoolID": "601",
    "name": "Sacred Heart Primary School Yarrawonga",
    "principal": "Mrs. Angela Gorman",
    "address1": "PO Box 199",
    "suburb": "YARRAWONGA",
    "postcode": "3730",
    "state": "VIC",
    "schoolPhone": "5744 3339",
    "schoolEmail": "principal@shsywnga.sand.catholic.edu.au"
  },
  {
    "schoolID": "144",
    "name": "Sacred Heart School Casterton",
    "principal": "Mr Paul Delahunty",
    "address1": "39 Robertson Street",
    "suburb": "CASTERTON",
    "postcode": "3311",
    "state": "VIC",
    "schoolPhone": "03 5581 1131",
    "schoolEmail": ""
  },
  {
    "schoolID": "143",
    "name": "Sacred Heart School Colac",
    "principal": "Jack Lenaghan",
    "address1": "P O Box 221",
    "suburb": "COLAC",
    "postcode": "3250",
    "state": "VIC",
    "schoolPhone": "5231 5292",
    "schoolEmail": "principal@shcolac.catholic.edu.au"
  },
  {
    "schoolID": "146",
    "name": "Sacred Heart School Croydon",
    "principal": "Mr Michael Russo",
    "address1": "Monastery Hill' 50 Monastery Drive",
    "suburb": "CROYDON",
    "postcode": "3136",
    "state": "VIC",
    "schoolPhone": "9724 4333",
    "schoolEmail": ""
  },
  {
    "schoolID": "148",
    "name": "Sacred Heart School Fitzroy",
    "principal": "Ms Mary Lawrey",
    "address1": "107 King William Street",
    "suburb": "FITZROY",
    "postcode": "3065",
    "state": "VIC",
    "schoolPhone": "9419 3528",
    "schoolEmail": ""
  },
  {
    "schoolID": "150",
    "name": "Sacred Heart School Mildura",
    "principal": "Greg Lane",
    "address1": "Olive Grove",
    "suburb": "MILDURA",
    "postcode": "3500",
    "state": "VIC",
    "schoolPhone": "5023 1204",
    "schoolEmail": "principal@shmildura.catholic.edu.au"
  },
  {
    "schoolID": "151",
    "name": "Sacred Heart School Morwell",
    "principal": "Mr Lance Rooney",
    "address1": "Commercial Rd",
    "suburb": "MORWELL",
    "postcode": "3840",
    "state": "VIC",
    "schoolPhone": "5134 3718",
    "schoolEmail": "principal@shmorwell.catholic.edu.au"
  },
  {
    "schoolID": "152",
    "name": "Sacred Heart School Newport",
    "principal": "Ms Joan Janssen",
    "address1": "4 Newcastle Street",
    "suburb": "NEWPORT",
    "postcode": "3015",
    "state": "VIC",
    "schoolPhone": "9391 6262",
    "schoolEmail": ""
  },
  {
    "schoolID": "153",
    "name": "Sacred Heart School Oakleigh",
    "principal": "Mr Brian Martin",
    "address1": "2 Mora Avenue",
    "suburb": "OAKLEIGH",
    "postcode": "3166",
    "state": "VIC",
    "schoolPhone": "8574 4500",
    "schoolEmail": "principal@shoakleigh.catholic.edu.au"
  },
  {
    "schoolID": "154",
    "name": "Sacred Heart School Preston",
    "principal": "Pam Hallett",
    "address1": "PO Box 1686",
    "suburb": "PRESTON SOUTH",
    "postcode": "3072",
    "state": "VIC",
    "schoolPhone": "9484 3514",
    "schoolEmail": "principal@shpreston.catholic.edu.au"
  },
  {
    "schoolID": "155",
    "name": "Sacred Heart School Sandringham",
    "principal": "Miss Erin Macdonald",
    "address1": "11 Fernhill Rd",
    "suburb": "SANDRINGHAM",
    "postcode": "3191",
    "state": "VIC",
    "schoolPhone": "9598 9322",
    "schoolEmail": "principal@shsandringham.catholic.edu.au"
  },
  {
    "schoolID": "156",
    "name": "Sacred Heart School St Albans",
    "principal": "Ms Dianne Blake",
    "address1": "PO Box 252",
    "suburb": "ST ALBANS ",
    "postcode": "3021",
    "state": "VIC",
    "schoolPhone": "9366 0266",
    "schoolEmail": ""
  },
  {
    "schoolID": "158",
    "name": "Sacred Heart School Yea",
    "principal": "Mrs Victoria Wissell",
    "address1": "PO Box 100",
    "suburb": "YEA",
    "postcode": "3717",
    "state": "VIC",
    "schoolPhone": "03 5797 2723",
    "schoolEmail": ""
  },
  {
    "schoolID": "160",
    "name": "Salesian College Chadstone",
    "principal": "Robert Brennan",
    "address1": "Boscoe Street",
    "suburb": "CHADSTONE",
    "postcode": "3148",
    "state": "VIC",
    "schoolPhone": "9807 2644",
    "schoolEmail": "principal@salesian.vic.edu.au"
  },
  {
    "schoolID": "159",
    "name": "Salesian College Sunbury",
    "principal": "Mr Mark Brockhus",
    "address1": "1 Macedon Street",
    "suburb": "SUNBURY",
    "postcode": "3429",
    "state": "VIC",
    "schoolPhone": "(03) 9744 0000",
    "schoolEmail": "principal@scr.vic.edu.au"
  },
  {
    "schoolID": "162",
    "name": "Santa Maria College Northcote",
    "principal": "Mrs Deborah Barker",
    "address1": "50 Separation Street",
    "suburb": "NORTHCOTE",
    "postcode": "3070",
    "state": "VIC",
    "schoolPhone": "9489 7644",
    "schoolEmail": "principal@santamaria.vic.edu.au"
  },
  {
    "schoolID": "164",
    "name": "School of the Good Shepherd Gladsone Park",
    "principal": "Mrs Renae Gentile",
    "address1": "88 South Circular Road",
    "suburb": "GLADSTONE PARK",
    "postcode": "3043",
    "state": "VIC",
    "schoolPhone": "9338 7686",
    "schoolEmail": ""
  },
  {
    "schoolID": "746",
    "name": "SEDA College Hawthorn East",
    "principal": "Heath McMillin",
    "address1": "425 Riversdale Road",
    "suburb": "HAWTHORN EAST",
    "postcode": "3123",
    "state": "VIC",
    "schoolPhone": "03 7002 5222",
    "schoolEmail": "info@seda.vic.edu.au"
  },
  {
    "schoolID": "776",
    "name": "Shepparton ACE Secondary College",
    "principal": "Bronwyn Rose",
    "address1": "123-129 Maude Street",
    "suburb": "Shepparton",
    "postcode": "3629",
    "state": "VIC",
    "schoolPhone": "0401 127 450",
    "schoolEmail": "shespace@iinet.net.au"
  },
  {
    "schoolID": "775",
    "name": "Shepparton Christian College",
    "principal": "Chris Aiton",
    "address1": "155 Verney Rd",
    "suburb": "Shepparton",
    "postcode": "3630",
    "state": "VIC",
    "schoolPhone": "(03) 5831 7790",
    "schoolEmail": "principal@scc.vic.edu.au"
  },
  {
    "schoolID": "739",
    "name": "Siena Catholic Primary School Lucas",
    "principal": "Chris Kavanagh",
    "address1": "150 Eleanor Drive",
    "suburb": "LUCAS",
    "postcode": "3350",
    "state": "VIC",
    "schoolPhone": "5334 3096",
    "schoolEmail": "admin@slucas.catholic.edu.au"
  },
  {
    "schoolID": "165",
    "name": "Siena College Ltd Camberwell",
    "principal": "Gaynor Robson-Garth",
    "address1": "815 Riversdale Road",
    "suburb": "CAMBERWELL",
    "postcode": "3124",
    "state": "VIC",
    "schoolPhone": "9835 0200",
    "schoolEmail": ""
  },
  {
    "schoolID": "166",
    "name": "Simonds Catholic College Melbourne West",
    "principal": "Peter Riordan",
    "address1": "273 Victoria Street",
    "suburb": "MELBOURNE WEST",
    "postcode": "3003",
    "state": "VIC",
    "schoolPhone": "03 9321 9200",
    "schoolEmail": "principal@sccmelb.catholic.edu.au"
  },
  {
    "schoolID": "742",
    "name": "Son Centre Christian College Swan Hill",
    "principal": "Brett Allen",
    "address1": "PO Box 1803",
    "suburb": "SWAN HILL",
    "postcode": "3585",
    "state": "VIC",
    "schoolPhone": "5032 4199",
    "schoolEmail": "admin@soncentre.vic.edu.au"
  },
  {
    "schoolID": "392",
    "name": "Ss Michael & John's Primary School Horsham",
    "principal": "Andrea Cox",
    "address1": "PO Box 791",
    "suburb": "HORSHAM",
    "postcode": "3402",
    "state": "VIC",
    "schoolPhone": "5382 3000",
    "schoolEmail": "principal@smjhorsham.catholic.edu.au"
  },
  {
    "schoolID": "167",
    "name": "Ss Peter & Paul's School Doncaster East",
    "principal": "Mrs Trish Vandekolk",
    "address1": "16 Beverley Street",
    "suburb": "DONCASTER EAST",
    "postcode": "3109",
    "state": "VIC",
    "schoolPhone": "9842 2056",
    "schoolEmail": ""
  },
  {
    "schoolID": "168",
    "name": "St Agatha's School Cranbourne",
    "principal": "Mr Terry Cahill",
    "address1": "3 Scott St",
    "suburb": "CRANBOURNE",
    "postcode": "3977",
    "state": "VIC",
    "schoolPhone": "5996 2724",
    "schoolEmail": "stacbourne.catholic.edu.au"
  },
  {
    "schoolID": "169",
    "name": "St Agnes' School Highett",
    "principal": "Mr Lachie Foott",
    "address1": "Peterson Street",
    "suburb": "HIGHETT",
    "postcode": "3190",
    "state": "VIC",
    "schoolPhone": "9532 0344",
    "schoolEmail": ""
  },
  {
    "schoolID": "170",
    "name": "St Alipius' Parish School Ballarat East",
    "principal": "Ms Eileen Rice",
    "address1": "PO Box 1997",
    "suburb": "BAKERY HILL",
    "postcode": "3354",
    "state": "VIC",
    "schoolPhone": "5331 1816",
    "schoolEmail": "principal@saballarat.catholic.edu.au"
  },
  {
    "schoolID": "171",
    "name": "St Aloysius College - Nth Melbourne",
    "principal": "Mary Farah",
    "address1": "31 Curran Street",
    "suburb": "NORTH MELBOURNE",
    "postcode": "3051",
    "state": "VIC",
    "schoolPhone": "9325 9200",
    "schoolEmail": "principal@aloysius.vic.edu.au"
  },
  {
    "schoolID": "173",
    "name": "St Aloysius Parish School Redan",
    "principal": "Michael Kennedy",
    "address1": "PO Box 48R",
    "suburb": "REDAN",
    "postcode": "3350",
    "state": "VIC",
    "schoolPhone": "5335 8177",
    "schoolEmail": "aloysius@saredan.catholic.edu.au"
  },
  {
    "schoolID": "172",
    "name": "St Aloysius School Queenscliff",
    "principal": "Ms Fiona Dawson",
    "address1": "34 Stevens Street",
    "suburb": "QUEENSCLIFF",
    "postcode": "3556",
    "state": "VIC",
    "schoolPhone": "5258 1736",
    "schoolEmail": ""
  },
  {
    "schoolID": "177",
    "name": "St Ambrose's School Woodend",
    "principal": "Ms Bronwyn Phillips",
    "address1": "8 Templeton Street",
    "suburb": "WOODEND",
    "postcode": "3442",
    "state": "VIC",
    "schoolPhone": "5427 1285",
    "schoolEmail": ""
  },
  {
    "schoolID": "178",
    "name": "St Andrew's School Clayton South",
    "principal": "Mr Paul Wakeling",
    "address1": "96 Bunney Road",
    "suburb": "CLAYTON SOUTH",
    "postcode": "3169",
    "state": "VIC",
    "schoolPhone": "9551 5094",
    "schoolEmail": ""
  },
  {
    "schoolID": "179",
    "name": "St Andrew's School Werribee",
    "principal": "Michael Gavaghan",
    "address1": "110 Greaves Street North",
    "suburb": "WERRIBEE",
    "postcode": "3030",
    "state": "VIC",
    "schoolPhone": "9741 3686",
    "schoolEmail": "principal@sawerribee.catholic.edu.au"
  },
  {
    "name": "St Angela of the Cross Primary School",
    "principal": "Mr Justin Greenwood",
    "address1": "181 Mills Road",
    "suburb": "WARRAGUL",
    "postcode": "3820",
    "state": "VIC",
    "schoolPhone": "5622 9800"
  },
  {
    "schoolID": "672",
    "name": "St Anne's Catholic Primary School Park Orchards",
    "principal": "Michael Edmonds",
    "address1": "60 Knees Road",
    "suburb": "PARK ORCHARDS",
    "postcode": "3114",
    "state": "VIC",
    "schoolPhone": "9876 1533",
    "schoolEmail": "principal@saparkorchards.catholic.edu.au"
  },
  {
    "schoolID": "753",
    "name": "St Anne's College Kialla",
    "principal": "Mrs Susan Carroll",
    "address1": "72 Wendouree Drive",
    "suburb": "KIALLA",
    "postcode": "3631",
    "state": "VIC",
    "schoolPhone": "4812 2993",
    "schoolEmail": "principal@sackialla.catholic.edu.au"
  },
  {
    "schoolID": "936",
    "name": "St Anne's Primary School Seaford",
    "principal": "Mr Roderick Shaw",
    "address1": "86-94 Austin Road",
    "suburb": "SEAFORD",
    "postcode": "3198",
    "state": "VIC",
    "schoolPhone": "9786 4736",
    "schoolEmail": ""
  },
  {
    "schoolID": "180",
    "name": "St Anne's School Kew East",
    "principal": "Mr Greg James",
    "address1": "7-19 Beresford Street",
    "suburb": "KEW EAST",
    "postcode": "3102",
    "state": "VIC",
    "schoolPhone": "9859 4116",
    "schoolEmail": ""
  },
  {
    "schoolID": "183",
    "name": "St Anne's School Sunbury",
    "principal": "Ms Noelene Hussey",
    "address1": "16-24 Stewarts Lane",
    "suburb": "SUNBURY",
    "postcode": "3429",
    "state": "VIC",
    "schoolPhone": "8746 6800",
    "schoolEmail": ""
  },
  {
    "schoolID": "184",
    "name": "St Anthony's School Alphington",
    "principal": "Mr James Casey",
    "address1": "52 Austin Street",
    "suburb": "ALPHINGTON",
    "postcode": "3078",
    "state": "VIC",
    "schoolPhone": "9489 7936",
    "schoolEmail": ""
  },
  {
    "schoolID": "185",
    "name": "St Anthony's School Glen Huntly",
    "principal": "Mrs Margaret Carlei",
    "address1": "172 Neerim Road",
    "suburb": "GLEN HUNTLY",
    "postcode": "3163",
    "state": "VIC",
    "schoolPhone": "9563 6780",
    "schoolEmail": ""
  },
  {
    "schoolID": "186",
    "name": "St Anthony's School Lara",
    "principal": "Mrs Natalie Heard",
    "address1": "PO Box 41",
    "suburb": "LARA",
    "postcode": "3212",
    "state": "VIC",
    "schoolPhone": "5282 1415",
    "schoolEmail": "contactus@salara.catholic.edu.au"
  },
  {
    "schoolID": "187",
    "name": "St Anthony's School Melton South",
    "principal": "Damien Schuster",
    "address1": "Wilsons Road",
    "suburb": "MELTON SOUTH",
    "postcode": "3338",
    "state": "VIC",
    "schoolPhone": "8099 7800",
    "schoolEmail": ""
  },
  {
    "schoolID": "188",
    "name": "St Anthony's School Noble Park",
    "principal": "Ms Erin Nagel",
    "address1": "90 Buckley Street",
    "suburb": "NOBLE PARK",
    "postcode": "3174",
    "state": "VIC",
    "schoolPhone": "9546 0044",
    "schoolEmail": ""
  },
  {
    "schoolID": "196",
    "name": "St Augustine's College Kyabram",
    "principal": "Brayden Stone",
    "address1": "PO Box 447",
    "suburb": "KYABRAM",
    "postcode": "3620",
    "state": "VIC",
    "schoolPhone": "5851 3000",
    "schoolEmail": "principal@sakyabram.vic.edu.au"
  },
  {
    "schoolID": "191",
    "name": "St Augustine's Parish Primary School Creswick",
    "principal": "Terry Brennan",
    "address1": "PO Box 413",
    "suburb": "CRESWICK ",
    "postcode": "3363",
    "state": "VIC",
    "schoolPhone": "5345 2106",
    "schoolEmail": ""
  },
  {
    "schoolID": "190",
    "name": "St Augustine's Primary School Keilor",
    "principal": "Cathy Steere",
    "address1": "Augustine's Way",
    "suburb": "KEILOR",
    "postcode": "3036",
    "state": "VIC",
    "schoolPhone": "9336 4294",
    "schoolEmail": "principal@sakeilor.catholic.edu.au"
  },
  {
    "schoolID": "192",
    "name": "St Augustine's School  Maryborough",
    "principal": "Sonia Turner",
    "address1": "58 Burke Street",
    "suburb": "MARYBOROUGH",
    "postcode": "3465",
    "state": "VIC",
    "schoolPhone": "5460 4440",
    "schoolEmail": "principal@samaryborough.catholic.edu.au"
  },
  {
    "schoolID": "193",
    "name": "St Augustine's School Frankston South",
    "principal": "Ms Carrie Rodda",
    "address1": "88 Golf Links Road",
    "suburb": "FRANKSTON SOUTH",
    "postcode": "3199",
    "state": "VIC",
    "schoolPhone": "9781 3007",
    "schoolEmail": "principal@safranksth.catholic.edu.au"
  },
  {
    "schoolID": "194",
    "name": "St Augustine's School Wodonga ",
    "principal": "Mr Joseph Quinn",
    "address1": "Osburn Street",
    "suburb": "WODONGA ",
    "postcode": "3690",
    "state": "VIC",
    "schoolPhone": "(02) 6024 2711",
    "schoolEmail": "principal@sawodonga.catholic.edu.au"
  },
  {
    "schoolID": "195",
    "name": "St Augustine's School Yarraville",
    "principal": "Matthew Stead",
    "address1": "65 Somerville Road",
    "suburb": "YARRAVILLE",
    "postcode": "3013",
    "state": "VIC",
    "schoolPhone": "9314 5996",
    "schoolEmail": "principal@sayarraville.catholic.edu.au"
  },
  {
    "schoolID": "197",
    "name": "St Bede's College Mentone",
    "principal": "Mr John Finn",
    "address1": "2 Mentone Parade",
    "suburb": "MENTONE",
    "postcode": "3194",
    "state": "VIC",
    "schoolPhone": "03 9582 5999",
    "schoolEmail": "principal@stbedes.catholic.edu.au"
  },
  {
    "schoolID": "257",
    "name": "St Bede's College Bentleigh East Campus",
    "principal": "Mr John Finn",
    "address1": "156 Bignell Road",
    "suburb": "BENTLEIGH EAST",
    "postcode": "3165",
    "state": "VIC",
    "schoolPhone": "9575 8100",
    "schoolEmail": ""
  },
  {
    "schoolID": "893",
    "name": "St Bede's Primary School Balwyn North",
    "principal": "Mr Brian Grace",
    "address1": "2 Marwal Avenue",
    "suburb": "BALWYN NORTH",
    "postcode": "3104",
    "state": "VIC",
    "schoolPhone": "9859 7202",
    "schoolEmail": ""
  },
  {
    "schoolID": "770",
    "name": "St Bernadette's Primary School Ivanhoe",
    "principal": "Kathryn Lowe",
    "address1": "53 Stanley St",
    "suburb": "IVANHOE WEST",
    "postcode": "3079",
    "state": "VIC",
    "schoolPhone": "9499 3914",
    "schoolEmail": "principal@sbivanhoe.catholic.edu.au"
  },
  {
    "schoolID": "201",
    "name": "St Bernadette's School Sunshine North",
    "principal": "Mr Brendan Gill",
    "address1": "2 Willey Street",
    "suburb": "SUNSHINE NORTH",
    "postcode": "3020",
    "state": "VIC",
    "schoolPhone": "9311 8872",
    "schoolEmail": ""
  },
  {
    "schoolID": "202",
    "name": "St Bernadette's Catholic Primary School The Basin",
    "principal": "Mr Peter Steward",
    "address1": "1264 Mountain Highway",
    "suburb": "THE BASIN",
    "postcode": "3154",
    "state": "VIC",
    "schoolPhone": "9762 5135",
    "schoolEmail": ""
  },
  {
    "schoolID": "203",
    "name": "St Bernard's College Essendon",
    "principal": "Adam Taylor",
    "address1": "41 Rosehill Road",
    "suburb": "ESSENDON",
    "postcode": "3040",
    "state": "VIC",
    "schoolPhone": "9289 1000",
    "schoolEmail": "principal@sbcmelb.catholic.edu.au"
  },
  {
    "schoolID": "204",
    "name": "St Bernard's Parish Primary School Bacchus Marsh",
    "principal": "Emilio Scalzo",
    "address1": "Gisborne Road",
    "suburb": "BACCHUS MARSH",
    "postcode": "3340",
    "state": "VIC",
    "schoolPhone": "5366 5800",
    "schoolEmail": ""
  },
  {
    "schoolID": "205",
    "name": "St Bernard's School East Coburg",
    "principal": "Joanne Doherty",
    "address1": "36 Patterson Street",
    "suburb": "EAST COBURG",
    "postcode": "3058",
    "state": "VIC",
    "schoolPhone": "03 9384 8500",
    "schoolEmail": "principal@stbernardscoburg.catholic.edu.au"
  },
  {
    "schoolID": "206",
    "name": "St Bernard's School Wangaratta ",
    "principal": "Trisha Boak",
    "address1": "Williams Road",
    "suburb": "WANGARATTA",
    "postcode": "3677",
    "state": "VIC",
    "schoolPhone": "5721 4431",
    "schoolEmail": "principal@sbwangaratta.catholic.edu.au"
  },
  {
    "schoolID": "108",
    "name": "St Brendan's Primary School Dunnstown",
    "principal": "Mrs Inez French",
    "address1": "1 Ti Tree Road , Dunnstown, 3352",
    "suburb": "DUNNSTOWN",
    "postcode": "3352",
    "state": "VIC",
    "schoolPhone": "5334 7604",
    "schoolEmail": ""
  },
  {
    "schoolID": "208",
    "name": "St Brendan's Primary School Shepparton",
    "principal": "Mrs Paula Stevenson",
    "address1": "143-149 Knight Street",
    "suburb": "SHEPPARTON",
    "postcode": "3630",
    "state": "VIC",
    "schoolPhone": "5821 1926",
    "schoolEmail": "principal@sbshepparton.catholic.edu.au"
  },
  {
    "schoolID": "209",
    "name": "St Brendan's School Coragulac",
    "principal": "Mrs Leanne Eastman",
    "address1": "727 Corangamite Lake Road",
    "suburb": "CORAGULAC",
    "postcode": "3249",
    "state": "VIC",
    "schoolPhone": "5233 1464",
    "schoolEmail": ""
  },
  {
    "schoolID": "210",
    "name": "St Brendan's School Flemington",
    "principal": "Mr Peter Hayes",
    "address1": "103 Wellington Street",
    "suburb": "FLEMINGTON  VIC",
    "postcode": "3031",
    "state": "VIC",
    "schoolPhone": "9376 0249",
    "schoolEmail": "principal@sbrflem.melb.catholic.edu.au"
  },
  {
    "schoolID": "207",
    "name": "St Brendan's School Lakes Entrance",
    "principal": "Matthew Hamer",
    "address1": "Golf Links Road",
    "suburb": "LAKES ENTRANCE",
    "postcode": "3909",
    "state": "VIC",
    "schoolPhone": "03 5155 2712",
    "schoolEmail": "principal@lakesent.catholic.edu.au"
  },
  {
    "schoolID": "211",
    "name": "St Brendan's School Somerville",
    "principal": "Mrs Sue Carr",
    "address1": "19 Austin Road",
    "suburb": "SOMERVILLE",
    "postcode": "3912",
    "state": "VIC",
    "schoolPhone": "5977 7277",
    "schoolEmail": ""
  },
  {
    "schoolID": "212",
    "name": "St Bridget's Primary School Greythorn",
    "principal": "Mrs Robyn Thomson",
    "address1": "36 Sweyn Street",
    "suburb": "BALWYN NORTH",
    "postcode": "3104",
    "state": "VIC",
    "schoolPhone": "9857 6394",
    "schoolEmail": ""
  },
  {
    "schoolID": "213",
    "name": "St Brigid's College Horsham",
    "principal": "Mr Gerard Raven",
    "address1": "97 Robinson Street",
    "suburb": "HORSHAM  ",
    "postcode": "3402",
    "state": "VIC",
    "schoolPhone": "5382 3545",
    "schoolEmail": "principal@stbc.vic.edu.au"
  },
  {
    "schoolID": "214",
    "name": "St Brigid's School Ballan",
    "principal": "Ms Gabrielle Driscoll",
    "address1": "98 Inglis Street",
    "suburb": "BALLAN",
    "postcode": "3342",
    "state": "VIC",
    "schoolPhone": "5368 1015",
    "schoolEmail": ""
  },
  {
    "schoolID": "216",
    "name": "St Brigid's School Gisborne",
    "principal": "Mrs Maree Morris",
    "address1": "68 Aitken Street",
    "suburb": "GISBORNE",
    "postcode": "3437",
    "state": "VIC",
    "schoolPhone": "5428 2220",
    "schoolEmail": ""
  },
  {
    "schoolID": "217",
    "name": "St Brigid's School Healesville",
    "principal": "Brendan Keeling",
    "address1": "1 High Street",
    "suburb": "HEALESVILLE",
    "postcode": "3777",
    "state": "VIC",
    "schoolPhone": "5962 4200",
    "schoolEmail": "principal@sbrghvl.melb.catholic.edu.au"
  },
  {
    "schoolID": "218",
    "name": "St Brigid's School Mordialloc",
    "principal": "Mrs Wendy Sullivan",
    "address1": "129 Albert Street",
    "suburb": "MORDIALLOC",
    "postcode": "3195",
    "state": "VIC",
    "schoolPhone": "9580 4518",
    "schoolEmail": ""
  },
  {
    "schoolID": "215",
    "name": "St Brigid's School Officer",
    "principal": "Mr Kenneth Gale",
    "address1": "25 Bayview Road",
    "suburb": "OFFICER",
    "postcode": "3809",
    "state": "VIC",
    "schoolPhone": "5943 2447"
  },
  {
    "schoolID": "219",
    "name": "St Carlo Borromeo School Greenvale",
    "principal": "Mr Kevin Gleeson",
    "address1": "5-9 Drummond Street",
    "suburb": "GREENVALE",
    "postcode": "3059",
    "state": "VIC",
    "schoolPhone": "9333 2572",
    "schoolEmail": ""
  },
  {
    "schoolID": "773",
    "name": "St Catherine's of Siena School Armstrong",
    "principal": "Donna Bryce",
    "address1": "125 Warralily Boulevard",
    "suburb": "Armstrong Creek",
    "postcode": "3217",
    "state": "VIC",
    "schoolPhone": "5264 5934",
    "schoolEmail": "enquiries@stcatherine.catholic.edu.au"
  },
  {
    "schoolID": "221",
    "name": "St Catherine's of Siena School Melton West",
    "principal": "Carmel Marantelli",
    "address1": "Bulman's Road",
    "suburb": "MELTON WEST",
    "postcode": "3337",
    "state": "VIC",
    "schoolPhone": "9743 2166",
    "schoolEmail": "principal@scmeltonwest.catholic.edu.au"
  },
  {
    "schoolID": "223",
    "name": "St Catherine's Parish School Moorabbin",
    "principal": "Mrs Lynda O'Donnell",
    "address1": "14-28 Fletcher Street",
    "suburb": "MOORABBIN ",
    "postcode": "3189",
    "state": "VIC",
    "schoolPhone": "9555 7200",
    "schoolEmail": "principal@scmoorabin.catholic.edu.au"
  },
  {
    "schoolID": "220",
    "name": "St Catherine's Primary School Berwick",
    "principal": "Ms Andrea Kershaw",
    "address1": "73 Ridgemont Drive",
    "suburb": "BERWICK",
    "postcode": "3806",
    "state": "VIC",
    "schoolPhone": "9702 1466",
    "schoolEmail": ""
  },
  {
    "schoolID": "222",
    "name": "St Catherine's School Lalor West",
    "principal": "Mrs Tracey Brincat",
    "address1": "2 Lascelles Drive",
    "suburb": "LALOR WEST",
    "postcode": "3075",
    "state": "VIC",
    "schoolPhone": "9466 2480",
    "schoolEmail": "principal@sclalorwest.catholic.edu.au"
  },
  {
    "schoolID": "781",
    "name": "St Catherine's School Toorak",
    "principal": "Michelle Carroll",
    "address1": "17 Heyington Place",
    "suburb": "TOORAK",
    "postcode": "3142",
    "state": "VIC",
    "schoolPhone": "9822 1285",
    "schoolEmail": ""
  },
  {
    "schoolID": "224",
    "name": "St Cecilia's School Glen Iris",
    "principal": "Mr Martin McKenna",
    "address1": "4 Van Ness Avenue",
    "suburb": "GLEN IRIS",
    "postcode": "3146",
    "state": "VIC",
    "schoolPhone": "9809 2142",
    "schoolEmail": ""
  },
  {
    "schoolID": "225",
    "name": "St Charles Borromeo School Templestowe",
    "principal": "Mr Greg Thomas",
    "address1": "230  234 Serpells Road",
    "suburb": "TEMPLESTOWE",
    "postcode": "3106",
    "state": "VIC",
    "schoolPhone": "9842 7634",
    "schoolEmail": "principal@scbtemplestowe.catholic.edu.au"
  },
  {
    "schoolID": "226",
    "name": "St Christopher's Primary School Airport West",
    "principal": "Adrian Glasby",
    "address1": "34 Roberts Road",
    "suburb": "AIRPORT WEST",
    "postcode": "3042",
    "state": "VIC",
    "schoolPhone": "9338 3591",
    "schoolEmail": "principal@stcapw.catholic.edu.au"
  },
  {
    "schoolID": "227",
    "name": "St Christopher's Primary School Glen Waverley",
    "principal": "Mr Shane Davoren",
    "address1": "5 Doon Avenue",
    "suburb": "GLEN WAVERLEY",
    "postcode": "3150",
    "state": "VIC",
    "schoolPhone": "9803 0011",
    "schoolEmail": ""
  },
  {
    "name": "St Clare's Primary School Officer",
    "principal": "Ms Helen Staindl",
    "address1": "95 Majestic Drive",
    "suburb": "OFFICER",
    "postcode": "3809",
    "state": "VIC",
    "schoolPhone": "5940 6777"
  },
  {
    "schoolID": "785",
    "name": "St Clare's Catholic Primary School Truganina",
    "principal": "Andrew Leighton",
    "address1": "130 Marquands Road",
    "suburb": "TRUGANINA SOUTH",
    "postcode": "3029",
    "state": "VIC",
    "schoolPhone": "9371 8400",
    "schoolEmail": "principal@sctruganina.catholic.edu.au"
  },
  {
    "schoolID": "228",
    "name": "St Clare's School Thomastown West",
    "principal": "Mr Daniel Barr",
    "address1": "Harbard Street",
    "suburb": "THOMASTOWN WEST",
    "postcode": "3074",
    "state": "VIC",
    "schoolPhone": "9465 8535",
    "schoolEmail": ""
  },
  {
    "schoolID": "229",
    "name": "St Clement of Rome School Bulleen",
    "principal": "Michael Heenan",
    "address1": "9 Egan Drive",
    "suburb": "BULLEEN",
    "postcode": "3105",
    "state": "VIC",
    "schoolPhone": "9850 1216",
    "schoolEmail": "principal@clementbulleen.catholic.edu.au"
  },
  {
    "schoolID": "230",
    "name": "St Colman's School Mortlake",
    "principal": "Mr Timothy Bourke",
    "address1": "28 Dunlop Street",
    "suburb": "MORTLAKE",
    "postcode": "3272",
    "state": "VIC",
    "schoolPhone": "5599 2285",
    "schoolEmail": ""
  },
  {
    "schoolID": "674",
    "name": "St Columba's College Essendon",
    "principal": "Ms Rita Grima",
    "address1": "2 Leslie Road",
    "suburb": "ESSENDON",
    "postcode": "3040",
    "state": "VIC",
    "schoolPhone": "9337 5311",
    "schoolEmail": "principal@columba.vic.edu.au"
  },
  {
    "schoolID": "725",
    "name": "St Columba's School Ballarat",
    "principal": "Shaun Mohr",
    "address1": "306 Howard Street",
    "suburb": "SOLDIERS HILL",
    "postcode": "3350",
    "state": "VIC",
    "schoolPhone": "5332 4894",
    "schoolEmail": "office@scballarat.catholic.edu.au"
  },
  {
    "schoolID": "233",
    "name": "St Columba's School Elwood",
    "principal": "Ms Daniella Maddalena",
    "address1": "24 Glenhuntly Road",
    "suburb": "ELWOOD",
    "postcode": "3184",
    "state": "VIC",
    "schoolPhone": "9531 6560",
    "schoolEmail": ""
  },
  {
    "schoolID": "731",
    "name": "St Damian's Primary School Bundoora",
    "principal": "Mrs Rosanna Piccolo",
    "address1": "PO Box 63",
    "suburb": "BUNDOORA",
    "postcode": "3083",
    "state": "VIC",
    "schoolPhone": "9467 8566",
    "schoolEmail": "info@sdbundoora.catholic.edu.au"
  },
  {
    "schoolID": "237",
    "name": "St Dominic's Primary School Melton",
    "principal": "Jeffrey Parker",
    "address1": "Church Street",
    "suburb": "MELTON",
    "postcode": "3337",
    "state": "VIC",
    "schoolPhone": "9743 6625",
    "schoolEmail": "principal@sdmelton.catholic.edu.au"
  },
  {
    "schoolID": "640",
    "name": "St Dominic's School - East Camberwell",
    "principal": "Mr Patrick Green",
    "address1": "145 Highfield Road",
    "suburb": "CAMBERWELL EAST",
    "postcode": "3124",
    "state": "VIC",
    "schoolPhone": "9836 8300",
    "schoolEmail": "principal@sdcamberwelleast.catholic.edu.au"
  },
  {
    "schoolID": "235",
    "name": "St Dominic's School Broadmeadows",
    "principal": "Miss Alison Bretag",
    "address1": "408 Camp Road",
    "suburb": "BROADMEADOWS",
    "postcode": "3047",
    "state": "VIC",
    "schoolPhone": "9309 4146",
    "schoolEmail": ""
  },
  {
    "schoolID": "238",
    "name": "St Elizabeth's School Dandenong North",
    "principal": "Mrs Christina Ferguson",
    "address1": "111 Bakers Road",
    "suburb": "DANDENONG NORTH",
    "postcode": "3175",
    "state": "VIC",
    "schoolPhone": "9795 5258",
    "schoolEmail": ""
  },
  {
    "schoolID": "239",
    "name": "St Fidelis' School Moreland",
    "principal": "Mrs Manuela Watson",
    "address1": "52 Saunders Street",
    "suburb": "MORELAND",
    "postcode": "3058",
    "state": "VIC",
    "schoolPhone": "9383 3600",
    "schoolEmail": ""
  },
  {
    "schoolID": "240",
    "name": "St Finbar's School Brighton East",
    "principal": "Mr Pat Berlingeri",
    "address1": "90 Centre Road",
    "suburb": "BRIGHTON EAST",
    "postcode": "3187",
    "state": "VIC",
    "schoolPhone": "9592 4479",
    "schoolEmail": ""
  },
  {
    "name": "St Francis de Sales Catholic Primary School Lynbrook",
    "principal": "Mrs Christine White",
    "address1": "122 Paterson Drive",
    "suburb": "LYNBROOK",
    "postcode": "3975",
    "state": "VIC",
    "schoolPhone": "8773 6700"
  },
  {
    "schoolID": "241",
    "name": "St Francis de Sales School Oak Park",
    "principal": "John Rudd",
    "address1": "626 Pascoe Vale Road",
    "suburb": "OAK PARK",
    "postcode": "3046",
    "state": "VIC",
    "schoolPhone": "9306 9444",
    "schoolEmail": "principal@sfoakpark.catholic.edu.au"
  },
  {
    "schoolID": "768",
    "name": "St Francis of Assisi Catholic Primary School Tarneit",
    "principal": "Michelle Gillett",
    "address1": "45 Fairview Parade",
    "suburb": "TARNEIT",
    "postcode": "3029",
    "state": "VIC",
    "schoolPhone": "9749 9900",
    "schoolEmail": "info@sfatarneit.catholic.edu.au"
  },
  {
    "schoolID": "766",
    "name": "St Francis of Assisi Primary School Wodonga",
    "principal": "Ms Jennyne Wilkinson",
    "address1": "214 Baranduda Boulevard",
    "suburb": "BARANDUDA",
    "postcode": "3691",
    "state": "VIC",
    "schoolPhone": "02 6020 9100",
    "schoolEmail": "sfwwodonga@catholic.edu.au"
  },
  {
    "schoolID": "242",
    "name": "St Francis of Assisi School Mill Park",
    "principal": "Mr Dane Malone",
    "address1": "312 Childs Road",
    "suburb": "MILL PARK",
    "postcode": "3082",
    "state": "VIC",
    "schoolPhone": "03 9407 3100",
    "schoolEmail": ""
  },
  {
    "schoolID": "243",
    "name": "St Francis of the Fields' Primary School Strathfieldsaye",
    "principal": "Tim Moloney",
    "address1": "PO Box 404",
    "suburb": "STRATHFIELDSAYE",
    "postcode": "3551",
    "state": "VIC",
    "schoolPhone": "",
    "schoolEmail": ""
  },
  {
    "schoolID": "244",
    "name": "St Francis Primary School Nathalia",
    "principal": "Mr Matt Knight",
    "address1": "PO Box 66",
    "suburb": "NATHALIA",
    "postcode": "3638",
    "state": "VIC",
    "schoolPhone": "5866 2271",
    "schoolEmail": "principal@sfnathalia.catholic.edu.au"
  },
  {
    "schoolID": "245",
    "name": "St Francis Xavier College Beaconsfield Campus",
    "principal": "Vincent Feeney",
    "address1": "4 Beaconsfield Avenue",
    "suburb": "BEACONSFIELD",
    "postcode": "3807",
    "state": "VIC",
    "schoolPhone": "9707 3111",
    "schoolEmail": "principal@sfx.vic.edu.au"
  },
  {
    "schoolID": "901",
    "name": "St Francis Xavier College Officer Campus",
    "principal": "Vincent J Feeney",
    "address1": "21 Majestic Drive",
    "suburb": "OFFICER",
    "postcode": "3809",
    "state": "VIC",
    "schoolPhone": "0359433600",
    "schoolEmail": "principal@sfx.vic.edu.au"
  },
  {
    "schoolID": "246",
    "name": "St Francis Xavier Primary School Ballarat East",
    "principal": "Paul Bissonella",
    "address1": "100 Fortune Street",
    "suburb": "BALLARAT EAST",
    "postcode": "3350",
    "state": "VIC",
    "schoolPhone": "5331 6311",
    "schoolEmail": "principal@sfxballarat.catholic.edu.au"
  },
  {
    "schoolID": "247",
    "name": "St Francis Xavier School Corio",
    "principal": "Mrs Maria Scala",
    "address1": "143 Bacchus Marsh Road",
    "suburb": "CORIO",
    "postcode": "3214",
    "state": "VIC",
    "schoolPhone": "52751974",
    "schoolEmail": ""
  },
  {
    "schoolID": "248",
    "name": "St Francis Xavier Primary School Frankston",
    "principal": "Mr Stephen Peart",
    "address1": "8 Park Street , Frankston, 3199",
    "suburb": "FRANKSTON",
    "postcode": "3199",
    "state": "VIC",
    "schoolPhone": "9783 3424",
    "schoolEmail": ""
  },
  {
    "schoolID": "249",
    "name": "St Francis Xavier's School Box Hill",
    "principal": "Mrs Mary Jones",
    "address1": "1087 Whitehorse Road",
    "suburb": "BOX HILL",
    "postcode": "3128",
    "state": "VIC",
    "schoolPhone": "9890 1108",
    "schoolEmail": ""
  },
  {
    "schoolID": "250",
    "name": "St Francis Xavier Catholic Primary School Montmorency",
    "principal": "Mr Philip Cachia",
    "address1": "90 Mayona Road",
    "suburb": "MONTMORENCY",
    "postcode": "3094",
    "state": "VIC",
    "schoolPhone": "9435 8474",
    "schoolEmail": ""
  },
  {
    "schoolID": "251",
    "name": "St Gabriel's Primary School Reservoir",
    "principal": "Brian Booley",
    "address1": "237 Spring Street",
    "suburb": "RESERVOIR  ",
    "postcode": "3073",
    "state": "VIC",
    "schoolPhone": "9469 3513",
    "schoolEmail": "principal@sgreservoir.catholic.edu.au"
  },
  {
    "schoolID": "252",
    "name": "St Gabriel's Primary School Traralgon",
    "principal": "Paul Mulqueen",
    "address1": "PO Box 1491",
    "suburb": "TRARALGON",
    "postcode": "3844",
    "state": "VIC",
    "schoolPhone": "5174 5515",
    "schoolEmail": ""
  },
  {
    "schoolID": "864",
    "name": "St George Preca School Caroline Springs",
    "principal": "James Sheedy",
    "address1": "22-48 Lancefield Drive",
    "suburb": "Caroline Springs",
    "postcode": "3023",
    "state": "VIC",
    "schoolPhone": "03 7378 5500",
    "schoolEmail": "principal@stgeorgepreca.catholic.edu.au"
  },
  {
    "schoolID": "253",
    "name": "St Gerard's School Dandenong North",
    "principal": "Paul Cowan",
    "address1": "71 Gladstone Road",
    "suburb": "DANDENONG NTH",
    "postcode": "3175",
    "state": "VIC",
    "schoolPhone": "9791 7553",
    "schoolEmail": "principal@sgdandenongnth.catholic.edu.au"
  },
  {
    "schoolID": "712",
    "name": "St Gregory the Great Primary School Doncaster",
    "principal": "Miss Michelle Verna",
    "address1": "396 Manningham Road",
    "suburb": "DONCASTER",
    "postcode": "3108",
    "state": "VIC",
    "schoolPhone": "9848 4483",
    "schoolEmail": ""
  },
  {
    "schoolID": "677",
    "name": "St Ignatius College Geelong",
    "principal": "Michael Exton",
    "address1": "27 Peninsula Drive",
    "suburb": "DRYSDALE ",
    "postcode": "3222",
    "state": "VIC",
    "schoolPhone": "5251 1136",
    "schoolEmail": "principal@sidrysdale.catholic.edu.au"
  },
  {
    "schoolID": "256",
    "name": "St Ita's School Drouin",
    "principal": "Andrew Osler",
    "address1": "50 Victoria Street",
    "suburb": "DROUIN",
    "postcode": "3818",
    "state": "VIC",
    "schoolPhone": "5625 4222",
    "schoolEmail": "principal@stidrouin.catholic.edu.au"
  },
  {
    "schoolID": "258",
    "name": "St James Parish School Sebastopol",
    "principal": "Peter Fahey & Garth Kydd",
    "address1": "260 Albert Street",
    "suburb": "SEBASTOPOL",
    "postcode": "3356",
    "state": "VIC",
    "schoolPhone": "5335 8750",
    "schoolEmail": "principal@sjsebastopol.catholic.edu.au"
  },
  {
    "schoolID": "260",
    "name": "St James Catholic Primary School Brighton",
    "principal": "Mr Brendan Flanagan",
    "address1": "6 St James Close",
    "suburb": "BRIGHTON",
    "postcode": "3186",
    "state": "VIC",
    "schoolPhone": "9596 4766"
  },
  {
    "schoolID": "259",
    "name": "St James Catholic School Nar Nar Goon",
    "principal": "Mrs Rebecca Kollaris",
    "address1": "60 Nar Nar Goon Road",
    "suburb": "NAR NAR GOON",
    "postcode": "3812",
    "state": "VIC",
    "schoolPhone": "5942 5404",
    "schoolEmail": ""
  },
  {
    "schoolID": "261",
    "name": "St James' School Vermont",
    "principal": "Mr David Mutimer",
    "address1": "51 Centre Road",
    "suburb": "VERMONT",
    "postcode": "3133",
    "state": "VIC",
    "schoolPhone": "9874 1830",
    "schoolEmail": ""
  },
  {
    "schoolID": "262",
    "name": "St James the Apostle School Hoppers Crossing North",
    "principal": "Mary Abbott",
    "address1": "330 Derrimut Road",
    "suburb": "HOPPERS CROSSING NORTH ",
    "postcode": "3029",
    "state": "VIC",
    "schoolPhone": "9749 1000",
    "schoolEmail": "principal@sjhcn.catholic.edu.au"
  },
  {
    "schoolID": "263",
    "name": "St Joachim's Catholic Primary School Carrum Downs",
    "principal": "Mr Paul Dwyer",
    "address1": "25 Broderick Road",
    "suburb": "CARRUM DOWNS",
    "postcode": "3201",
    "state": "VIC",
    "schoolPhone": "9785 2633",
    "schoolEmail": ""
  },
  {
    "schoolID": "264",
    "name": "St Joan of Arc Catholic Primary School Brighton",
    "principal": "Mr Tony McMahon",
    "address1": "30 Dendy Street",
    "suburb": "BRIGHTON",
    "postcode": "3186",
    "state": "VIC",
    "schoolPhone": "9592 3840",
    "schoolEmail": ""
  },
  {
    "schoolID": "265",
    "name": "St John Bosco's School Niddrie",
    "principal": "Mr Peter Monaghan",
    "address1": "6 Teague Street",
    "suburb": "NIDDRIE",
    "postcode": "3042",
    "state": "VIC",
    "schoolPhone": "9337 2314",
    "schoolEmail": ""
  },
  {
    "schoolID": "723",
    "name": "St John The Apostle Catholic Primary School Tarneit West",
    "principal": "Dr Simon Dundeon",
    "address1": "54-76 Kingbird Avenue",
    "suburb": "TARNEIT WEST",
    "postcode": "3029",
    "state": "VIC",
    "schoolPhone": "9748 9003",
    "schoolEmail": "principal@stja@catholic.edu.au"
  },
  {
    "schoolID": "266",
    "name": "St John the Baptist Catholic Primary School Ferntree Gully",
    "principal": "Mrs Cathy Mason",
    "address1": "17 Forest Road",
    "suburb": "FERNTREE GULLY",
    "postcode": "3156",
    "state": "VIC",
    "schoolPhone": "9758 1013",
    "schoolEmail": ""
  },
  {
    "schoolID": "267",
    "name": "St John the Baptist Primary School Koo Wee Rup",
    "principal": "Mr Christopher Dortmans",
    "address1": "172 Station Street",
    "suburb": "KOO WEE RUP",
    "postcode": "3981",
    "state": "VIC",
    "schoolPhone": "5997 1653",
    "schoolEmail": ""
  },
  {
    "schoolID": "269",
    "name": "St John Vianney's School Mulgrave ",
    "principal": "Mr Andrew Mullaly",
    "address1": "23 Police Road",
    "suburb": "MULGRAVE",
    "postcode": "3170",
    "state": "VIC",
    "schoolPhone": "8543 4444",
    "schoolEmail": ""
  },
  {
    "schoolID": "270",
    "name": "St John Vianney's Primary School Parkdale East ",
    "principal": "Mr Shane Regan",
    "address1": "17 Brisbane Terrace",
    "suburb": "PARKDALE EAST",
    "postcode": "3195",
    "state": "VIC",
    "schoolPhone": "9580 5812",
    "schoolEmail": ""
  },
  {
    "schoolID": "732",
    "name": "St John's Lutheran Primary School Portland",
    "principal": "Mr Brad Moss",
    "address1": "43 - 55 Trangmar Street",
    "suburb": "PORTLAND",
    "postcode": "3305",
    "state": "VIC",
    "schoolPhone": "5523 3833",
    "schoolEmail": "admin@stjohnsportland.vic.edu.au"
  },
  {
    "schoolID": "275",
    "name": "St John XXIII Primary School Thomastown East",
    "principal": "Frank Vetrone",
    "address1": "17 Regal Avenue",
    "suburb": "THOMASTOWN EAST",
    "postcode": "3074",
    "state": "VIC",
    "schoolPhone": "9465 6066",
    "schoolEmail": "principal@sjthomastowneast.catholic.edu.au"
  },
  {
    "schoolID": "38",
    "name": "St John's Primary School Dennington",
    "principal": "Mr Ben van de Camp",
    "address1": "263 Russell Street",
    "suburb": "DENNINGTON",
    "postcode": "3280",
    "state": "VIC",
    "schoolPhone": "5562 5362",
    "schoolEmail": "principal@sjdennington.catholic.edu.au"
  },
  {
    "schoolID": "273",
    "name": "St John's Primary School Heidelberg",
    "principal": "Mr Nick Marinelli",
    "address1": "55 Cape Street",
    "suburb": "HEIDELBERG",
    "postcode": "3084",
    "state": "VIC",
    "schoolPhone": "9459 2963",
    "schoolEmail": ""
  },
  {
    "schoolID": "271",
    "name": "St John's Regional College Dandenong",
    "principal": "Mr Tim Hogan",
    "address1": "Locked Bag 5040 MDC",
    "suburb": "DANDENONG",
    "postcode": "3175",
    "state": "VIC",
    "schoolPhone": "9791 3366",
    "schoolEmail": "principal@sjcdandenong.catholic.edu.au"
  },
  {
    "schoolID": "276",
    "name": "St John's School  Clifton Hill",
    "principal": "Mrs Kerrie Campagna",
    "address1": "77 Queens Parade",
    "suburb": "CLIFTON HILL",
    "postcode": "3068",
    "state": "VIC",
    "schoolPhone": "9489 1346",
    "schoolEmail": ""
  },
  {
    "schoolID": "272",
    "name": "St John's School Euroa",
    "principal": "Mrs Libby Hamilton",
    "address1": "37 Anderson Street",
    "suburb": "EUROA",
    "postcode": "3666",
    "state": "VIC",
    "schoolPhone": "5795 2937",
    "schoolEmail": "principal@sjeuroa.catholic.edu.au"
  },
  {
    "schoolID": "278",
    "name": "St John's Catholic School Footscray ",
    "principal": "Mrs Gemma Goodyear",
    "address1": "34 Essex Street",
    "suburb": "FOOTSCRAY",
    "postcode": "3011",
    "state": "VIC",
    "schoolPhone": "9687 3150",
    "schoolEmail": ""
  },
  {
    "schoolID": "279",
    "name": "St John's School Frankston",
    "principal": "Paul Hartin",
    "address1": "Jayne Street",
    "suburb": "FRANKSTON",
    "postcode": "3199",
    "state": "VIC",
    "schoolPhone": "9789 9794",
    "schoolEmail": ""
  },
  {
    "schoolID": "274",
    "name": "St John's School Mitcham",
    "principal": "Verona Gridley",
    "address1": "40 Whitehorse Rd",
    "suburb": "MITCHAM",
    "postcode": "3132",
    "state": "VIC",
    "schoolPhone": "98741575",
    "schoolEmail": ""
  },
  {
    "schoolID": "280",
    "name": "St Joseph the Worker Primary School Reservoir North",
    "principal": "Mrs Maria Barnes",
    "address1": "79 Wilson Boulevard",
    "suburb": "RESERVOIR NORTH",
    "postcode": "3073",
    "state": "VIC",
    "schoolPhone": "9469 7800",
    "schoolEmail": ""
  },
  {
    "name": "St Joseph's Catholic Primary School Werribee",
    "principal": "Mrs Shelley Ryan",
    "address1": "50 Treeve Parkway",
    "suburb": "WERRIBEE",
    "postcode": "3030",
    "state": "VIC",
    "schoolPhone": "8742 3381"
  },
  {
    "schoolID": "282",
    "name": "St Joseph's College Echuca",
    "principal": "Mr Michael Delaney",
    "address1": "21 Dickson Street",
    "suburb": "ECHUCA",
    "postcode": "3564",
    "state": "VIC",
    "schoolPhone": "5482 2577",
    "schoolEmail": "principal@sje.vic.edu.au"
  },
  {
    "schoolID": "283",
    "name": "St Joseph's College Ferntree Gully",
    "principal": "Vincent Feeney",
    "address1": "5 Brenock Park Drive",
    "suburb": "FERNTREE GULLY",
    "postcode": "3156",
    "state": "VIC",
    "schoolPhone": "9758 2000",
    "schoolEmail": ""
  },
  {
    "schoolID": "281",
    "name": "St Joseph's College Geelong",
    "principal": "Tony Paatsch",
    "address1": "135 Aphrasia Street",
    "suburb": "NEWTOWN",
    "postcode": "3220",
    "state": "VIC",
    "schoolPhone": "5226 8100",
    "schoolEmail": "sjcoffice@sjc.vic.edu.au"
  },
  {
    "schoolID": "285",
    "name": "St Joseph's College Mildura",
    "principal": "Mrs Marg Blythman",
    "address1": "154 Twelfth Street",
    "suburb": "MILDURA",
    "postcode": "3500",
    "state": "VIC",
    "schoolPhone": "5018 8000",
    "schoolEmail": "principal@sjcmda.vic.edu.au"
  },
  {
    "schoolID": "284",
    "name": "St Joseph's Flexible Learning Centre North Melbourne",
    "principal": "Ms Chloe Hand",
    "address1": "385 Queensberry Street",
    "suburb": "NORTH MELBOURNE",
    "postcode": "3051",
    "state": "VIC",
    "schoolPhone": "9269 6900"
  },
  {
    "schoolID": "297",
    "name": "St Joseph's Primary School  Collingwood",
    "principal": "Ms Rachel Smith",
    "address1": "46 Otter Street",
    "suburb": "COLLINGWOOD",
    "postcode": "3066",
    "state": "VIC",
    "schoolPhone": "9419 4918",
    "schoolEmail": "office@sjcollingwood.catholic.edu.au"
  },
  {
    "schoolID": "489",
    "name": "St Joseph's Primary School  Warragul",
    "principal": "Mr Dominic Ryan",
    "address1": "PO Box 365",
    "suburb": "WARRAGUL",
    "postcode": "3820",
    "state": "VIC",
    "schoolPhone": "",
    "schoolEmail": ""
  },
  {
    "schoolID": "288",
    "name": "St Joseph's Primary School Beechworth",
    "principal": "Kitty Hancock",
    "address1": "PO Box 209",
    "suburb": "BEECHWORTH",
    "postcode": "3747",
    "state": "VIC",
    "schoolPhone": "",
    "schoolEmail": ""
  },
  {
    "schoolID": "289",
    "name": "St Joseph's Primary School Benalla",
    "principal": "Mrs Mary Dunstan",
    "address1": "17 Wedge Street",
    "suburb": "BENALLA",
    "postcode": "3672",
    "state": "VIC",
    "schoolPhone": "5762 1347",
    "schoolEmail": "principal@sjbenalla.catholic.edu.au"
  },
  {
    "schoolID": "286",
    "name": "St Joseph's Primary School Boronia",
    "principal": "Mark Westwood",
    "address1": "212 Boronia Road",
    "suburb": "BORONIA",
    "postcode": "3155",
    "state": "VIC",
    "schoolPhone": "(03) 9762 3275",
    "schoolEmail": "principal@sjboronia.catholic.edu.au"
  },
  {
    "schoolID": "294",
    "name": "St Joseph's Primary School Chiltern",
    "principal": "Maryanne Saxby",
    "address1": "PO Box 102",
    "suburb": "CHILTERN",
    "postcode": "3683",
    "state": "VIC",
    "schoolPhone": "",
    "schoolEmail": ""
  },
  {
    "schoolID": "295",
    "name": "St Joseph's Primary School Cobram",
    "principal": "Mrs Lucy Keath",
    "address1": "PO Box 900",
    "suburb": "COBRAM",
    "postcode": "3644",
    "state": "VIC",
    "schoolPhone": "5872 1573",
    "schoolEmail": "principal@sjcobram.catholic.edu.au"
  },
  {
    "schoolID": "302",
    "name": "St Joseph's Primary School Kerang",
    "principal": "Mr Chris Mitchell",
    "address1": "89-103 Nolan Street",
    "suburb": "KERANG",
    "postcode": "3579",
    "state": "VIC",
    "schoolPhone": "5452 1426",
    "schoolEmail": "principal@sjkerang.catholic.edu.au"
  },
  {
    "schoolID": "736",
    "name": "St Joseph's Primary School Korumburra",
    "principal": "Ms Michelle Charlton",
    "address1": "1/3 Bridge Street",
    "suburb": "KORUMBURRA",
    "postcode": "3950",
    "state": "VIC",
    "schoolPhone": "(03) 5655 2040",
    "schoolEmail": "principal@sjkorumburra.catholic.edu.au"
  },
  {
    "schoolID": "305",
    "name": "St Joseph's Primary School Nagambie",
    "principal": "Leo Jones",
    "address1": "367 High Street",
    "suburb": "NAGAMBIE",
    "postcode": "3608",
    "state": "VIC",
    "schoolPhone": "",
    "schoolEmail": ""
  },
  {
    "schoolID": "307",
    "name": "St Joseph's Primary School Numurkah",
    "principal": "Paul Arnel",
    "address1": "16 Tocumwal Road",
    "suburb": "NUMURKAH",
    "postcode": "3636",
    "state": "VIC",
    "schoolPhone": "5862 1804",
    "schoolEmail": "principal@sjnumurkah.catholic.edu.au"
  },
  {
    "schoolID": "309",
    "name": "St Joseph's Primary School Penshurst",
    "principal": "Stephen Hogan",
    "address1": "11 Martin Street",
    "suburb": "PENSHURST",
    "postcode": "3289",
    "state": "VIC",
    "schoolPhone": "03 5576 5438",
    "schoolEmail": "principal@sjpenshurst.catholic.edu.au"
  },
  {
    "schoolID": "312",
    "name": "St Joseph's Primary School Rochester",
    "principal": "Peter Teggelove",
    "address1": "PO Box 230",
    "suburb": "ROCHESTER",
    "postcode": "3561",
    "state": "VIC",
    "schoolPhone": "5484 1787",
    "schoolEmail": ""
  },
  {
    "schoolID": "741",
    "name": "St Joseph's Primary School Warrnambool",
    "principal": "Mr Michael Gray",
    "address1": "70 Botanic Road",
    "suburb": "WARRNAMBOOL",
    "postcode": "3280",
    "state": "VIC",
    "schoolPhone": "5561 1343",
    "schoolEmail": "principal@sjwarrnambool.catholic.edu.au"
  },
  {
    "schoolID": "290",
    "name": "St Joseph's School Black Rock",
    "principal": "Mr Liam Buckley",
    "address1": "544 Balcombe Road",
    "suburb": "BLACK ROCK",
    "postcode": "3193",
    "state": "VIC",
    "schoolPhone": "9589 4685",
    "schoolEmail": ""
  },
  {
    "schoolID": "291",
    "name": "St Joseph's School Brunswick West",
    "principal": "Mr Matthew Davey",
    "address1": "185 Hope Stree",
    "suburb": "BRUNSWICK WEST",
    "postcode": "3055",
    "state": "VIC",
    "schoolPhone": "9385 9800",
    "schoolEmail": ""
  },
  {
    "schoolID": "292",
    "name": "St Joseph's Primary School Charlton",
    "principal": "Mr Frank McGrath",
    "address1": "25 Watson Street",
    "suburb": "CHARLTON",
    "postcode": "3525",
    "state": "VIC",
    "schoolPhone": "5491 1683",
    "schoolEmail": ""
  },
  {
    "schoolID": "293",
    "name": "St Joseph's Catholic Primary School Chelsea",
    "principal": "Gavan O'Donnell",
    "address1": "362 Station Street",
    "suburb": "CHELSEA",
    "postcode": "3196",
    "state": "VIC",
    "schoolPhone": "",
    "schoolEmail": "principal@sjchelsea.catholic.edu.au"
  },
  {
    "schoolID": "296",
    "name": "St Joseph's School Coleraine",
    "principal": "Karl Dwyer",
    "address1": "67 Read Street",
    "suburb": "COLERAINE",
    "postcode": "3315",
    "state": "VIC",
    "schoolPhone": "5575 2131",
    "schoolEmail": "principal@sjcoleraine.catholic.edu.au"
  },
  {
    "schoolID": "298",
    "name": "St Joseph's School Crib Point",
    "principal": "Gabrielle Espenschied",
    "address1": "17 Martin Street",
    "suburb": "CRIB POINT",
    "postcode": "3919",
    "state": "VIC",
    "schoolPhone": "5983 9374",
    "schoolEmail": "principal@sjcribpoint.catholic.edu.au"
  },
  {
    "schoolID": "299",
    "name": "St Joseph's School Elsternwick",
    "principal": "Mr Simon Collis",
    "address1": "28 Sandham Street",
    "suburb": "ELSTERNWICK",
    "postcode": "3185",
    "state": "VIC",
    "schoolPhone": "9528 1614"
  },
  {
    "schoolID": "300",
    "name": "St Joseph's School Hawthorn",
    "principal": "Mrs Sharon Kenyon-Smith",
    "address1": "571 Glenferrie Road",
    "suburb": "HAWTHORN",
    "postcode": "3122",
    "state": "VIC",
    "schoolPhone": "9818 7570",
    "schoolEmail": ""
  },
  {
    "schoolID": "301",
    "name": "St Joseph's School Hopetoun",
    "principal": "Miss Cynthia Maiden",
    "address1": "33 Lascelles Street",
    "suburb": "HOPETOUN",
    "postcode": "3396",
    "state": "VIC",
    "schoolPhone": "5083 3296",
    "schoolEmail": ""
  },
  {
    "schoolID": "304",
    "name": "St Joseph's School Malvern",
    "principal": "Mrs Michelle Moore",
    "address1": "49 Stanhope Street",
    "suburb": "MALVERN",
    "postcode": "3144",
    "state": "VIC",
    "schoolPhone": "9597 6300",
    "schoolEmail": ""
  },
  {
    "name": "St Joseph's Catholic Primary School Mernda",
    "principal": "Mrs Marita Richardson",
    "address1": "44 Mernda Village Drive",
    "suburb": "MERNDA",
    "postcode": "3754",
    "state": "VIC",
    "schoolPhone": "9717 6480"
  },
  {
    "schoolID": "306",
    "name": "St Joseph's School Northcote",
    "principal": "Irene Ashton",
    "address1": "39 James Street",
    "suburb": "NORTHCOTE",
    "postcode": "3070",
    "state": "VIC",
    "schoolPhone": "9481 7166",
    "schoolEmail": "principal@sjnorthcote.catholic.edu.au"
  },
  {
    "schoolID": "308",
    "name": "St Joseph's School Orbost",
    "principal": "Marie Dodson",
    "address1": "PO Box 314",
    "suburb": "ORBOST",
    "postcode": "3888",
    "state": "VIC",
    "schoolPhone": "5154 1289",
    "schoolEmail": "principal@stjorbost.catholic.edu.au"
  },
  {
    "schoolID": "310",
    "name": "St Joseph's School Quarry Hill",
    "principal": "Joan Coldwell",
    "address1": "Gladstone St",
    "suburb": "QUARRY HILL",
    "postcode": "3550",
    "state": "VIC",
    "schoolPhone": "03 5443 2108",
    "schoolEmail": "principal@sjquarryhill.catholic.edu.au"
  },
  {
    "schoolID": "311",
    "name": "St Joseph's School Red Cliffs",
    "principal": "Mark Gibson",
    "address1": "17 Fitzroy Avenue",
    "suburb": "RED CLIFFS",
    "postcode": "3496",
    "state": "VIC",
    "schoolPhone": "5024 1654",
    "schoolEmail": "principal@sjredcliffs.catholic.edu.au"
  },
  {
    "schoolID": "313",
    "name": "St Joseph's School Sorrento",
    "principal": "Gavin Brennan",
    "address1": "Constitution Hill Road",
    "suburb": "SORRENTO  ",
    "postcode": "3943",
    "state": "VIC",
    "schoolPhone": "03 5984 1291",
    "schoolEmail": "principal@sjsorrento.catholic.edu.au"
  },
  {
    "schoolID": "314",
    "name": "St Joseph's School Springvale",
    "principal": "Mr Chris O'Connell",
    "address1": "33 St John's Avenue",
    "suburb": "SPRINGVALE",
    "postcode": "3171",
    "state": "VIC",
    "schoolPhone": "9546 8223",
    "schoolEmail": ""
  },
  {
    "schoolID": "315",
    "name": "St Joseph's School Trafalgar",
    "principal": "Mrs Trish Mulqueen",
    "address1": "58 Waterloo Road",
    "suburb": "TRAFALGAR",
    "postcode": "3824",
    "state": "VIC",
    "schoolPhone": "5633 1151 ",
    "schoolEmail": "office@trafalgar.catholic.edu.au"
  },
  {
    "schoolID": "317",
    "name": "St Joseph's School Wonthaggi",
    "principal": "Ronan O'Mahony",
    "address1": "PO Box 182",
    "suburb": "WONTHAGGI",
    "postcode": "3995",
    "state": "VIC",
    "schoolPhone": "5672 1052",
    "schoolEmail": "info@stjwonthaggi.catholic.edu.au"
  },
  {
    "schoolID": "318",
    "name": "St Joseph's School Yarra Junction",
    "principal": "Mr Nicholas Boyhan",
    "address1": "40 Milners Road",
    "suburb": "YARRA JUNCTION",
    "postcode": "3797",
    "state": "VIC",
    "schoolPhone": "5967 1183",
    "schoolEmail": ""
  },
  {
    "schoolID": "319",
    "name": "St Jude the Apostle Primary School Scoresby",
    "principal": "Mr Tim McMullen",
    "address1": "53 George Street",
    "suburb": "SCORESBY",
    "postcode": "3179",
    "state": "VIC",
    "schoolPhone": "8761 9600",
    "schoolEmail": ""
  },
  {
    "schoolID": "320",
    "name": "St Jude's Primary School Langwarrin",
    "principal": "Mrs Marita O'Sullivan",
    "address1": "30 Warrandyte Road",
    "suburb": "LANGWARRIN",
    "postcode": "3910",
    "state": "VIC",
    "schoolPhone": "9789 7581",
    "schoolEmail": ""
  },
  {
    "schoolID": "321",
    "name": "St Justin's School Wheelers Hill",
    "principal": "Mr Patrick Torpey",
    "address1": "42 Whalley Drive",
    "suburb": "WHEELERS HILL",
    "postcode": "3150",
    "state": "VIC",
    "schoolPhone": "9561 7644",
    "schoolEmail": ""
  },
  {
    "schoolID": "655",
    "name": "St Kevin's College Toorak",
    "principal": "Mrs Deborah Barker",
    "address1": "31 Moonga Road",
    "suburb": "TOORAK",
    "postcode": "3142",
    "state": "VIC",
    "schoolPhone": "9822 0911",
    "schoolEmail": ""
  },
  {
    "schoolID": "325",
    "name": "St Kevin's School Lower Templestowe",
    "principal": "Frances Matisi",
    "address1": "26-44 Herlihys Road",
    "suburb": "LOWER TEMPLESTOWE",
    "postcode": "3107",
    "state": "VIC",
    "schoolPhone": "9850 4609",
    "schoolEmail": "fmatisi@sktemplestowelr.catholic.edu.au"
  },
  {
    "schoolID": "323",
    "name": "St Kevin's School Hampton Park",
    "principal": "Mr Jason Micallef",
    "address1": "120 Hallam Road",
    "suburb": "HAMPTON PARK",
    "postcode": "3976",
    "state": "VIC",
    "schoolPhone": "9709 8600",
    "schoolEmail": ""
  },
  {
    "schoolID": "326",
    "name": "St Kieran's Primary School Moe",
    "principal": "Mr Peter McKenna",
    "address1": "Lloyd Street",
    "suburb": "MOE",
    "postcode": "3825",
    "state": "VIC",
    "schoolPhone": "5127 3606",
    "schoolEmail": "principal@stkmoe.catholic.edu.au"
  },
  {
    "schoolID": "327",
    "name": "St Kilian's School Bendigo",
    "principal": "Mr Daniel Gooch",
    "address1": "2 Havelock Street",
    "suburb": "BENDIGO",
    "postcode": "3550",
    "state": "VIC",
    "schoolPhone": "5443 4071",
    "schoolEmail": "principal@skbendigo.catholic.edu.au"
  },
  {
    "schoolID": "328",
    "name": "St Laurence O'Toole School Leongatha ",
    "principal": "Mrs Liz O'Loughlin",
    "address1": "33-35 Ogilvy Street",
    "suburb": "LEONGATHA",
    "postcode": "3953",
    "state": "VIC",
    "schoolPhone": "5662 2192",
    "schoolEmail": "principal@stlleongatha.catholic.edu.au"
  },
  {
    "schoolID": "977",
    "name": "St Lawrence of Brindisi Catholic Primary School Weir Views",
    "principal": "Bill Hill",
    "address1": "31 Waterway Boulevard",
    "suburb": "WEIR VIEWS",
    "postcode": "3338",
    "state": "VIC",
    "schoolPhone": "8099 7800"
  },
  {
    "name": "St Lawrence Primary School Derrimut",
    "principal": "Mrs Julie Corsaletti",
    "address1": "93A Capesthorne Drive",
    "suburb": "DERRIMUT",
    "postcode": "3026",
    "state": "VIC",
    "schoolPhone": "8390 5326"
  },
  {
    "schoolID": "329",
    "name": "St Leo the Great School Altona North",
    "principal": "Mr James Ryan",
    "address1": "89 Mason Street",
    "suburb": "ALTONA NORTH",
    "postcode": "3025",
    "state": "VIC",
    "schoolPhone": "9391 5522",
    "schoolEmail": ""
  },
  {
    "schoolID": "330",
    "name": "St Leonard's School Glen Waverley ",
    "principal": "Mr Robert Horwood",
    "address1": "349 Springvale Road",
    "suburb": "GLEN WAVERLEY",
    "postcode": "3150",
    "state": "VIC",
    "schoolPhone": "9560 8491",
    "schoolEmail": ""
  },
  {
    "schoolID": "1010",
    "name": "St Liborius Primary School Eaglehawk",
    "principal": "Frank Dullard",
    "address1": "379 Eaglehawk Road",
    "suburb": "EAGLEHAWK",
    "postcode": "3556",
    "state": "VIC",
    "schoolPhone": "5446 9172",
    "schoolEmail": "principal@sleaglehawk.catholic.edu.au"
  },
  {
    "schoolID": "332",
    "name": "St Louis de Montfort's School Aspendale",
    "principal": "Carmel Stutterd",
    "address1": "37 Dolphin Street",
    "suburb": "ASPENDALE",
    "postcode": "3195",
    "state": "VIC",
    "schoolPhone": "9580 5169",
    "schoolEmail": "principal@stlouisaspendale.com"
  },
  {
    "schoolID": "333",
    "name": "St Luke the Evangelist School Blackburn South",
    "principal": "Mrs Liz Sullivan",
    "address1": "46 Orchard Grove",
    "suburb": "BLACKBURN SOUTH",
    "postcode": "3130",
    "state": "VIC",
    "schoolPhone": "9877 4023",
    "schoolEmail": ""
  },
  {
    "schoolID": "334",
    "name": "St Luke's Catholic Primary School Shepparton",
    "principal": "David Keenan",
    "address1": "629 Goulburn Valley Hwy",
    "suburb": "SHEPPARTON NORTH",
    "postcode": "3631",
    "state": "VIC",
    "schoolPhone": "5822 1834",
    "schoolEmail": "principal@slshepparton.catholic.edu.au"
  },
  {
    "schoolID": "335",
    "name": "St Luke's Primary School Lalor",
    "principal": "Ms Bernadette Venables",
    "address1": "1A David Street",
    "suburb": "LALOR",
    "postcode": "3075",
    "state": "VIC",
    "schoolPhone": "9465 2099",
    "schoolEmail": ""
  },
  {
    "schoolID": "336",
    "name": "St Luke's School Wantirna",
    "principal": "Ms Kathryn Murphy",
    "address1": "25 Stokes Road",
    "suburb": "WANTIRNA",
    "postcode": "3152",
    "state": "VIC",
    "schoolPhone": "9801 6917",
    "schoolEmail": ""
  },
  {
    "schoolID": "337",
    "name": "St Macartan's School Mornington",
    "principal": "Ms Colleen McGreal",
    "address1": "97 Bungower Road",
    "suburb": "MORNINGTON",
    "postcode": "3931",
    "state": "VIC",
    "schoolPhone": "5979 9200",
    "schoolEmail": ""
  },
  {
    "schoolID": "338",
    "name": "St Malachy's School Edenhope",
    "principal": "Mr John O'Sullivan",
    "address1": "34 Lake Street",
    "suburb": "EDENHOPE",
    "postcode": "3318",
    "state": "VIC",
    "schoolPhone": "5585 1396",
    "schoolEmail": ""
  },
  {
    "schoolID": "339",
    "name": "St Margaret Mary's School Brunswick North",
    "principal": "Ms Fiona Dearn",
    "address1": "47-49 Mitchell Street",
    "suburb": "BRUNSWICK NORTH",
    "postcode": "3056",
    "state": "VIC",
    "schoolPhone": "9383 6699",
    "schoolEmail": ""
  },
  {
    "schoolID": "340",
    "name": "St Margaret Mary's School Spotswood",
    "principal": "Andrea Richards",
    "address1": "181 Hudsons Rd",
    "suburb": "SPOTSWOOD",
    "postcode": "",
    "state": "VIC",
    "schoolPhone": "9391 3118",
    "schoolEmail": ""
  },
  {
    "schoolID": "342",
    "name": "St Margaret's Primary School Geelong East",
    "principal": "Mr Brian Everett ",
    "address1": "83 St Albans Road",
    "suburb": "GEELONG EAST",
    "postcode": "3219",
    "state": "VIC",
    "schoolPhone": "5229 7453",
    "schoolEmail": "principal@smgeelongeast.catholic.edu.au"
  },
  {
    "schoolID": "341",
    "name": "St Margaret's Primary School Maribyrnong",
    "principal": "Mr Gavin Brennan",
    "address1": "67 The Esplanade",
    "suburb": "MARIBYRNONG",
    "postcode": "3032",
    "state": "VIC",
    "schoolPhone": "9318 1339",
    "schoolEmail": ""
  },
  {
    "schoolID": "534",
    "name": "St Margaret's Junior School Berwick",
    "principal": "Ms Louise Sayar",
    "address1": "27-47 Gloucester Avenue",
    "suburb": "BERWICK",
    "postcode": "3806",
    "state": "VIC",
    "schoolPhone": "9703 8111",
    "schoolEmail": ""
  },
  {
    "schoolID": "344",
    "name": "St Mark's School Dingley",
    "principal": "Mrs Debbie Darvell",
    "address1": "4 - 6 Dimar Crt",
    "suburb": "DINGLEY",
    "postcode": "3172",
    "state": "VIC",
    "schoolPhone": "9551 1150",
    "schoolEmail": ""
  },
  {
    "schoolID": "345",
    "name": "St Mark's School Fawkner",
    "principal": "Peter Wilson",
    "address1": "118 Argyle Street",
    "suburb": "FAWKNER",
    "postcode": "3060",
    "state": "VIC",
    "schoolPhone": "9359 6463",
    "schoolEmail": "principal@smfawkner.catholic.edu.au"
  },
  {
    "schoolID": "346",
    "name": "St Martin de Porres School Avondale Heights",
    "principal": "Mr Mark Williams",
    "address1": "158 Military Road",
    "suburb": "AVONDALE HEIGHTS",
    "postcode": "3034",
    "state": "VIC",
    "schoolPhone": "9331 9000",
    "schoolEmail": ""
  },
  {
    "schoolID": "347",
    "name": "St Martin de Porres School Laverton",
    "principal": "Mr Dan Ryan",
    "address1": "13-25 Bellin Street",
    "suburb": "LAVERTON",
    "postcode": "3028",
    "state": "VIC",
    "schoolPhone": "9369 1070",
    "schoolEmail": ""
  },
  {
    "schoolID": "348",
    "name": "St Martin of Tours School Rosanna",
    "principal": "Mrs Patricia Stewart",
    "address1": "PO Box 430",
    "suburb": "ROSANNA",
    "postcode": "3084",
    "state": "VIC",
    "schoolPhone": "9459 0902",
    "schoolEmail": "principal@smrosanna.catholic.edu.au"
  },
  {
    "name": "St Mary MacKillop Catholic Primary School Bannockburn",
    "principal": "Mr Anthony Drill",
    "address1": "32 High Street",
    "suburb": "BANNOCKBURN",
    "postcode": "3331",
    "state": "VIC",
    "schoolPhone": "5281 8500"
  },
  {
    "schoolID": "79",
    "name": "St Mary MacKillop College Swan Hill",
    "principal": "Mrs Michelle Haeusler",
    "address1": "PO Box 971",
    "suburb": "SWAN HILL",
    "postcode": "3585",
    "state": "VIC",
    "schoolPhone": "5032 9771",
    "schoolEmail": "principal@mackillopsh.vic.edu.au"
  },
  {
    "schoolID": "86",
    "name": "St Mary MacKillop Primary School Keilor Downs",
    "principal": "Anthony McClusky",
    "address1": "152 Odessa Avenue",
    "suburb": "KEILOR DOWNS ",
    "postcode": "3038",
    "state": "VIC",
    "schoolPhone": "9367 6199",
    "schoolEmail": ""
  },
  {
    "schoolID": "349",
    "name": "St Mary Magdalen's School Chadstone",
    "principal": "Dr Helen Healy",
    "address1": "15 Bambil Street",
    "suburb": "CHADSTONE",
    "postcode": "3148",
    "state": "VIC",
    "schoolPhone": "9807 0315",
    "schoolEmail": ""
  },
  {
    "schoolID": "350",
    "name": "St Mary of the Angels College Nathalia",
    "principal": "Mr Matt Carver",
    "address1": "Chapel Street",
    "suburb": "NATHALIA",
    "postcode": "3638",
    "state": "VIC",
    "schoolPhone": "5866 2222",
    "schoolEmail": "principal@smotanathalia.catholic.edu.au"
  },
  {
    "name": "St Mary of the Cross Primary School Point Cook",
    "principal": "Mr Leon Colla",
    "address1": "70 Carrick Street Saltwater Coast Estate",
    "suburb": "POINT COOK",
    "postcode": "3030",
    "state": "VIC",
    "schoolPhone": "8376 5400"
  },
  {
    "schoolID": "384",
    "name": "St Mary of the Cross MacKillop Catholic Parish Primary School Epping North",
    "principal": "Geraldine Dalton",
    "address1": "47 Farmhouse Boulevard",
    "suburb": "EPPING NORTH",
    "postcode": "3076",
    "state": "VIC",
    "schoolPhone": "8432 4500",
    "schoolEmail": "principal@smcmeppingnth.catholic.edu.au"
  },
  {
    "schoolID": "352",
    "name": "St Mary's College for the Deaf Wantirna South",
    "principal": "Ms Amanda Purcell",
    "address1": "10A Riddell Road",
    "suburb": "WANTIRNA SOUTH",
    "postcode": "3152",
    "state": "VIC",
    "schoolPhone": "9800 2733",
    "schoolEmail": ""
  },
  {
    "schoolID": "351",
    "name": "St Mary's College Seymour",
    "principal": "Mr Wayne Smith",
    "address1": "90 High Street",
    "suburb": "SEYMOUR",
    "postcode": "3660",
    "state": "VIC",
    "schoolPhone": "5792 2611",
    "schoolEmail": "principal@smseymour.catholic.edu.au"
  },
  {
    "schoolID": "26",
    "name": "St Mary's College St Kilda East",
    "principal": "Mr Terrence Blizzard",
    "address1": "11 Westbury Street",
    "suburb": "ST KILDA EAST",
    "postcode": "3183",
    "state": "VIC",
    "schoolPhone": "9529 6611",
    "schoolEmail": "principal@stmaryscollege.vic.edu.au"
  },
  {
    "schoolID": "366",
    "name": "St Mary's F-8 School Robinvale",
    "principal": "Mrs Andrea Welsh",
    "address1": "PO Box 379",
    "suburb": "ROBINVALE",
    "postcode": "3549",
    "state": "VIC",
    "schoolPhone": "5026 3483",
    "schoolEmail": "principal@smrobinvale.catholic.edu.au"
  },
  {
    "schoolID": "354",
    "name": "St Mary's Primary School Bairnsdale",
    "principal": "Mrs Michelle Garbutt",
    "address1": "PO Box 1190",
    "suburb": "BAIRNSDALE",
    "postcode": "3875",
    "state": "VIC",
    "schoolPhone": "5152 3706",
    "schoolEmail": "principal@stmbairns.catholic.edu.au"
  },
  {
    "schoolID": "694",
    "name": "St Mary's Primary School Cohuna",
    "principal": "Mrs Jasmine Ryan",
    "address1": "45-49 King Edward Street",
    "suburb": "COHUNA",
    "postcode": "3568",
    "state": "VIC",
    "schoolPhone": "5456 2062",
    "schoolEmail": "principal@smcohuna.catholic.edu.au"
  },
  {
    "schoolID": "381",
    "name": "St Mary's Primary School Colac",
    "principal": "Michael Mahoney",
    "address1": "PO Box 24",
    "suburb": "COLAC",
    "postcode": "3250",
    "state": "VIC",
    "schoolPhone": "5231 3640",
    "schoolEmail": "office@smcolac.catholic.edu.au"
  },
  {
    "schoolID": "383",
    "name": "St Mary's Primary School Donald",
    "principal": "Anne Anderson",
    "address1": "134 Woods Street",
    "suburb": "DONALD",
    "postcode": "3480",
    "state": "VIC",
    "schoolPhone": "5497 1116",
    "schoolEmail": "principal@smdonald.catholic.edu.au"
  },
  {
    "schoolID": "386",
    "name": "St Mary's Primary School Hamilton",
    "principal": "Terrielynn Groves",
    "address1": "49 Hillier Lane",
    "suburb": "HAMILTON",
    "postcode": "3300",
    "state": "VIC",
    "schoolPhone": "5551 9000",
    "schoolEmail": "principal@smhamilton.catholic.edu.au"
  },
  {
    "schoolID": "389",
    "name": "St Mary's Primary School Inglewood",
    "principal": "Kim Carter",
    "address1": "87 Southey Street",
    "suburb": "INGLEWOOD",
    "postcode": "3517",
    "state": "VIC",
    "schoolPhone": "5438 3075",
    "schoolEmail": "principal@sminglewood.catholic.edu.au"
  },
  {
    "schoolID": "357",
    "name": "St Mary's Primary School Mooroopna",
    "principal": "Anthony Butts",
    "address1": "121 - 143 McLennan Street",
    "suburb": "MOOROOPNA",
    "postcode": "3629",
    "state": "VIC",
    "schoolPhone": "5825 2858",
    "schoolEmail": "principal@smmooroopna.catholic.edu.au"
  },
  {
    "schoolID": "365",
    "name": "St Mary's Primary School Myrtleford",
    "principal": "Mrs Katherine Hancock",
    "address1": "43 O'Donnell Avenue",
    "suburb": "MYRTLEFORD",
    "postcode": "3737",
    "state": "VIC",
    "schoolPhone": "5752 1808",
    "schoolEmail": ""
  },
  {
    "schoolID": "358",
    "name": "St Mary's Primary School Rushworth",
    "principal": "Catherine Fraser",
    "address1": "5-7 Southam Street",
    "suburb": "RUSHWORTH",
    "postcode": "3612",
    "state": "VIC",
    "schoolPhone": "5856 5347",
    "schoolEmail": "principal@smrushworth.catholic.edu.au"
  },
  {
    "schoolID": "367",
    "name": "St Mary's Primary School Rutherglen",
    "principal": "Matthew Attwater",
    "address1": "High Street",
    "suburb": "RUTHERGLEN",
    "postcode": "3685",
    "state": "VIC",
    "schoolPhone": "02 6032 9284",
    "schoolEmail": ""
  },
  {
    "schoolID": "353",
    "name": "St Mary's Primary School Sale",
    "principal": "Mr Brett Morris",
    "address1": "11 Pearson Street",
    "suburb": "SALE",
    "postcode": "3850",
    "state": "VIC",
    "schoolPhone": "5144 1780",
    "schoolEmail": ""
  },
  {
    "schoolID": "369",
    "name": "St Mary's Primary School St Kilda East",
    "principal": "Mrs Catherine Ferrari",
    "address1": "214 Dandenong Road",
    "suburb": "ST KILDA EAST",
    "postcode": "3183",
    "state": "VIC",
    "schoolPhone": "9510 7420",
    "schoolEmail": "principal@smstkildaeast.catholic.edu.au"
  },
  {
    "schoolID": "375",
    "name": "St Mary's School Alexandra",
    "principal": "Mr Adrian Cheer",
    "address1": "Myrtle Street",
    "suburb": "ALEXANDRA",
    "postcode": "3714",
    "state": "VIC",
    "schoolPhone": "5772 1500",
    "schoolEmail": ""
  },
  {
    "schoolID": "376",
    "name": "St Mary's School Altona",
    "principal": "Mrs Sonia Riccardi",
    "address1": "95A Railway Street",
    "suburb": "ALTONA",
    "postcode": "3018",
    "state": "VIC",
    "schoolPhone": "9398 4842",
    "schoolEmail": ""
  },
  {
    "schoolID": "377",
    "name": "St Mary's School Ararat",
    "principal": "Ms Roxanne Leed",
    "address1": "Moore Street",
    "suburb": "ARARAT",
    "postcode": "3377",
    "state": "VIC",
    "schoolPhone": "5352 1796",
    "schoolEmail": ""
  },
  {
    "schoolID": "378",
    "name": "St Mary's School Ascot Vale",
    "principal": "Mr Paul Hogan",
    "address1": "74 Roseberry Street",
    "suburb": "ASCOT VALE",
    "postcode": "3032",
    "state": "VIC",
    "schoolPhone": "9370 1194",
    "schoolEmail": ""
  },
  {
    "schoolID": "379",
    "name": "St Mary's School Castlemaine",
    "principal": "Mr Ben Shields",
    "address1": "84 Templeton Street",
    "suburb": "CASTLEMAINE",
    "postcode": "3450",
    "state": "VIC",
    "schoolPhone": "5472 2270",
    "schoolEmail": "principal@smcastlemaine.catholic.edu.au"
  },
  {
    "schoolID": "355",
    "name": "St Mary's School Clarkes Hill",
    "principal": "Mrs Inez French",
    "address1": "131 Powells Road",
    "suburb": "CLARKES HILL",
    "postcode": "3352",
    "state": "VIC",
    "schoolPhone": "5334 5280",
    "schoolEmail": "principal@smclarkeshill.catholic.edu.au"
  },
  {
    "schoolID": "380",
    "name": "St Mary's School Cohuna",
    "principal": "Mrs Jasmine Ryan",
    "address1": "45-49 King Edward Street",
    "suburb": "COHUNA",
    "postcode": "3568",
    "state": "VIC",
    "schoolPhone": "5456 2062",
    "schoolEmail": ""
  },
  {
    "schoolID": "382",
    "name": "St Mary's School Dandenong",
    "principal": "Mr Terry Gardiner",
    "address1": "20 - 24 New Street",
    "suburb": "DANDENONG",
    "postcode": "3175",
    "state": "VIC",
    "schoolPhone": "9791 7650",
    "schoolEmail": ""
  },
  {
    "schoolID": "356",
    "name": "St Mary's School Echuca",
    "principal": "Brendan Atley",
    "address1": "15-33 Bridlington Avenue",
    "suburb": "ECHUCA",
    "postcode": "3564",
    "state": "VIC",
    "schoolPhone": "5482 1342",
    "schoolEmail": "principal@smechuca.catholic.edu.au"
  },
  {
    "schoolID": "661",
    "name": "St Mary's School Geelong",
    "principal": "Mrs Annice Lappin",
    "address1": "66-68 Little Myers Street",
    "suburb": "GEELONG",
    "postcode": "3220",
    "state": "VIC",
    "schoolPhone": "5229 9453",
    "schoolEmail": ""
  },
  {
    "schoolID": "688",
    "name": "St Mary's School Greensborough",
    "principal": "Mrs Marisa Matthys",
    "address1": "210 Grimshaw Street",
    "suburb": "GREENSBOROUGH",
    "postcode": "3088",
    "state": "VIC",
    "schoolPhone": "9433 4000",
    "schoolEmail": ""
  },
  {
    "schoolID": "387",
    "name": "St Mary's School Hampton",
    "principal": "Matthew Sweeney",
    "address1": "59 Holyrood St",
    "suburb": "HAMPTON",
    "postcode": "3188",
    "state": "VIC",
    "schoolPhone": "9521 9335",
    "schoolEmail": ""
  },
  {
    "schoolID": "388",
    "name": "St Mary's School Hastings",
    "principal": "Mrs Gab Espenschied",
    "address1": "69 Marine Parade",
    "suburb": "HASTINGS",
    "postcode": "3915",
    "state": "VIC",
    "schoolPhone": "5979 1959",
    "schoolEmail": ""
  },
  {
    "schoolID": "360",
    "name": "St Mary's School Lancefield",
    "principal": "Mrs Julie McDougall",
    "address1": "2 Raglan Street",
    "suburb": "LANCEFIELD",
    "postcode": "3435",
    "state": "VIC",
    "schoolPhone": "5429 1359",
    "schoolEmail": ""
  },
  {
    "schoolID": "361",
    "name": "St Mary's School Maffra",
    "principal": "Jason Slattery",
    "address1": "4-12 Duke Street",
    "suburb": "MAFFRA",
    "postcode": "3860",
    "state": "VIC",
    "schoolPhone": "5147 1334",
    "schoolEmail": "principal@stmmaffra@catholic.edu.au"
  },
  {
    "schoolID": "362",
    "name": "St Mary's School Malvern East",
    "principal": "Mr Shane Tobin",
    "address1": "91 Manning Road",
    "suburb": "MALVERN EAST",
    "postcode": "3145",
    "state": "VIC",
    "schoolPhone": "9571 1358",
    "schoolEmail": ""
  },
  {
    "schoolID": "363",
    "name": "St Mary's School Mansfield",
    "principal": "Mrs Trish Etcell",
    "address1": "39 Malcolm Street",
    "suburb": "MANSFIELD",
    "postcode": "3723",
    "state": "VIC",
    "schoolPhone": "5775 2670",
    "schoolEmail": "principal@smmansfield.catholic.edu.au"
  },
  {
    "schoolID": "364",
    "name": "St Mary's School Mt Evelyn",
    "principal": "Mrs Angela Glennie",
    "address1": "58 Clegg Rd",
    "suburb": "MOUNT EVELYN",
    "postcode": "3796",
    "state": "VIC",
    "schoolPhone": "9736 2219",
    "schoolEmail": ""
  },
  {
    "schoolID": "368",
    "name": "St Mary's School Sea Lake",
    "principal": "Mrs Kate Nunn",
    "address1": "47 Hannon Street",
    "suburb": "SEA LAKE",
    "postcode": "3533",
    "state": "VIC",
    "schoolPhone": "5070 1272",
    "schoolEmail": ""
  },
  {
    "schoolID": "359",
    "name": "St Mary's School Swan Hill",
    "principal": "Kate Quinn",
    "address1": "2 Murlong Street",
    "suburb": "SWAN HILL",
    "postcode": "3585",
    "state": "VIC",
    "schoolPhone": "5033 2541",
    "schoolEmail": ""
  },
  {
    "schoolID": "370",
    "name": "St Mary's School Thornbury",
    "principal": "Mr Chris Ray",
    "address1": "2 Mansfield Street",
    "suburb": "THORNBURY",
    "postcode": "3071",
    "state": "VIC",
    "schoolPhone": "9484 5333",
    "schoolEmail": ""
  },
  {
    "schoolID": "371",
    "name": "St Mary's School Warracknabeal",
    "principal": "Ms Joy Quarrell ",
    "address1": " PO Box 238",
    "suburb": "WARRACKNABEAL",
    "postcode": "3393",
    "state": "VIC",
    "schoolPhone": "5398 2001",
    "schoolEmail": "principal @ smwarracknabeal.catholic.edu.au"
  },
  {
    "schoolID": "373",
    "name": "St Mary's School Williamstown",
    "principal": "Mr Anthony Hockey",
    "address1": "118 Cecil Street",
    "suburb": "WILLIAMSTOWN",
    "postcode": "3016",
    "state": "VIC",
    "schoolPhone": "9397 7926",
    "schoolEmail": ""
  },
  {
    "schoolID": "374",
    "name": "St Mary's School Yarram",
    "principal": "Mrs Maria Moore",
    "address1": "5 Buckley Street",
    "suburb": "YARRAM",
    "postcode": "3971",
    "state": "VIC",
    "schoolPhone": "5182 5659",
    "schoolEmail": ""
  },
  {
    "schoolID": "372",
    "name": "St Mary's School Whittlesea",
    "principal": "Phillip Smith",
    "address1": "2-20 Fir Street",
    "suburb": "WHITTLESEA",
    "postcode": "3757",
    "state": "VIC",
    "schoolPhone": "97162478",
    "schoolEmail": "principal@smwhittlesea.catholic.edu.au"
  },
  {
    "schoolID": "390",
    "name": "St Matthew's School Fawkner North",
    "principal": "Mr Bob Brown",
    "address1": "95 William Street",
    "suburb": "FAWKNER NORTH",
    "postcode": "3060",
    "state": "VIC",
    "schoolPhone": "9359 5423",
    "schoolEmail": ""
  },
  {
    "schoolID": "391",
    "name": "St Mel's Primary School Shepparton",
    "principal": "Chris Summers",
    "address1": "35 Hamilton Street",
    "suburb": "SHEPPARTON",
    "postcode": "3630",
    "state": "VIC",
    "schoolPhone": "5821 3163",
    "schoolEmail": "principal@smshepparton.catholic.edu.au"
  },
  {
    "schoolID": "663",
    "name": "St Michael's Grammar St Kilda",
    "principal": "Simon Gipson",
    "address1": "25 Chapel Street",
    "suburb": "ST KILDA",
    "postcode": "3182",
    "state": "VIC",
    "schoolPhone": "85303200",
    "schoolEmail": ""
  },
  {
    "schoolID": "397",
    "name": "St Michael's Primary School North Melbourne",
    "principal": "Denise Hussey",
    "address1": "8 Brougham Street",
    "suburb": "NORTH MELBOURNE",
    "postcode": "3051",
    "state": "VIC",
    "schoolPhone": "9329 9206",
    "schoolEmail": "principal@smnthmelbourne.catholic.edu.au"
  },
  {
    "schoolID": "393",
    "name": "St Michael's School Ashburton",
    "principal": "Mrs Meredith Bennett",
    "address1": "268 High Street",
    "suburb": "ASHBURTON",
    "postcode": "3147",
    "state": "VIC",
    "schoolPhone": "9885 3105",
    "schoolEmail": "principal@smashburton.catholic.edu.au"
  },
  {
    "schoolID": "394",
    "name": "St Michael's School Berwick",
    "principal": "Dr Angela Kelly",
    "address1": "6 Scanlan Street",
    "suburb": "BERWICK",
    "postcode": "3806",
    "state": "VIC",
    "schoolPhone": "8794 2400",
    "schoolEmail": ""
  },
  {
    "schoolID": "395",
    "name": "St Michael's School Daylesford",
    "principal": "Mr Ethan Corfee",
    "address1": "29 Smith Street",
    "suburb": "DAYLESFORD",
    "postcode": "3460",
    "state": "VIC",
    "schoolPhone": "5348 1261",
    "schoolEmail": ""
  },
  {
    "schoolID": "396",
    "name": "St Michael's School Heyfield",
    "principal": "Mrs Jenny Miller",
    "address1": "Davis Street",
    "suburb": "HEYFIELD",
    "postcode": "3858",
    "state": "VIC",
    "schoolPhone": "5148 2514",
    "schoolEmail": "principal@stmheyfield.catholic.edu.au"
  },
  {
    "schoolID": "399",
    "name": "St Michael's School Tallangatta",
    "principal": "Ashley Marsh",
    "address1": "PO Box 13",
    "suburb": "TALLANGATTA ",
    "postcode": "3700",
    "state": "VIC",
    "schoolPhone": "02 6071 2386",
    "schoolEmail": "principal@smtallangatta.catholic.edu.au"
  },
  {
    "schoolID": "400",
    "name": "St Michael's School Traralgon",
    "principal": "Richard Wans",
    "address1": "PO Box 344",
    "suburb": "TRARALGON",
    "postcode": "3844",
    "state": "VIC",
    "schoolPhone": "5174 3295",
    "schoolEmail": "principal@stmtraralgon.catholic.edu.au"
  },
  {
    "schoolID": "651",
    "name": "St Monica's College Epping",
    "principal": "Mr Brian Hanley",
    "address1": "PO Box 11",
    "suburb": "EPPING",
    "postcode": "3076",
    "state": "VIC",
    "schoolPhone": "9409 8800",
    "schoolEmail": "admin@stmonicas-epping.com"
  },
  {
    "schoolID": "402",
    "name": "St Monica's Primary School Moonee Ponds",
    "principal": "Peter Moore",
    "address1": "20 Robinson Street",
    "suburb": "MOONEE PONDS",
    "postcode": "3039",
    "state": "VIC",
    "schoolPhone": "9375 1132",
    "schoolEmail": "info@stmonicasmp.catholic.edu.au"
  },
  {
    "schoolID": "404",
    "name": "St Monica's Primary School Wodonga",
    "principal": "Mrs Jacqui Partington",
    "address1": "137 Brockley Street",
    "suburb": "WODONGA  VIC",
    "postcode": "3690",
    "state": "VIC",
    "schoolPhone": "02 6024 3151",
    "schoolEmail": "principal@smwodonga.catholic.edu.au"
  },
  {
    "schoolID": "405",
    "name": "St Monica's School Footscray",
    "principal": "Ms Karen Colla",
    "address1": "2 Wingfield Street",
    "suburb": "FOOTSCRAY",
    "postcode": "3011",
    "state": "VIC",
    "schoolPhone": "9689 4548",
    "schoolEmail": ""
  },
  {
    "schoolID": "403",
    "name": "St Monica's School Kangaroo Flat",
    "principal": "Mr Reuben Johnson",
    "address1": "91 High Street",
    "suburb": "KANGAROO FLAT",
    "postcode": "3555",
    "state": "VIC",
    "schoolPhone": "5447 7832",
    "schoolEmail": "principal@smkangarooflat.catholic.edu.au"
  },
  {
    "schoolID": "406",
    "name": "St Oliver Plunkett's School Pascoe Vale",
    "principal": "Mrs Delfina Pieri",
    "address1": "1 - 39 Landells Road",
    "suburb": "PASCOE VALE",
    "postcode": "3044",
    "state": "VIC",
    "schoolPhone": "9354 5130",
    "schoolEmail": ""
  },
  {
    "schoolID": "407",
    "name": "St Patrick's College Ballarat",
    "principal": "Mr Steven OConnor",
    "address1": "1431 Sturt Street",
    "suburb": "BALLARAT",
    "postcode": "3350",
    "state": "VIC",
    "schoolPhone": "5331 1688",
    "schoolEmail": "principal@stpats.vic.edu.au"
  },
  {
    "schoolID": "790",
    "name": "St Patrick's Primary School Kilmore",
    "principal": "Michael Bourne",
    "address1": "1 Conway Street",
    "suburb": "Kilmore",
    "postcode": "3764",
    "state": "VIC",
    "schoolPhone": "5782 1579",
    "schoolEmail": "kathryn.fuhrmann@spkilmore.catholic.edu.au"
  },
  {
    "schoolID": "421",
    "name": "St Patrick's Primary School Pakenham",
    "principal": "Simon Dell'Orro",
    "address1": "128-144 Princes Hwy",
    "suburb": "PAKENHAM",
    "postcode": "3810",
    "state": "VIC",
    "schoolPhone": "5940 2888",
    "schoolEmail": "principal@sppakemham.catholic.edu.au"
  },
  {
    "schoolID": "423",
    "name": "St Patrick's Primary School Pyramid Hill",
    "principal": "Colleen Hampson",
    "address1": "5 Victoria Street",
    "suburb": "PYRAMID HILL",
    "postcode": "3575",
    "state": "VIC",
    "schoolPhone": "5455 7220",
    "schoolEmail": ""
  },
  {
    "schoolID": "408",
    "name": "St Patrick's Primary School Stawell",
    "principal": "Antony Capurso",
    "address1": "55 Patrick Street",
    "suburb": "STAWELL  VIC",
    "postcode": "3380",
    "state": "VIC",
    "schoolPhone": "5358 5493",
    "schoolEmail": ""
  },
  {
    "schoolID": "411",
    "name": "St Patrick's School Ballarat",
    "principal": "Mr Mark Hogbin",
    "address1": "119 Drummond Street South",
    "suburb": "BALLARAT",
    "postcode": "3350",
    "state": "VIC",
    "schoolPhone": "5332 7680",
    "schoolEmail": ""
  },
  {
    "schoolID": "412",
    "name": "St Patrick's School Camperdown",
    "principal": "Mr Michael McKenzie",
    "address1": "4 Dimora Avenue",
    "suburb": "CAMPERDOWN",
    "postcode": "3260",
    "state": "VIC",
    "schoolPhone": "5593 1962",
    "schoolEmail": "principal@spcamperdown.catholic.edu.au"
  },
  {
    "schoolID": "413",
    "name": "St Patrick's School Geelong West",
    "principal": "Mr John Grant",
    "address1": "11-21 Petrel Street",
    "suburb": "GEELONG WEST",
    "postcode": "3218",
    "state": "VIC",
    "schoolPhone": "5229 4412",
    "schoolEmail": ""
  },
  {
    "schoolID": "699",
    "name": "St Patrick's School Gordon",
    "principal": "Mrs Bambi Afford",
    "address1": "1564 Old Melbourne Road",
    "suburb": "GORDON",
    "postcode": "3345",
    "state": "VIC",
    "schoolPhone": "5368 9495",
    "schoolEmail": "principal@spgordon.catholic.edu.au"
  },
  {
    "schoolID": "416",
    "name": "St Patrick's School Koroit",
    "principal": "Mark Moloney",
    "address1": "Queen Street",
    "suburb": "KOROIT",
    "postcode": "3282",
    "state": "VIC",
    "schoolPhone": "5565 8208",
    "schoolEmail": "principal@spkoroit>catholi.edu.au"
  },
  {
    "schoolID": "417",
    "name": "St Patrick's School Lilydale",
    "principal": "Mr Geoff Klep",
    "address1": "40 Jones Street",
    "suburb": "LILYDALE",
    "postcode": "3140",
    "state": "VIC",
    "schoolPhone": "9735 4388",
    "schoolEmail": ""
  },
  {
    "schoolID": "418",
    "name": "St Patrick's School Mentone",
    "principal": "Mr Tim Noonan",
    "address1": "16 Childers Street",
    "suburb": "MENTONE",
    "postcode": "3194",
    "state": "VIC",
    "schoolPhone": "9583 5033",
    "schoolEmail": ""
  },
  {
    "schoolID": "419",
    "name": "St Patrick's School Murrumbeena",
    "principal": "Ms Jenny Hawkins",
    "address1": "3 Dalny Road",
    "suburb": "MURRUMBEENA",
    "postcode": "3163",
    "state": "VIC",
    "schoolPhone": "9569 7487",
    "schoolEmail": ""
  },
  {
    "schoolID": "420",
    "name": "St Patrick's School Nhill",
    "principal": "Mr Kingsley Dalgleish",
    "address1": "29 Leahy Street",
    "suburb": "NHILL",
    "postcode": "3418",
    "state": "VIC",
    "schoolPhone": "5391 1575",
    "schoolEmail": ""
  },
  {
    "schoolID": "887",
    "name": "St Patrick's School Port Fairy",
    "principal": "Olga Lyons",
    "address1": "9-11 William Street",
    "suburb": "Port Fairy",
    "postcode": "3284",
    "state": "VIC",
    "schoolPhone": "5568 1371",
    "schoolEmail": "jmoloney001@spportfairy.catholic.edu.au"
  },
  {
    "schoolID": "424",
    "name": "St Patrick's School St Arnaud",
    "principal": "Mr Gary Typuszak",
    "address1": "PO Box 247",
    "suburb": "ST ARNAUD",
    "postcode": "3478",
    "state": "VIC",
    "schoolPhone": "5495 1038",
    "schoolEmail": "principal@spstarnaud.catholic.edu.au"
  },
  {
    "schoolID": "425",
    "name": "St Patrick's School Stratford",
    "principal": "Damian Hogan",
    "address1": "2 Merrick Street",
    "suburb": "STRATFORD ",
    "postcode": "3862",
    "state": "VIC",
    "schoolPhone": "5145 6463",
    "schoolEmail": "principal@stpstratford.catholic.edu.au"
  },
  {
    "schoolID": "409",
    "name": "St Patrick's School Tongala",
    "principal": "Katrina Johnson",
    "address1": "Mangan Street",
    "suburb": "TONGALA",
    "postcode": "3621",
    "state": "VIC",
    "schoolPhone": "5859 0371",
    "schoolEmail": "spattgla.sand.catholic.edu.au"
  },
  {
    "schoolID": "410",
    "name": "St Patrick's School Wangaratta",
    "principal": "Terry Corrigan",
    "address1": "Ovens Street",
    "suburb": "WANGARATTA",
    "postcode": "3677",
    "state": "VIC",
    "schoolPhone": "5721 5795",
    "schoolEmail": ""
  },
  {
    "schoolID": "426",
    "name": "St Paul Apostle North School Endeavour Hills",
    "principal": "Mrs Mary Lucas",
    "address1": "76 Mossgiel Park Drive",
    "suburb": "ENDEAVOUR HILLS",
    "postcode": "3802",
    "state": "VIC",
    "schoolPhone": "9700 6068",
    "schoolEmail": ""
  },
  {
    "schoolID": "427",
    "name": "St Paul Apostle South School Endeavour Hills",
    "principal": "Mr Paul Gleeson",
    "address1": "9 William Hovell Drive",
    "suburb": "ENDEAVOUR HILLS",
    "postcode": "3802",
    "state": "VIC",
    "schoolPhone": "9700 3663",
    "schoolEmail": ""
  },
  {
    "schoolID": "737",
    "name": "St Paul the Apostle Catholic Primary, Doreen ",
    "principal": "Phil Doherty",
    "address1": "80 Bassetts Road ",
    "suburb": "DOREEN",
    "postcode": "3754",
    "state": "VIC",
    "schoolPhone": "9216 2000",
    "schoolEmail": "principal@spadoreen.catholic.edu.au"
  },
  {
    "schoolID": "744",
    "name": "St Paul's Anglican Grammar School Warragul",
    "principal": "Cameron Herbert",
    "address1": "150 Bowen Street",
    "suburb": "WARRAGUL",
    "postcode": "3820",
    "state": "VIC",
    "schoolPhone": "5623 5833",
    "schoolEmail": "stpauls@stpaulsags.vic.edu.au"
  },
  {
    "schoolID": "430",
    "name": "St Paul's College Balwyn",
    "principal": "Mr Timothy Hemphill",
    "address1": "3 Brenbeal Street",
    "suburb": "BALWYN",
    "postcode": "3103",
    "state": "VIC",
    "schoolPhone": "8595 2470",
    "schoolEmail": ""
  },
  {
    "schoolID": "431",
    "name": "St Paul's Kealba Catholic School Kealba",
    "principal": "Mr Denis Daly",
    "address1": "230-240 Sunshine Avenue",
    "suburb": "KEALBA",
    "postcode": "3021",
    "state": "VIC",
    "schoolPhone": "9366 6033",
    "schoolEmail": ""
  },
  {
    "schoolID": "432",
    "name": "St Paul's Primary School Mildura",
    "principal": "Vince Muscatello",
    "address1": "716 Fourteenth Street",
    "suburb": "MILDURA",
    "postcode": "3502",
    "state": "VIC",
    "schoolPhone": "5023 4567",
    "schoolEmail": "principal@spmildura.catholic.edu.au"
  },
  {
    "schoolID": "433",
    "name": "St Paul's School Bentleigh",
    "principal": "Mrs Catherine Tammesild",
    "address1": "122 Jasper Road",
    "suburb": "BENTLEIGH",
    "postcode": "3204",
    "state": "VIC",
    "schoolPhone": "9557 7130",
    "schoolEmail": ""
  },
  {
    "schoolID": "434",
    "name": "St Paul's School Coburg",
    "principal": "Ms Maria Mercuri",
    "address1": "562 Sydney Road",
    "suburb": "COBURG",
    "postcode": "3058",
    "state": "VIC",
    "schoolPhone": "9354 8970",
    "schoolEmail": ""
  },
  {
    "schoolID": "435",
    "name": "St Paul's School Monbulk",
    "principal": "Mr Michael Watt",
    "address1": "59 Moores Road",
    "suburb": "MONBULK",
    "postcode": "3793",
    "state": "VIC",
    "schoolPhone": "9756 7201",
    "schoolEmail": ""
  },
  {
    "schoolID": "436",
    "name": "St Paul's School Sunshine West",
    "principal": "Mr Damian Casamento",
    "address1": "Links Street",
    "suburb": "SUNSHINE WEST",
    "postcode": "3020",
    "state": "VIC",
    "schoolPhone": "9363 1568",
    "schoolEmail": ""
  },
  {
    "schoolID": "685",
    "name": "St Peter Apostle School Hoppers Crossing",
    "principal": "Mrs Karen Wilson",
    "address1": "16-38 Guinane Avenue",
    "suburb": "HOPPERS CROSSING",
    "postcode": "3029",
    "state": "VIC",
    "schoolPhone": "9749 1055",
    "schoolEmail": "principal@stpeterahc.catholic.edu.au"
  },
  {
    "schoolID": "438",
    "name": "St Peter Chanel School Deer Park ",
    "principal": "Mr Armando Gagliardi",
    "address1": "848 Ballarat Road",
    "suburb": "DEER PARK",
    "postcode": "3023",
    "state": "VIC",
    "schoolPhone": "9363 1586",
    "schoolEmail": ""
  },
  {
    "schoolID": "769",
    "name": "St Peter Julian Eymard Mooroolbark",
    "principal": "Mr Greg Thomas",
    "address1": "Reay Road",
    "suburb": "MOOROOLBARK",
    "postcode": "3138",
    "state": "VIC",
    "schoolPhone": "9725 0595",
    "schoolEmail": "principal@spjemooroolbark.catholic.edu.au"
  },
  {
    "schoolID": "687",
    "name": "St Peter's School Bendigo Nth",
    "principal": "Jennifer Roberts ",
    "address1": "23-45 Fenton Street",
    "suburb": "BENDIGO NORTH",
    "postcode": "3550",
    "state": "VIC",
    "schoolPhone": "5443 9319",
    "schoolEmail": "principal@spbendigo.catholic edu.au"
  },
  {
    "schoolID": "444",
    "name": "St Peter's School Clayton",
    "principal": "",
    "address1": "16 Mary St",
    "suburb": "Clayton ",
    "postcode": "3168",
    "state": "VIC",
    "schoolPhone": "",
    "schoolEmail": ""
  },
  {
    "schoolID": "441",
    "name": "St Peter's School East Bentleigh",
    "principal": "Mr Michael Hanney",
    "address1": "842 Centre Road",
    "suburb": "East Bentleigh",
    "postcode": "3165",
    "state": "VIC",
    "schoolPhone": "",
    "schoolEmail": ""
  },
  {
    "schoolID": "445",
    "name": "St Peter's School Epping",
    "principal": "Mrs Angela Tonkin",
    "address1": "32 Wedge Street",
    "suburb": "EPPING",
    "postcode": "3076",
    "state": "VIC",
    "schoolPhone": "9401 1157",
    "schoolEmail": "principal@stprepp.catholic.edu.au"
  },
  {
    "schoolID": "446",
    "name": "St Peter's School Keilor East",
    "principal": "",
    "address1": "2A Parkside Ave",
    "suburb": "Keilor East ",
    "postcode": "033",
    "state": "VIC",
    "schoolPhone": "",
    "schoolEmail": ""
  },
  {
    "schoolID": "447",
    "name": "St Peter's School Sunshine South West",
    "principal": "",
    "address1": "Killeen St",
    "suburb": "Sunshine South West ",
    "postcode": "3020",
    "state": "VIC",
    "schoolPhone": "",
    "schoolEmail": ""
  },
  {
    "schoolID": "440",
    "name": "St Peter's Secondary College Cranbourne",
    "principal": "Mr Chris Black",
    "address1": "Cranbourne-Frankston Road",
    "suburb": "CRANBOURNE",
    "postcode": "3977",
    "state": "VIC",
    "schoolPhone": "5990 7777",
    "schoolEmail": "principal@stpeters.vic.edu.au"
  },
  {
    "schoolID": "448",
    "name": "St Philip's School Blackburn North",
    "principal": "Ms Michelle Worcester",
    "address1": "60 Junction Rd",
    "suburb": "BLACKBURN NORTH",
    "postcode": "3130",
    "state": "VIC",
    "schoolPhone": "9878 6501",
    "schoolEmail": "principal@stphilipbbn.catholic.edu.au"
  },
  {
    "schoolID": "449",
    "name": "St Pius X School Heidelberg West",
    "principal": "Barbara Gomez",
    "address1": "431 Waterdale Road",
    "suburb": "HEIDELBERG WEST",
    "postcode": "3081",
    "state": "VIC",
    "schoolPhone": "9457 3776",
    "schoolEmail": "principal@spheidelbergwest.catholic.edu.au"
  },
  {
    "schoolID": "450",
    "name": "St Pius X School Warrnambool West",
    "principal": "Joseph Ewing",
    "address1": "32 - 34 Hoddle Street",
    "suburb": "WARRNAMBOOL",
    "postcode": "3280",
    "state": "VIC",
    "schoolPhone": "5562 2506",
    "schoolEmail": "principal@spwarrnambool.catholic.edu.au"
  },
  {
    "schoolID": "451",
    "name": "St Raphael's School Preston West",
    "principal": "",
    "address1": "Cooper St",
    "suburb": "Preston West",
    "postcode": "3072",
    "state": "VIC",
    "schoolPhone": "",
    "schoolEmail": ""
  },
  {
    "schoolID": "452",
    "name": "St Richard's Primary School Kilsyth",
    "principal": "Marcus Gill",
    "address1": "672 Mt. Dandenong Road",
    "suburb": "KILSYTH",
    "postcode": "3137",
    "state": "VIC",
    "schoolPhone": "9728-4378",
    "schoolEmail": "principal@srkilsyth.catholic.edu.au"
  },
  {
    "schoolID": "453",
    "name": "St Robert's School Newtown",
    "principal": "",
    "address1": "13 Nicholas St",
    "suburb": "Newtown ",
    "postcode": "3220",
    "state": "VIC",
    "schoolPhone": "",
    "schoolEmail": ""
  },
  {
    "schoolID": "454",
    "name": "St Roch's School Glen Iris",
    "principal": "5 Glenvale Rd",
    "address1": "",
    "suburb": "Glen Iris ",
    "postcode": "3145",
    "state": "VIC",
    "schoolPhone": "",
    "schoolEmail": ""
  },
  {
    "schoolID": "455",
    "name": "St Scholastica's School Bennettswood",
    "principal": "",
    "address1": "4/8 Starling St",
    "suburb": "Bennettswood ",
    "postcode": "3125",
    "state": "VIC",
    "schoolPhone": "",
    "schoolEmail": ""
  },
  {
    "schoolID": "456",
    "name": "St Simon's School Rowville",
    "principal": "",
    "address1": "2 Taylors Ln",
    "suburb": "Rowville ",
    "postcode": "3178",
    "state": "VIC",
    "schoolPhone": "",
    "schoolEmail": ""
  },
  {
    "schoolID": "457",
    "name": "St Stephen's School Reservoir East",
    "principal": "Mrs Rosetta Rametta",
    "address1": "71 Whitelaw Street",
    "suburb": "RESERVOIR EAST",
    "postcode": "3073",
    "state": "VIC",
    "schoolPhone": "9460 3566",
    "schoolEmail": "principal@ssreservoireast.catholic.edu.au"
  },
  {
    "schoolID": "458",
    "name": "St Theresa's Primary School Albion",
    "principal": "Mr Robert Macklin",
    "address1": "16 Drummartin Street",
    "suburb": "ALBION",
    "postcode": "3020",
    "state": "VIC",
    "schoolPhone": "9311 9070",
    "schoolEmail": ""
  },
  {
    "schoolID": "643",
    "name": "St Therese Catholic Primary School Torquay",
    "principal": "Mr Joshua McElgunn",
    "address1": "50 Grossmans Road",
    "suburb": "TORQUAY",
    "postcode": "3228",
    "state": "VIC",
    "schoolPhone": "03 5261 4246",
    "schoolEmail": ""
  },
  {
    "schoolID": "462",
    "name": "St Therese's Primary School Kennington",
    "principal": "Matthew Mann",
    "address1": "27 Albion Street",
    "suburb": "KENNINGTON",
    "postcode": "3550",
    "state": "VIC",
    "schoolPhone": "5443 3200",
    "schoolEmail": "principal@stkennington.catholic.edu.au"
  },
  {
    "schoolID": "460",
    "name": "St Therese's School Cranbourne North",
    "principal": "",
    "address1": "131 Endeavour Dr",
    "suburb": "Cranbourne North ",
    "postcode": "3977",
    "state": "VIC",
    "schoolPhone": "",
    "schoolEmail": ""
  },
  {
    "schoolID": "461",
    "name": "St Therese's School Essendon",
    "principal": "",
    "address1": "25/33 Edward St",
    "suburb": "Essendon ",
    "postcode": "3040",
    "state": "VIC",
    "schoolPhone": "",
    "schoolEmail": ""
  },
  {
    "schoolID": "463",
    "name": "St Thomas Aquinas School Norlane",
    "principal": "",
    "address1": "51 Plume St",
    "suburb": "Norlane ",
    "postcode": "3214",
    "state": "VIC",
    "schoolPhone": "",
    "schoolEmail": ""
  },
  {
    "schoolID": "490",
    "name": "St Thomas More School Alfredton",
    "principal": "Mr Simon Duffy",
    "address1": "Cuthberts Road",
    "suburb": "ALFREDTON",
    "postcode": "3350",
    "state": "VIC",
    "schoolPhone": "5334 2244",
    "schoolEmail": ""
  },
  {
    "schoolID": "464",
    "name": "St Thomas More's School Belgrave",
    "principal": "",
    "address1": "Reynolds Ln",
    "suburb": "Belgrave ",
    "postcode": "3160",
    "state": "VIC",
    "schoolPhone": "",
    "schoolEmail": ""
  },
  {
    "schoolID": "465",
    "name": "St Thomas More's School Hadfield",
    "principal": "Marcy DeNardis",
    "address1": "30 Angus Street",
    "suburb": "HADFIELD",
    "postcode": "3046",
    "state": "VIC",
    "schoolPhone": "9306 6225",
    "schoolEmail": "principal@stmhadfield.catholic.edu.au"
  },
  {
    "schoolID": "466",
    "name": "St Thomas More's School Mount Eliza",
    "principal": "",
    "address1": "313 Canadian Bay Rd",
    "suburb": "Mount Eliza ",
    "postcode": "3930",
    "state": "VIC",
    "schoolPhone": "",
    "schoolEmail": ""
  },
  {
    "schoolID": "467",
    "name": "St Thomas Primary School Drysdale",
    "principal": "Mr Michael Lane",
    "address1": "1-7 Peninsula Drive",
    "suburb": "DRYSDALE",
    "postcode": "3222",
    "state": "VIC",
    "schoolPhone": "5251 1050",
    "schoolEmail": ""
  },
  {
    "schoolID": "468",
    "name": "St Thomas' School Sale",
    "principal": "Ms Anita Little",
    "address1": "Guthridge Parade",
    "suburb": "SALE",
    "postcode": "3850",
    "state": "VIC",
    "schoolPhone": "5144 1332",
    "schoolEmail": "principal@sttsale.catholic.edu.au"
  },
  {
    "schoolID": "469",
    "name": "St Thomas' School Terang",
    "principal": "",
    "address1": "1 Lyons St",
    "suburb": "Terang ",
    "postcode": "3264",
    "state": "VIC",
    "schoolPhone": "",
    "schoolEmail": ""
  },
  {
    "schoolID": "735",
    "name": "St Thomas the Apostle Catholic Primary School Cranbourne East",
    "principal": "Mrs Kate Dourley",
    "address1": "5 Fiorelli Blvd,",
    "suburb": "CLYDE ",
    "postcode": "3978",
    "state": "VIC",
    "schoolPhone": "5998 9293",
    "schoolEmail": "principal@cranbourneeast.catholic.edu.au"
  },
  {
    "schoolID": "722",
    "name": "St Thomas the Apostle Catholic Primary School Greensborough Nth",
    "principal": "Mr David Delaney",
    "address1": "251 Diamond Creek Road",
    "suburb": "GREENSBOROUGH NTH",
    "postcode": "3088",
    "state": "VIC",
    "schoolPhone": "9434 4565",
    "schoolEmail": "principal@stgreensboroughnth.catholic.edu.au"
  },
  {
    "schoolID": "470",
    "name": "St Thomas The Apostle School Blackburn",
    "principal": "Ms Angela Lacey",
    "address1": "67 Central Road",
    "suburb": "BLACKBURN",
    "postcode": "3130",
    "state": "VIC",
    "schoolPhone": "9878 8268",
    "schoolEmail": ""
  },
  {
    "schoolID": "472",
    "name": "St Timothy's School Vermont",
    "principal": "",
    "address1": "21 Stevens Rd",
    "suburb": "Vermont ",
    "postcode": "3133",
    "state": "VIC",
    "schoolPhone": "",
    "schoolEmail": ""
  },
  {
    "schoolID": "473",
    "name": "St Vincent de Paul Primary School Morwell",
    "principal": "Theresa Greenough",
    "address1": "2 Rowell St",
    "suburb": "MORWELL",
    "postcode": "3840",
    "state": "VIC",
    "schoolPhone": "51342060",
    "schoolEmail": ""
  },
  {
    "schoolID": "474",
    "name": "St Vincent de Paul's School Strathmore",
    "principal": "",
    "address1": "92-114 Woodland St",
    "suburb": "Strathmore ",
    "postcode": "3041",
    "state": "VIC",
    "schoolPhone": "",
    "schoolEmail": ""
  },
  {
    "schoolID": "664",
    "name": "Star of the Sea College Brighton",
    "principal": "Mary O'Connor",
    "address1": "80 Martin Street",
    "suburb": "BRIGHTON",
    "postcode": "3186",
    "state": "VIC",
    "schoolPhone": "9595 9595",
    "schoolEmail": "principal@starmelb.catholic.edu.au"
  },
  {
    "schoolID": "477",
    "name": "Stella Maris Catholic Primary School Point Cook West",
    "principal": "",
    "address1": "54-70 Innisfail Dr",
    "suburb": "Point Cook West ",
    "postcode": "3030",
    "state": "VIC",
    "schoolPhone": "",
    "schoolEmail": ""
  },
  {
    "schoolID": "478",
    "name": "Stella Maris School Beaumaris",
    "principal": "",
    "address1": "113 Oak St",
    "suburb": "Beaumaris ",
    "postcode": "3193",
    "state": "VIC",
    "schoolPhone": "",
    "schoolEmail": ""
  },
  {
    "schoolID": "682",
    "name": "The Laurels - Bacchus Marsh Community College Bacchus Marsh",
    "principal": "Coral Arnold",
    "address1": "PO Box 309",
    "suburb": "BACCHUS MARSH ",
    "postcode": "3340",
    "state": "VIC",
    "schoolPhone": "5367 1061",
    "schoolEmail": "manager@thelaurels.org.au"
  },
  {
    "schoolID": "479",
    "name": "Peninsula Grammar Mt Eliza",
    "principal": "Stuart Johnston",
    "address1": "20 Wooralla Drive",
    "suburb": "MT ELIZA",
    "postcode": "3930",
    "state": "VIC",
    "schoolPhone": "9788 7777",
    "schoolEmail": "peninsula@tps.vic.edu.au"
  },
  {
    "schoolID": "480",
    "name": "Thomas Carr College Tarneit",
    "principal": "Mr Craig Holmes",
    "address1": "35 Thomas Carr Drive",
    "suburb": "TARNEIT",
    "postcode": "3029",
    "state": "VIC",
    "schoolPhone": "8734 2444",
    "schoolEmail": "principal@thomascarr.vic.edu.au"
  },
  {
    "schoolID": "646",
    "name": "Tintern Girls Grammar Ringwood East",
    "principal": "Brad Fry",
    "address1": "90 Alexandra Road",
    "suburb": "RINGWOOD EAST",
    "postcode": "3135",
    "state": "VIC",
    "schoolPhone": "9845 7777",
    "schoolEmail": "principal@tintern.vic.edu.au"
  },
  {
    "schoolID": "481",
    "name": "Trinity Catholic Primary School Narre Warren South",
    "principal": "",
    "address1": "103-129 Oakgrove Dr",
    "suburb": "Narre Warren South",
    "postcode": "3805",
    "state": "VIC",
    "schoolPhone": "",
    "schoolEmail": ""
  },
  {
    "schoolID": "482",
    "name": "Trinity Catholic School Richmond North",
    "principal": "Licia Marchese",
    "address1": "57-59 Davison Street",
    "suburb": "RICHMOND NORTH",
    "postcode": "3121",
    "state": "VIC",
    "schoolPhone": "9428 7180",
    "schoolEmail": ""
  },
  {
    "schoolID": "483",
    "name": "Trinity College Colac Inc. Colac",
    "principal": "Mr Paul Clohesy",
    "address1": "119 Hart St ",
    "suburb": "COLAC",
    "postcode": "3250",
    "state": "VIC",
    "schoolPhone": "5233 9200",
    "schoolEmail": "principal@tcc.vic.edu.au"
  },
  {
    "schoolID": "659",
    "name": "Trinity Lutheran College Mildura",
    "principal": "Andrew Leske",
    "address1": "920 Fifteenth Street",
    "suburb": "MILDURA",
    "postcode": "3500",
    "state": "VIC",
    "schoolPhone": "5023 7013",
    "schoolEmail": ""
  },
  {
    "schoolID": "533",
    "name": "UB WestVic Academy of Sport Ballarat",
    "principal": "",
    "address1": "University Drive Mt Helen",
    "suburb": "Ballarat",
    "postcode": "3353",
    "state": "VIC",
    "schoolPhone": "03 5327 9890",
    "schoolEmail": ""
  },
  {
    "schoolID": "704",
    "name": "Victory Christian College Strathdale",
    "principal": "Anne Marie Rodgers",
    "address1": "6 Kairn Road",
    "suburb": "STRATHDALE",
    "postcode": "3550",
    "state": "VIC",
    "schoolPhone": "5445 2600",
    "schoolEmail": "admin@vcc.vic.edu.au"
  },
  {
    "schoolID": "709",
    "name": "Victory Lutheran College Wodonga",
    "principal": "Cain McDonald",
    "address1": "28 Drage Road",
    "suburb": "WODONGA",
    "postcode": "3690",
    "state": "VIC",
    "schoolPhone": "02 6057 5859",
    "schoolEmail": "victorylc@vlc.vic.edu.au"
  },
  {
    "schoolID": "678",
    "name": "Waverley Christian College Inc Wantirna",
    "principal": "Peter Sheahan",
    "address1": "1248 High Street Road",
    "suburb": "WANTIRNA",
    "postcode": "3133",
    "state": "VIC",
    "schoolPhone": "98718600",
    "schoolEmail": "college@wcc.vic.edu.au"
  },
  {
    "schoolID": "706",
    "name": "Wesley College Glen Waverley",
    "principal": "Nicholas Evans",
    "address1": "620 High Street Road",
    "suburb": "GLEN WAVERLEY",
    "postcode": "3150",
    "state": "VIC",
    "schoolPhone": "81026500",
    "schoolEmail": "principal@wesleycollege.edu.au"
  },
  {
    "schoolID": "777",
    "name": "Westbourne Grammar School Truganina",
    "principal": "Meg Hansen",
    "address1": "300 Sayers Road",
    "suburb": "TRUGANINA",
    "postcode": "3029",
    "state": "VIC",
    "schoolPhone": "97319444",
    "schoolEmail": "cooke.karen@westbourne.vic.edu.au"
  },
  {
    "schoolID": "484",
    "name": "Whitefriars College Inc. Donvale",
    "principal": "Mark Murphy",
    "address1": "156 Park Road",
    "suburb": "DONVALE",
    "postcode": "3111",
    "state": "VIC",
    "schoolPhone": "03 9872 8200",
    "schoolEmail": "principal@whitefriars.vic.edu.au"
  },
  {
    "schoolID": "627",
    "name": "Worawa Aboriginal College Healesville",
    "principal": "Lois Peeler",
    "address1": "60-80 Barak Lane",
    "suburb": "HEALESVILLE",
    "postcode": "3777",
    "state": "VIC",
    "schoolPhone": "5962 4344",
    "schoolEmail": "admin@worawa.vic.edu.au"
  },
  {
    "schoolID": "654",
    "name": "Xavier College Kew",
    "principal": "William Doherty",
    "address1": "135 Barkers Road",
    "suburb": "KEW",
    "postcode": "3101",
    "state": "VIC",
    "schoolPhone": "9854 5411",
    "schoolEmail": ""
  },
  {
    "schoolID": "707",
    "name": "Yarra Valley Grammar School Ringwood",
    "principal": "Dr Mark Merry",
    "address1": "Kalinda Road",
    "suburb": "RINGWOOD",
    "postcode": "3134",
    "state": "VIC",
    "schoolPhone": "9262 7700",
    "schoolEmail": "reception@yvg.vic.edu.au"
  },
  {
    "schoolID": "1083",
    "name": "St Francis Xavier College Berwick Campus",
    "principal": "Jason Hibberd",
    "address1": "75 Ridgemont Dr",
    "suburb": "BERWICK",
    "postcode": "3806",
    "state": "VIC",
    "schoolPhone": "",
    "schoolEmail": ""
  },
  {
    "schoolID": "990",
    "name": "Alphinton Grammar",
    "principal": "Vivianne Nikou",
    "address1": "18 Old Heidelberg Rd",
    "suburb": "Alphington",
    "postcode": "3078",
    "state": "VIC",
    "schoolPhone": "",
    "schoolEmail": ""
  },
  {
    "schoolID": "1017",
    "name": "Christian college Geelong",
    "principal": "",
    "address1": "39 Broughton Dr",
    "suburb": "BELMONT ",
    "postcode": "3216",
    "state": "VIC",
    "schoolPhone": "",
    "schoolEmail": ""
  },
  {
    "schoolID": "1019",
    "name": "SEDA College Shepparton Campus",
    "principal": "Heath McMillan",
    "address1": "135-145 Nixon St",
    "suburb": "Shepparton",
    "postcode": "3630",
    "state": "VIC",
    "schoolPhone": "",
    "schoolEmail": ""
  },
  {
    "schoolID": "1023",
    "name": "Ivanhoe Grammar School",
    "principal": "Gerard Foley",
    "address1": "41 The Ridgeway",
    "suburb": "Ivanhoe",
    "postcode": "3079",
    "state": "VIC",
    "schoolPhone": "",
    "schoolEmail": ""
  }
]
